{
 "type": "FeatureCollection",
 "features": [
  {
   "type": "Feature",
   "geometry": {
    "type": "Polygon",
    "coordinates": [
     [
      [
       -97.7084008,
       30.411637
      ],
      [
       -97.7075517,
       30.411118
      ],
      [
       -97.7075187,
       30.4113428
      ],
      [
       -97.7074651,
       30.4114859
      ],
      [
       -97.7071868,
       30.4118041
      ],
      [
       -97.7072404,
       30.4119516
      ],
      [
       -97.7077578,
       30.4122698
      ],
      [
       -97.7084008,
       30.411637
      ]
     ]
    ]
   },
   "properties": {
    "osm_id": 1254732001,
    "osm_type": "way",
    "name": "Lot A - Patient and Visitor Parking",
    "display_name": "Lot A - Patient and Visitor Parking, North Mopac Service Road, The Centrum, Austin, Travis County, Texas, 78727, United States",
    "feature_type": "parking_lot",
    "region": "north_austin",
    "area_m2": 7520.8,
    "open_lat": 30.4117344,
    "open_lon": -97.7077573,
    "open_radius_m": 39.0,
    "source": "openstreetmap_nominatim",
    "licence": "Data (c) OpenStreetMap contributors, ODbL",
    "verified_lat": 30.4117344,
    "verified_lon": -97.7075337,
    "nearest_feature": "amenity/parking Lot A - Patient and Visitor Parking at 24 m",
    "anchor_clearance_score_m": 14.4,
    "open_ground_verified": false
   }
  },
  {
   "type": "Feature",
   "geometry": {
    "type": "Polygon",
    "coordinates": [
     [
      [
       -97.7074667,
       30.4124709
      ],
      [
       -97.7069802,
       30.4121492
      ],
      [
       -97.7066525,
       30.4125154
      ],
      [
       -97.7063331,
       30.4127411
      ],
      [
       -97.7069102,
       30.4131179
      ],
      [
       -97.7074667,
       30.4124709
      ]
     ]
    ]
   },
   "properties": {
    "osm_id": 1254732002,
    "osm_type": "way",
    "name": "Lot B - Patient and Visitor Parking",
    "display_name": "Lot B - Patient and Visitor Parking, North Mopac Service Road, The Centrum, Austin, Travis County, Texas, 78727, United States",
    "feature_type": "parking_lot",
    "region": "north_austin",
    "area_m2": 5527.6,
    "open_lat": 30.4127215,
    "open_lon": -97.70686,
    "open_radius_m": 30.1,
    "source": "openstreetmap_nominatim",
    "licence": "Data (c) OpenStreetMap contributors, ODbL",
    "verified_lat": 30.4128707,
    "verified_lon": -97.70686,
    "nearest_feature": "amenity/parking Lot B - Patient and Visitor Parking at 27 m",
    "anchor_clearance_score_m": 17.4,
    "open_ground_verified": false
   }
  },
  {
   "type": "Feature",
   "geometry": {
    "type": "Polygon",
    "coordinates": [
     [
      [
       -97.6993307,
       30.4034101
      ],
      [
       -97.6993037,
       30.403056
      ],
      [
       -97.6991628,
       30.4031077
      ],
      [
       -97.6992228,
       30.4033558
      ],
      [
       -97.699034,
       30.4031387
      ],
      [
       -97.6991292,
       30.403054
      ],
      [
       -97.6991775,
       30.4029213
      ],
      [
       -97.6989781,
       30.4028425
      ],
      [
       -97.6990142,
       30.4027917
      ],
      [
       -97.6985803,
       30.4025743
      ],
      [
       -97.6984871,
       30.402592
      ],
      [
       -97.6984959,
       30.4026559
      ],
      [
       -97.6984497,
       30.4026947
      ],
      [
       -97.6983566,
       30.4026264
      ],
      [
       -97.6983222,
       30.4026674
      ],
      [
       -97.6982903,
       30.4026445
      ],
      [
       -97.6982368,
       30.4025339
      ],
      [
       -97.6982125,
       30.4024599
      ],
      [
       -97.6981971,
       30.4023847
      ],
      [
       -97.6982518,
       30.4023795
      ],
      [
       -97.6982185,
       30.402135
      ],
      [
       -97.6981677,
       30.4021358
      ],
      [
       -97.6981672,
       30.4020993
      ],
      [
       -97.6982904,
       30.402076
      ],
      [
       -97.698301,
       30.4021352
      ],
      [
       -97.6984767,
       30.4021163
      ],
      [
       -97.6987068,
       30.4021749
      ],
      [
       -97.6989862,
       30.4020146
      ],
      [
       -97.6986618,
       30.4015856
      ],
      [
       -97.6985276,
       30.4014629
      ],
      [
       -97.6983968,
       30.4015829
      ],
      [
       -97.6982906,
       30.4014834
      ],
      [
       -97.6981189,
       30.4014361
      ],
      [
       -97.6981433,
       30.401371
      ],
      [
       -97.6982372,
       30.4012302
      ],
      [
       -97.6981859,
       30.4011872
      ],
      [
       -97.6979671,
       30.401593
      ],
      [
       -97.6979384,
       30.4017155
      ],
      [
       -97.6977517,
       30.4016923
      ],
      [
       -97.6977636,
       30.4019798
      ],
      [
       -97.6978301,
       30.4022635
      ],
      [
       -97.6980071,
       30.4022668
      ],
      [
       -97.698057,
       30.4025209
      ],
      [
       -97.6981709,
       30.4026993
      ],
      [
       -97.6984754,
       30.4029372
      ],
      [
       -97.6991521,
       30.4035114
      ],
      [
       -97.6993307,
       30.4034101
      ]
     ]
    ]
   },
   "properties": {
    "osm_id": 927860881,
    "osm_type": "way",
    "name": "Bittern Hollow",
    "display_name": "Bittern Hollow, Austin, Travis County, Texas, 78758, United States",
    "feature_type": "parking_lot",
    "region": "north_austin",
    "area_m2": 12802.2,
    "open_lat": 30.4018454,
    "open_lon": -97.6984834,
    "open_radius_m": 30.1,
    "source": "openstreetmap_nominatim",
    "licence": "Data (c) OpenStreetMap contributors, ODbL",
    "verified_lat": 30.4016964,
    "verified_lon": -97.6984834,
    "nearest_feature": "amenity/parking Bittern Hollow, Austin, Travis County, T at 77 m",
    "anchor_clearance_score_m": 67.5,
    "open_ground_verified": true
   }
  },
  {
   "type": "Feature",
   "geometry": {
    "type": "Polygon",
    "coordinates": [
     [
      [
       -97.7216586,
       30.3992191
      ],
      [
       -97.7209014,
       30.3990012
      ],
      [
       -97.7202552,
       30.4006325
      ],
      [
       -97.7211292,
       30.4008846
      ],
      [
       -97.721179,
       30.4007517
      ],
      [
       -97.7211521,
       30.4005355
      ],
      [
       -97.7216586,
       30.3992191
      ]
     ]
    ]
   },
   "properties": {
    "osm_id": 108177604,
    "osm_type": "way",
    "name": "Pravada Street",
    "display_name": "Pravada Street, Rock Rose, Austin, Travis County, Texas, 78758, United States",
    "feature_type": "parking_lot",
    "region": "north_austin",
    "area_m2": 15113.5,
    "open_lat": 30.400388,
    "open_lon": -97.7207823,
    "open_radius_m": 38.9,
    "source": "openstreetmap_nominatim",
    "licence": "Data (c) OpenStreetMap contributors, ODbL",
    "verified_lat": 30.4005803,
    "verified_lon": -97.7207823,
    "nearest_feature": "amenity/parking Alterra Parkway, Rock Rose, Austin, Trav at 80 m",
    "anchor_clearance_score_m": 70.4,
    "open_ground_verified": true
   }
  },
  {
   "type": "Feature",
   "geometry": {
    "type": "Polygon",
    "coordinates": [
     [
      [
       -97.7302933,
       30.3989877
      ],
      [
       -97.7302706,
       30.3988918
      ],
      [
       -97.7301973,
       30.3988351
      ],
      [
       -97.7300811,
       30.398798
      ],
      [
       -97.7301114,
       30.3987501
      ],
      [
       -97.7296894,
       30.3986281
      ],
      [
       -97.7296793,
       30.3986825
      ],
      [
       -97.7296414,
       30.3986695
      ],
      [
       -97.7296389,
       30.3986302
      ],
      [
       -97.729462,
       30.3986324
      ],
      [
       -97.7294633,
       30.3985733
      ],
      [
       -97.7293117,
       30.3985614
      ],
      [
       -97.7293256,
       30.3986498
      ],
      [
       -97.7292498,
       30.3988111
      ],
      [
       -97.7290398,
       30.398778
      ],
      [
       -97.7290041,
       30.3989535
      ],
      [
       -97.7289031,
       30.3992247
      ],
      [
       -97.7288381,
       30.3993882
      ],
      [
       -97.7290111,
       30.3994488
      ],
      [
       -97.7290881,
       30.399271
      ],
      [
       -97.7292927,
       30.3993167
      ],
      [
       -97.729212,
       30.3995191
      ],
      [
       -97.729602,
       30.3996557
      ],
      [
       -97.7296945,
       30.3994083
      ],
      [
       -97.7298107,
       30.399454
      ],
      [
       -97.7299901,
       30.3994671
      ],
      [
       -97.7299926,
       30.3994017
      ],
      [
       -97.7300785,
       30.3993647
      ],
      [
       -97.7301291,
       30.3993058
      ],
      [
       -97.7302706,
       30.399077
      ],
      [
       -97.7302933,
       30.3989877
      ]
     ]
    ]
   },
   "properties": {
    "osm_id": 107769972,
    "osm_type": "way",
    "name": "North Mopac Service Road",
    "display_name": "North Mopac Service Road, Stonelake, Austin, Travis County, Texas, 78759, United States",
    "feature_type": "parking_lot",
    "region": "north_austin",
    "area_m2": 10182.4,
    "open_lat": 30.3990496,
    "open_lon": -97.7295884,
    "open_radius_m": 41.1,
    "source": "openstreetmap_nominatim",
    "licence": "Data (c) OpenStreetMap contributors, ODbL",
    "verified_lat": 30.3988463,
    "verified_lon": -97.7295884,
    "nearest_feature": "amenity/parking North Mopac Service Road, Stonelake, Aus at 34 m",
    "anchor_clearance_score_m": 23.9,
    "open_ground_verified": true
   }
  },
  {
   "type": "Feature",
   "geometry": {
    "type": "Polygon",
    "coordinates": [
     [
      [
       -97.7036907,
       30.4020168
      ],
      [
       -97.7032943,
       30.4013977
      ],
      [
       -97.7026992,
       30.4016811
      ],
      [
       -97.7023514,
       30.402098
      ],
      [
       -97.7026247,
       30.4025246
      ],
      [
       -97.7036907,
       30.4020168
      ]
     ]
    ]
   },
   "properties": {
    "osm_id": 913257509,
    "osm_type": "way",
    "name": "Lot C",
    "display_name": "Lot C, Metric Boulevard, Austin, Travis County, Texas, 78758, United States",
    "feature_type": "parking_lot",
    "region": "north_austin",
    "area_m2": 8559.7,
    "open_lat": 30.4019386,
    "open_lon": -97.7030054,
    "open_radius_m": 39.2,
    "source": "openstreetmap_nominatim",
    "licence": "Data (c) OpenStreetMap contributors, ODbL",
    "verified_lat": 30.4021329,
    "verified_lon": -97.7030054,
    "nearest_feature": "amenity/parking Lot C at 32 m",
    "anchor_clearance_score_m": 22.2,
    "open_ground_verified": true
   }
  },
  {
   "type": "Feature",
   "geometry": {
    "type": "Polygon",
    "coordinates": [
     [
      [
       -97.7309689,
       30.4082026
      ],
      [
       -97.7304945,
       30.4076755
      ],
      [
       -97.7305086,
       30.4074657
      ],
      [
       -97.7294347,
       30.4073801
      ],
      [
       -97.7295551,
       30.4075733
      ],
      [
       -97.7298499,
       30.4077205
      ],
      [
       -97.7301894,
       30.4078153
      ],
      [
       -97.7303927,
       30.4079582
      ],
      [
       -97.7306314,
       30.4081984
      ],
      [
       -97.7308028,
       30.4083041
      ],
      [
       -97.7309689,
       30.4082026
      ]
     ]
    ]
   },
   "properties": {
    "osm_id": 31115795,
    "osm_type": "way",
    "name": "Red Cloud Drive",
    "display_name": "Red Cloud Drive, Duval Springs, Austin, Travis County, Texas, 78759, United States",
    "feature_type": "parking_lot",
    "region": "north_austin",
    "area_m2": 5094.9,
    "open_lat": 30.407635,
    "open_lon": -97.7302497,
    "open_radius_m": 20.8,
    "source": "openstreetmap_nominatim",
    "licence": "Data (c) OpenStreetMap contributors, ODbL",
    "verified_lat": 30.4075318,
    "verified_lon": -97.7302497,
    "nearest_feature": "place/house 11400, North Mopac Expressway, Rock Rose at 78 m",
    "anchor_clearance_score_m": 42.7,
    "open_ground_verified": true
   }
  },
  {
   "type": "Feature",
   "geometry": {
    "type": "Polygon",
    "coordinates": [
     [
      [
       -97.7432813,
       30.4181883
      ],
      [
       -97.7431036,
       30.4180964
      ],
      [
       -97.7428313,
       30.4185457
      ],
      [
       -97.7424129,
       30.4183415
      ],
      [
       -97.7422674,
       30.4185908
      ],
      [
       -97.7425437,
       30.4187192
      ],
      [
       -97.74249,
       30.4188019
      ],
      [
       -97.7428541,
       30.4189661
      ],
      [
       -97.7430338,
       30.4186816
      ],
      [
       -97.7429675,
       30.4186498
      ],
      [
       -97.7431096,
       30.4184428
      ],
      [
       -97.7431592,
       30.4184659
      ],
      [
       -97.7432719,
       30.4183075
      ],
      [
       -97.7432585,
       30.4182612
      ],
      [
       -97.7432531,
       30.4182288
      ],
      [
       -97.7432813,
       30.4181883
      ]
     ]
    ]
   },
   "properties": {
    "osm_id": 1158817412,
    "osm_type": "way",
    "name": "Duval Road",
    "display_name": "Duval Road, Duval Springs, Austin, Travis County, Texas, 78859, United States",
    "feature_type": "parking_lot",
    "region": "north_austin",
    "area_m2": 3672.7,
    "open_lat": 30.4187194,
    "open_lon": -97.7427625,
    "open_radius_m": 20.2,
    "source": "openstreetmap_nominatim",
    "licence": "Data (c) OpenStreetMap contributors, ODbL",
    "verified_lat": 30.4188195,
    "verified_lon": -97.7427625,
    "nearest_feature": "amenity/parking Duval Road, Duval Springs, Austin, Travi at 41 m",
    "anchor_clearance_score_m": 31.2,
    "open_ground_verified": true
   }
  },
  {
   "type": "Feature",
   "geometry": {
    "type": "Polygon",
    "coordinates": [
     [
      [
       -97.7320081,
       30.4130311
      ],
      [
       -97.7317319,
       30.4129034
      ],
      [
       -97.7316192,
       30.412892
      ],
      [
       -97.7315175,
       30.4129225
      ],
      [
       -97.7314601,
       30.4129663
      ],
      [
       -97.7312544,
       30.4132956
      ],
      [
       -97.7310719,
       30.413578
      ],
      [
       -97.7311307,
       30.4136086
      ],
      [
       -97.7311241,
       30.4136252
      ],
      [
       -97.7313427,
       30.4137251
      ],
      [
       -97.7313789,
       30.4136644
      ],
      [
       -97.7314394,
       30.4136941
      ],
      [
       -97.7316189,
       30.4134916
      ],
      [
       -97.7317341,
       30.4133036
      ],
      [
       -97.7316612,
       30.4132788
      ],
      [
       -97.7317628,
       30.4131054
      ],
      [
       -97.7318313,
       30.413094
      ],
      [
       -97.7319475,
       30.413141
      ],
      [
       -97.7320081,
       30.4130311
      ]
     ]
    ]
   },
   "properties": {
    "osm_id": 110166106,
    "osm_type": "way",
    "name": "Whispering Valley Drive",
    "display_name": "Whispering Valley Drive, Duval Springs, Austin, Travis County, Texas, 78727, United States",
    "feature_type": "parking_lot",
    "region": "north_austin",
    "area_m2": 3706.4,
    "open_lat": 30.4133976,
    "open_lon": -97.7314325,
    "open_radius_m": 20.5,
    "source": "openstreetmap_nominatim",
    "licence": "Data (c) OpenStreetMap contributors, ODbL",
    "verified_lat": 30.4134988,
    "verified_lon": -97.7314325,
    "nearest_feature": "amenity/parking Whispering Valley Drive, Duval Springs,  at 11 m",
    "anchor_clearance_score_m": 1.3,
    "open_ground_verified": false
   }
  },
  {
   "type": "Feature",
   "geometry": {
    "type": "Polygon",
    "coordinates": [
     [
      [
       -97.7218406,
       30.4119229
      ],
      [
       -97.7218175,
       30.4117841
      ],
      [
       -97.7210148,
       30.4113869
      ],
      [
       -97.7198387,
       30.4107117
      ],
      [
       -97.7197079,
       30.4107649
      ],
      [
       -97.7193845,
       30.4109271
      ],
      [
       -97.7189795,
       30.4111261
      ],
      [
       -97.7187725,
       30.4112278
      ],
      [
       -97.7184046,
       30.4113939
      ],
      [
       -97.7180788,
       30.4114723
      ],
      [
       -97.717187,
       30.4118262
      ],
      [
       -97.7170876,
       30.4121127
      ],
      [
       -97.7173447,
       30.4125101
      ],
      [
       -97.7174868,
       30.4126523
      ],
      [
       -97.7176558,
       30.4127738
      ],
      [
       -97.7177433,
       30.412869
      ],
      [
       -97.7177819,
       30.41297
      ],
      [
       -97.717773,
       30.4130309
      ],
      [
       -97.717714,
       30.4130826
      ],
      [
       -97.7175425,
       30.4131107
      ],
      [
       -97.7173415,
       30.4130727
      ],
      [
       -97.7161273,
       30.4126185
      ],
      [
       -97.7158798,
       30.4125645
      ],
      [
       -97.714613,
       30.4123763
      ],
      [
       -97.7136707,
       30.4121069
      ],
      [
       -97.713707,
       30.4118868
      ],
      [
       -97.7136448,
       30.4117765
      ],
      [
       -97.7136234,
       30.4115004
      ],
      [
       -97.7135506,
       30.4112711
      ],
      [
       -97.7135409,
       30.4111467
      ],
      [
       -97.7135753,
       30.410787
      ],
      [
       -97.7133595,
       30.4102377
      ],
      [
       -97.7131673,
       30.4099086
      ],
      [
       -97.7124386,
       30.4105277
      ],
      [
       -97.7125198,
       30.4107384
      ],
      [
       -97.7119506,
       30.4110542
      ],
      [
       -97.7126256,
       30.4120488
      ],
      [
       -97.7128196,
       30.4118794
      ],
      [
       -97.7131839,
       30.4125069
      ],
      [
       -97.7138671,
       30.412688
      ],
      [
       -97.7140147,
       30.4128931
      ],
      [
       -97.7140617,
       30.4130755
      ],
      [
       -97.7142064,
       30.413061
      ],
      [
       -97.7144904,
       30.4141694
      ],
      [
       -97.714599,
       30.4141515
      ],
      [
       -97.7147121,
       30.4141518
      ],
      [
       -97.7148252,
       30.4141642
      ],
      [
       -97.7149166,
       30.4141824
      ],
      [
       -97.7149955,
       30.4142006
      ],
      [
       -97.7150886,
       30.4142339
      ],
      [
       -97.7156508,
       30.4144575
      ],
      [
       -97.715691,
       30.4143765
      ],
      [
       -97.7157205,
       30.4143187
      ],
      [
       -97.7157554,
       30.4142563
      ],
      [
       -97.7157688,
       30.4142308
      ],
      [
       -97.7157983,
       30.4141799
      ],
      [
       -97.7158265,
       30.4141209
      ],
      [
       -97.7165037,
       30.4143927
      ],
      [
       -97.7170509,
       30.4146194
      ],
      [
       -97.7174318,
       30.4147584
      ],
      [
       -97.7178342,
       30.4148556
      ],
      [
       -97.7186361,
       30.4149943
      ],
      [
       -97.7190921,
       30.4150869
      ],
      [
       -97.7194958,
       30.415228
      ],
      [
       -97.7196272,
       30.4150209
      ],
      [
       -97.7209101,
       30.4132253
      ],
      [
       -97.7218406,
       30.4119229
      ]
     ]
    ]
   },
   "properties": {
    "osm_id": 85646493,
    "osm_type": "way",
    "name": "Balcones District Park",
    "display_name": "Balcones District Park, 12017, Austin, Travis County, Texas, 78759, United States",
    "feature_type": "park",
    "region": "north_austin",
    "area_m2": 228982.9,
    "open_lat": 30.4125808,
    "open_lon": -97.7194019,
    "open_radius_m": 160.8,
    "source": "openstreetmap_nominatim",
    "licence": "Data (c) OpenStreetMap contributors, ODbL",
    "verified_lat": 30.4125808,
    "verified_lon": -97.7194019,
    "nearest_feature": "amenity/parking Northern Walnut Creek Trail, Austin, Tra at 81 m",
    "anchor_clearance_score_m": 70.9,
    "open_ground_verified": true
   }
  },
  {
   "type": "Feature",
   "geometry": {
    "type": "Polygon",
    "coordinates": [
     [
      [
       -97.7368556,
       30.4089161
      ],
      [
       -97.7366324,
       30.4087903
      ],
      [
       -97.7333451,
       30.4071913
      ],
      [
       -97.7289935,
       30.4049188
      ],
      [
       -97.7288561,
       30.404941
      ],
      [
       -97.7290364,
       30.406688
      ],
      [
       -97.7291995,
       30.4068212
      ],
      [
       -97.7293196,
       30.4084794
      ],
      [
       -97.7294827,
       30.4105816
      ],
      [
       -97.7314825,
       30.4093602
      ],
      [
       -97.7319203,
       30.4093972
      ],
      [
       -97.7324524,
       30.409834
      ],
      [
       -97.7335167,
       30.410552
      ],
      [
       -97.7336369,
       30.4104928
      ],
      [
       -97.7337828,
       30.4103077
      ],
      [
       -97.7339201,
       30.4101745
      ],
      [
       -97.7346583,
       30.4096859
      ],
      [
       -97.7349072,
       30.4096489
      ],
      [
       -97.7352848,
       30.4095453
      ],
      [
       -97.7356368,
       30.4095823
      ],
      [
       -97.7356368,
       30.40976
      ],
      [
       -97.7354823,
       30.4098118
      ],
      [
       -97.7355938,
       30.4100264
      ],
      [
       -97.7357741,
       30.4100338
      ],
      [
       -97.7363062,
       30.4096933
      ],
      [
       -97.7364693,
       30.4095527
      ],
      [
       -97.7368556,
       30.4089161
      ]
     ]
    ]
   },
   "properties": {
    "osm_id": 31115674,
    "osm_type": "way",
    "name": "Quarries Park",
    "display_name": "Quarries Park, Austin, Travis County, Texas, United States",
    "feature_type": "park",
    "region": "north_austin",
    "area_m2": 235433.7,
    "open_lat": 30.4078379,
    "open_lon": -97.7310825,
    "open_radius_m": 173.4,
    "source": "openstreetmap_nominatim",
    "licence": "Data (c) OpenStreetMap contributors, ODbL",
    "verified_lat": 30.4069799,
    "verified_lon": -97.7310825,
    "nearest_feature": "leisure/pitch Balcones Woods Drive, Balcones Woods, Au at 33 m",
    "anchor_clearance_score_m": 18.1,
    "open_ground_verified": false
   }
  },
  {
   "type": "Feature",
   "geometry": {
    "type": "Polygon",
    "coordinates": [
     [
      [
       -97.697888,
       30.4050009
      ],
      [
       -97.6971311,
       30.4047041
      ],
      [
       -97.6968577,
       30.4047296
      ],
      [
       -97.6965847,
       30.4042129
      ],
      [
       -97.6964144,
       30.4038905
      ],
      [
       -97.6961126,
       30.4035813
      ],
      [
       -97.696114,
       30.4034998
      ],
      [
       -97.6962139,
       30.4032834
      ],
      [
       -97.6961012,
       30.4028206
      ],
      [
       -97.6963098,
       30.402769
      ],
      [
       -97.6963899,
       30.4027033
      ],
      [
       -97.6967279,
       30.40164
      ],
      [
       -97.6973583,
       30.4013308
      ],
      [
       -97.6977237,
       30.4007163
      ],
      [
       -97.6974753,
       30.4005262
      ],
      [
       -97.6973185,
       30.4003618
      ],
      [
       -97.6970972,
       30.3999471
      ],
      [
       -97.696559,
       30.4001209
      ],
      [
       -97.6960297,
       30.4001116
      ],
      [
       -97.6960028,
       30.4008752
      ],
      [
       -97.6959715,
       30.401083
      ],
      [
       -97.6958994,
       30.4012434
      ],
      [
       -97.6958408,
       30.4013425
      ],
      [
       -97.6956704,
       30.4015201
      ],
      [
       -97.6955036,
       30.4016188
      ],
      [
       -97.695702,
       30.4018339
      ],
      [
       -97.6953748,
       30.4021185
      ],
      [
       -97.6952487,
       30.4021139
      ],
      [
       -97.6951299,
       30.4022139
      ],
      [
       -97.695061,
       30.4023383
      ],
      [
       -97.6950345,
       30.4024386
      ],
      [
       -97.6950206,
       30.4026214
      ],
      [
       -97.6949475,
       30.4027415
      ],
      [
       -97.6948,
       30.4028406
      ],
      [
       -97.6948055,
       30.4028969
      ],
      [
       -97.6949269,
       30.4029583
      ],
      [
       -97.69501,
       30.4030172
      ],
      [
       -97.6950932,
       30.4031225
      ],
      [
       -97.6952259,
       30.4033307
      ],
      [
       -97.6954513,
       30.4037517
      ],
      [
       -97.6954352,
       30.4038662
      ],
      [
       -97.6953158,
       30.4039993
      ],
      [
       -97.6951455,
       30.4041242
      ],
      [
       -97.6950047,
       30.4042468
      ],
      [
       -97.6949255,
       30.4043717
      ],
      [
       -97.6948638,
       30.4044874
      ],
      [
       -97.6948625,
       30.4045845
      ],
      [
       -97.6949591,
       30.404721
      ],
      [
       -97.6950771,
       30.4048691
      ],
      [
       -97.69523,
       30.4050229
      ],
      [
       -97.6953614,
       30.405134
      ],
      [
       -97.6956323,
       30.4053433
      ],
      [
       -97.6960024,
       30.4055411
      ],
      [
       -97.6962862,
       30.4059291
      ],
      [
       -97.6964195,
       30.4061113
      ],
      [
       -97.6965121,
       30.4062143
      ],
      [
       -97.696559,
       30.406338
      ],
      [
       -97.6961661,
       30.406456
      ],
      [
       -97.6962023,
       30.4066237
      ],
      [
       -97.6961513,
       30.4067914
      ],
      [
       -97.6961191,
       30.4068331
      ],
      [
       -97.6959971,
       30.4069915
      ],
      [
       -97.6963295,
       30.4071173
      ],
      [
       -97.6962267,
       30.4072865
      ],
      [
       -97.6964127,
       30.4073299
      ],
      [
       -97.6970956,
       30.4074927
      ],
      [
       -97.6972993,
       30.4068608
      ],
      [
       -97.6975273,
       30.4061402
      ],
      [
       -97.6978035,
       30.4052172
      ],
      [
       -97.697888,
       30.4050009
      ]
     ]
    ]
   },
   "properties": {
    "osm_id": 72066441,
    "osm_type": "way",
    "name": "Gracywoods Park",
    "display_name": "Gracywoods Park, Austin, Travis County, Texas, United States",
    "feature_type": "park",
    "region": "north_austin",
    "area_m2": 109169.9,
    "open_lat": 30.4045489,
    "open_lon": -97.6958536,
    "open_radius_m": 79.4,
    "source": "openstreetmap_nominatim",
    "licence": "Data (c) OpenStreetMap contributors, ODbL",
    "verified_lat": 30.4045489,
    "verified_lon": -97.6963082,
    "nearest_feature": "leisure/pitch Northern Walnut Creek Trail, Village at  at 46 m",
    "anchor_clearance_score_m": 30.7,
    "open_ground_verified": true
   }
  },
  {
   "type": "Feature",
   "geometry": {
    "type": "Polygon",
    "coordinates": [
     [
      [
       -97.7397239,
       30.4130585
      ],
      [
       -97.73972,
       30.4130256
      ],
      [
       -97.7396925,
       30.4130093
      ],
      [
       -97.7376313,
       30.4120335
      ],
      [
       -97.737583,
       30.4120335
      ],
      [
       -97.7373979,
       30.4122784
      ],
      [
       -97.7372585,
       30.412408
      ],
      [
       -97.7371673,
       30.4124822
      ],
      [
       -97.7357752,
       30.4134165
      ],
      [
       -97.7357403,
       30.4134489
      ],
      [
       -97.735743,
       30.4134907
      ],
      [
       -97.7357779,
       30.413516
      ],
      [
       -97.7377118,
       30.4144365
      ],
      [
       -97.737752,
       30.4144457
      ],
      [
       -97.7377788,
       30.4144345
      ],
      [
       -97.7379907,
       30.4142562
      ],
      [
       -97.7390046,
       30.4135879
      ],
      [
       -97.739702,
       30.4130883
      ],
      [
       -97.7397239,
       30.4130585
      ]
     ]
    ]
   },
   "properties": {
    "osm_id": 208631962,
    "osm_type": "way",
    "name": "Hubert C. Schroeter Neighborhood Park",
    "display_name": "Hubert C. Schroeter Neighborhood Park, Austin, Travis County, Texas, United States",
    "feature_type": "park",
    "region": "north_austin",
    "area_m2": 51712.3,
    "open_lat": 30.4132329,
    "open_lon": -97.7377866,
    "open_radius_m": 102.3,
    "source": "openstreetmap_nominatim",
    "licence": "Data (c) OpenStreetMap contributors, ODbL",
    "verified_lat": 30.4132329,
    "verified_lon": -97.7372005,
    "nearest_feature": "leisure/pitch Big Trail, Duval Springs, Austin, Travis at 85 m",
    "anchor_clearance_score_m": 69.7,
    "open_ground_verified": true
   }
  },
  {
   "type": "Feature",
   "geometry": {
    "type": "Polygon",
    "coordinates": [
     [
      [
       -97.7062983,
       30.3784384
      ],
      [
       -97.7062747,
       30.3783952
      ],
      [
       -97.705033,
       30.3761222
      ],
      [
       -97.7050128,
       30.3761017
      ],
      [
       -97.704963,
       30.3760931
      ],
      [
       -97.7049244,
       30.3761036
      ],
      [
       -97.7034548,
       30.3767065
      ],
      [
       -97.7034151,
       30.3767305
      ],
      [
       -97.7034122,
       30.3767423
      ],
      [
       -97.7034179,
       30.3767753
      ],
      [
       -97.7039775,
       30.3777947
      ],
      [
       -97.7048583,
       30.3774748
      ],
      [
       -97.7053572,
       30.3783881
      ],
      [
       -97.7056865,
       30.3782506
      ],
      [
       -97.7057936,
       30.3784403
      ],
      [
       -97.7060213,
       30.3785543
      ],
      [
       -97.7062955,
       30.3784519
      ],
      [
       -97.7062983,
       30.3784384
      ]
     ]
    ]
   },
   "properties": {
    "osm_id": 1033407125,
    "osm_type": "way",
    "name": "Cook School Park",
    "display_name": "Cook School Park, 1505, Austin, Travis County, Texas, 78758, United States",
    "feature_type": "park",
    "region": "north_austin",
    "area_m2": 33586.3,
    "open_lat": 30.3768902,
    "open_lon": -97.704658,
    "open_radius_m": 67.8,
    "source": "openstreetmap_nominatim",
    "licence": "Data (c) OpenStreetMap contributors, ODbL",
    "verified_lat": 30.3772255,
    "verified_lon": -97.704658,
    "nearest_feature": "leisure/track Mearns Meadow Boulevard, Austin, Travis  at 68 m",
    "anchor_clearance_score_m": 52.6,
    "open_ground_verified": true
   }
  },
  {
   "type": "Feature",
   "geometry": {
    "type": "Polygon",
    "coordinates": [
     [
      [
       -97.7245477,
       30.397555
      ],
      [
       -97.7236237,
       30.3972697
      ],
      [
       -97.7227134,
       30.3969887
      ],
      [
       -97.7226914,
       30.3969672
      ],
      [
       -97.7226777,
       30.3969701
      ],
      [
       -97.7226568,
       30.396969
      ],
      [
       -97.7226372,
       30.3969602
      ],
      [
       -97.7226235,
       30.3969457
      ],
      [
       -97.7226156,
       30.3969313
      ],
      [
       -97.7226156,
       30.3969069
      ],
      [
       -97.7226258,
       30.3968851
      ],
      [
       -97.7226482,
       30.396869
      ],
      [
       -97.7226778,
       30.3968509
      ],
      [
       -97.7227004,
       30.3968359
      ],
      [
       -97.7227173,
       30.3968148
      ],
      [
       -97.7227275,
       30.3967957
      ],
      [
       -97.7227344,
       30.3967728
      ],
      [
       -97.7227348,
       30.3967513
      ],
      [
       -97.7227334,
       30.3967301
      ],
      [
       -97.7223694,
       30.3966177
      ],
      [
       -97.722349,
       30.3966089
      ],
      [
       -97.7223297,
       30.3965982
      ],
      [
       -97.7223084,
       30.3965842
      ],
      [
       -97.7222851,
       30.3965644
      ],
      [
       -97.7222662,
       30.396553
      ],
      [
       -97.7220979,
       30.3965028
      ],
      [
       -97.7220769,
       30.3964987
      ],
      [
       -97.7220575,
       30.3964993
      ],
      [
       -97.7220351,
       30.3965023
      ],
      [
       -97.7219925,
       30.3965005
      ],
      [
       -97.7219452,
       30.3964896
      ],
      [
       -97.7218303,
       30.3964539
      ],
      [
       -97.7218151,
       30.3964481
      ],
      [
       -97.7218018,
       30.3964452
      ],
      [
       -97.7217877,
       30.3964447
      ],
      [
       -97.721775,
       30.3964475
      ],
      [
       -97.7217634,
       30.3964513
      ],
      [
       -97.7217536,
       30.3964583
      ],
      [
       -97.7217457,
       30.3964691
      ],
      [
       -97.7217411,
       30.3964819
      ],
      [
       -97.7211937,
       30.3978696
      ],
      [
       -97.7211877,
       30.3978887
      ],
      [
       -97.7211886,
       30.3979076
      ],
      [
       -97.7211946,
       30.3979306
      ],
      [
       -97.7212088,
       30.3979474
      ],
      [
       -97.7212387,
       30.3979555
      ],
      [
       -97.7230399,
       30.3982404
      ],
      [
       -97.7232013,
       30.3981482
      ],
      [
       -97.7232334,
       30.3981299
      ],
      [
       -97.7233172,
       30.3977517
      ],
      [
       -97.7240894,
       30.3978658
      ],
      [
       -97.7242885,
       30.3979301
      ],
      [
       -97.7243905,
       30.397963
      ],
      [
       -97.7244066,
       30.3979658
      ],
      [
       -97.7244359,
       30.3978481
      ],
      [
       -97.7243262,
       30.3978196
      ],
      [
       -97.7244238,
       30.3975558
      ],
      [
       -97.7245341,
       30.3975883
      ],
      [
       -97.7245477,
       30.397555
      ]
     ]
    ]
   },
   "properties": {
    "osm_id": 468565017,
    "osm_type": "way",
    "name": "Domain Central Park",
    "display_name": "Domain Central Park, Austin, Travis County, Texas, United States",
    "feature_type": "park",
    "region": "north_austin",
    "area_m2": 33450.1,
    "open_lat": 30.3974446,
    "open_lon": -97.7221458,
    "open_radius_m": 71.3,
    "source": "openstreetmap_nominatim",
    "licence": "Data (c) OpenStreetMap contributors, ODbL",
    "verified_lat": 30.3974446,
    "verified_lon": -97.7225542,
    "nearest_feature": "leisure/dog_park Alterra Parkway, Rock Rose, Austin, Trav at 63 m",
    "anchor_clearance_score_m": 47.9,
    "open_ground_verified": true
   }
  },
  {
   "type": "Feature",
   "geometry": {
    "type": "Polygon",
    "coordinates": [
     [
      [
       -97.7188675,
       30.388676
      ],
      [
       -97.7188497,
       30.3886219
      ],
      [
       -97.718679,
       30.3882338
      ],
      [
       -97.7186575,
       30.388201
      ],
      [
       -97.7186229,
       30.3881226
      ],
      [
       -97.7184878,
       30.3878166
      ],
      [
       -97.7184783,
       30.3877825
      ],
      [
       -97.7183275,
       30.3874414
      ],
      [
       -97.7184058,
       30.3874156
      ],
      [
       -97.7183673,
       30.3873304
      ],
      [
       -97.7183306,
       30.3872489
      ],
      [
       -97.7183764,
       30.387234
      ],
      [
       -97.7183396,
       30.3871293
      ],
      [
       -97.717975,
       30.386926
      ],
      [
       -97.7178158,
       30.3875517
      ],
      [
       -97.717785,
       30.3876768
      ],
      [
       -97.7177548,
       30.3877992
      ],
      [
       -97.7177335,
       30.3878853
      ],
      [
       -97.71773,
       30.3878998
      ],
      [
       -97.7176904,
       30.3880517
      ],
      [
       -97.7176496,
       30.3882192
      ],
      [
       -97.7175994,
       30.3884262
      ],
      [
       -97.7177148,
       30.3884789
      ],
      [
       -97.717793,
       30.3885147
      ],
      [
       -97.7178223,
       30.3884747
      ],
      [
       -97.7178114,
       30.3884689
      ],
      [
       -97.7177631,
       30.388445
      ],
      [
       -97.7177767,
       30.3884247
      ],
      [
       -97.7177905,
       30.3884038
      ],
      [
       -97.7178054,
       30.3883815
      ],
      [
       -97.7178193,
       30.3883606
      ],
      [
       -97.7178336,
       30.3883391
      ],
      [
       -97.7178475,
       30.3883182
      ],
      [
       -97.7178614,
       30.3882973
      ],
      [
       -97.7178923,
       30.3882512
      ],
      [
       -97.7179382,
       30.3882763
      ],
      [
       -97.7179643,
       30.3882367
      ],
      [
       -97.7188675,
       30.388676
      ]
     ]
    ]
   },
   "properties": {
    "osm_id": 1119690473,
    "osm_type": "way",
    "name": "Live Oak Park",
    "display_name": "Live Oak Park, Austin, Travis County, Texas, United States",
    "feature_type": "park",
    "region": "north_austin",
    "area_m2": 10706.4,
    "open_lat": 30.387924,
    "open_lon": -97.7181227,
    "open_radius_m": 37.0,
    "source": "openstreetmap_nominatim",
    "licence": "Data (c) OpenStreetMap contributors, ODbL",
    "verified_lat": 30.387924,
    "verified_lon": -97.7183348,
    "nearest_feature": "highway/cycleway Red Line Trail at 40 m",
    "anchor_clearance_score_m": 19.5,
    "open_ground_verified": false
   }
  },
  {
   "type": "Feature",
   "geometry": {
    "type": "Polygon",
    "coordinates": [
     [
      [
       -97.6981008,
       30.4147949
      ],
      [
       -97.698055,
       30.4147733
      ],
      [
       -97.6976597,
       30.4145869
      ],
      [
       -97.6969201,
       30.4142382
      ],
      [
       -97.6968522,
       30.4144472
      ],
      [
       -97.6968057,
       30.4145826
      ],
      [
       -97.6966894,
       30.414815
      ],
      [
       -97.6966487,
       30.4148819
      ],
      [
       -97.6966312,
       30.414912
      ],
      [
       -97.6966487,
       30.4149371
      ],
      [
       -97.6967282,
       30.4149688
      ],
      [
       -97.6969278,
       30.4150708
      ],
      [
       -97.6970636,
       30.415116
      ],
      [
       -97.6972245,
       30.4151527
      ],
      [
       -97.6973796,
       30.4151628
      ],
      [
       -97.6975405,
       30.4151444
      ],
      [
       -97.6976975,
       30.4150959
      ],
      [
       -97.6978487,
       30.4150273
      ],
      [
       -97.6979941,
       30.414917
      ],
      [
       -97.6981008,
       30.4147949
      ]
     ]
    ]
   },
   "properties": {
    "osm_id": 585476581,
    "osm_type": "way",
    "name": "Alderbrook Pocket Park",
    "display_name": "Alderbrook Pocket Park, 12444, Austin, Travis County, Texas, 78758, United States",
    "feature_type": "park",
    "region": "north_austin",
    "area_m2": 8237.8,
    "open_lat": 30.414765,
    "open_lon": -97.6971651,
    "open_radius_m": 39.7,
    "source": "openstreetmap_nominatim",
    "licence": "Data (c) OpenStreetMap contributors, ODbL",
    "verified_lat": 30.414765,
    "verified_lon": -97.6971651,
    "nearest_feature": "leisure/playground Alderbrook Trail 2, North Star, Austin,  at 53 m",
    "anchor_clearance_score_m": 37.9,
    "open_ground_verified": true
   }
  },
  {
   "type": "Feature",
   "geometry": {
    "type": "Polygon",
    "coordinates": [
     [
      [
       -97.7047378,
       30.3948939
      ],
      [
       -97.703256,
       30.3946786
      ],
      [
       -97.7035111,
       30.3944276
      ],
      [
       -97.7034665,
       30.3943853
      ],
      [
       -97.7032549,
       30.3945816
      ],
      [
       -97.7030816,
       30.394489
      ],
      [
       -97.7026514,
       30.394592
      ],
      [
       -97.702323,
       30.394545
      ],
      [
       -97.702609,
       30.3942429
      ],
      [
       -97.7025767,
       30.3942019
      ],
      [
       -97.7019851,
       30.3943044
      ],
      [
       -97.701882,
       30.3941764
      ],
      [
       -97.7015558,
       30.3944289
      ],
      [
       -97.7013641,
       30.3945685
      ],
      [
       -97.7011723,
       30.3945323
      ],
      [
       -97.7011603,
       30.394584
      ],
      [
       -97.7009175,
       30.3945478
      ],
      [
       -97.7009065,
       30.3946141
      ],
      [
       -97.7006783,
       30.3945759
      ],
      [
       -97.7006851,
       30.3945396
      ],
      [
       -97.7005193,
       30.3945142
      ],
      [
       -97.6991215,
       30.3943086
      ],
      [
       -97.6991156,
       30.3943376
      ],
      [
       -97.6989317,
       30.3943103
      ],
      [
       -97.6989317,
       30.3942916
      ],
      [
       -97.6984078,
       30.394208
      ],
      [
       -97.6984513,
       30.3940562
      ],
      [
       -97.6975418,
       30.3938396
      ],
      [
       -97.6974864,
       30.393855
      ],
      [
       -97.6974172,
       30.3938021
      ],
      [
       -97.696486,
       30.3936657
      ],
      [
       -97.6971497,
       30.3930817
      ],
      [
       -97.6976226,
       30.3919613
      ],
      [
       -97.6977902,
       30.3917017
      ],
      [
       -97.6980613,
       30.3914483
      ],
      [
       -97.6978011,
       30.3912508
      ],
      [
       -97.6973221,
       30.3917188
      ],
      [
       -97.6969389,
       30.3921592
      ],
      [
       -97.6961044,
       30.3936043
      ],
      [
       -97.6956833,
       30.3934286
      ],
      [
       -97.6955884,
       30.393432
      ],
      [
       -97.6955251,
       30.3934133
      ],
      [
       -97.6952523,
       30.3932888
      ],
      [
       -97.6950783,
       30.393548
      ],
      [
       -97.6946848,
       30.393386
      ],
      [
       -97.6945484,
       30.3936026
      ],
      [
       -97.6943823,
       30.3935702
      ],
      [
       -97.6917053,
       30.3932018
      ],
      [
       -97.6917132,
       30.3931234
      ],
      [
       -97.6913867,
       30.3929642
      ],
      [
       -97.6912152,
       30.3932688
      ],
      [
       -97.6915093,
       30.3936743
      ],
      [
       -97.6916376,
       30.393499
      ],
      [
       -97.6938923,
       30.3938405
      ],
      [
       -97.6940524,
       30.3938648
      ],
      [
       -97.6943398,
       30.3939034
      ],
      [
       -97.6957618,
       30.3940943
      ],
      [
       -97.6967937,
       30.3942328
      ],
      [
       -97.6968538,
       30.3942409
      ],
      [
       -97.6984256,
       30.3944968
      ],
      [
       -97.6984781,
       30.3943779
      ],
      [
       -97.6997622,
       30.3945692
      ],
      [
       -97.6997712,
       30.3945498
      ],
      [
       -97.6999869,
       30.3945795
      ],
      [
       -97.6999814,
       30.3946023
      ],
      [
       -97.7004925,
       30.3946867
      ],
      [
       -97.701143,
       30.3947865
      ],
      [
       -97.7010441,
       30.394928
      ],
      [
       -97.7021481,
       30.3950861
      ],
      [
       -97.7020938,
       30.3953839
      ],
      [
       -97.70217,
       30.3953982
      ],
      [
       -97.7022255,
       30.3950971
      ],
      [
       -97.7027573,
       30.3951732
      ],
      [
       -97.703942,
       30.3953385
      ],
      [
       -97.70448,
       30.3954135
      ],
      [
       -97.7045221,
       30.3953436
      ],
      [
       -97.7047378,
       30.3948939
      ]
     ]
    ]
   },
   "properties": {
    "osm_id": 585234335,
    "osm_type": "way",
    "name": "North Star Greenbelt",
    "display_name": "North Star Greenbelt, 11701, Austin, Travis County, Texas, 78758, United States",
    "feature_type": "park",
    "region": "north_austin",
    "area_m2": 77275.7,
    "open_lat": 30.3946728,
    "open_lon": -97.7019052,
    "open_radius_m": 41.5,
    "source": "openstreetmap_nominatim",
    "licence": "Data (c) OpenStreetMap contributors, ODbL",
    "verified_lat": 30.3944674,
    "verified_lon": -97.7019052,
    "nearest_feature": "amenity/shelter Pearwood Place, Quail Hollow, Austin, Tr at 31 m",
    "anchor_clearance_score_m": 20.6,
    "open_ground_verified": true
   }
  },
  {
   "type": "Feature",
   "geometry": {
    "type": "Polygon",
    "coordinates": [
     [
      [
       -97.7603286,
       30.3860446
      ],
      [
       -97.7595731,
       30.3845577
      ],
      [
       -97.7587402,
       30.3837446
      ],
      [
       -97.7586646,
       30.3826027
      ],
      [
       -97.7594524,
       30.3815121
      ],
      [
       -97.7594777,
       30.3814771
      ],
      [
       -97.7599315,
       30.3811019
      ],
      [
       -97.7597424,
       30.3801231
      ],
      [
       -97.7587024,
       30.3792912
      ],
      [
       -97.7580595,
       30.3795359
      ],
      [
       -97.7583465,
       30.3801455
      ],
      [
       -97.7585511,
       30.3805799
      ],
      [
       -97.7585322,
       30.3814771
      ],
      [
       -97.7574544,
       30.38319
      ],
      [
       -97.757306,
       30.3831495
      ],
      [
       -97.7551982,
       30.3825737
      ],
      [
       -97.754807,
       30.3829779
      ],
      [
       -97.756074,
       30.3838098
      ],
      [
       -97.7573787,
       30.3840871
      ],
      [
       -97.7579271,
       30.3846255
      ],
      [
       -97.7582403,
       30.3853857
      ],
      [
       -97.7581168,
       30.3859094
      ],
      [
       -97.756945,
       30.3867944
      ],
      [
       -97.7559605,
       30.3869907
      ],
      [
       -97.7560074,
       30.3878631
      ],
      [
       -97.7581504,
       30.387903
      ],
      [
       -97.7581729,
       30.3868439
      ],
      [
       -97.7591373,
       30.3861099
      ],
      [
       -97.7603286,
       30.3860446
      ]
     ]
    ]
   },
   "properties": {
    "osm_id": 154167406,
    "osm_type": "way",
    "name": "Steck Valley Greenbelt",
    "display_name": "Steck Valley Greenbelt, Austin, Travis County, Texas, United States",
    "feature_type": "park",
    "region": "north_austin",
    "area_m2": 153558.8,
    "open_lat": 30.3853884,
    "open_lon": -97.7590763,
    "open_radius_m": 80.3,
    "source": "openstreetmap_nominatim",
    "licence": "Data (c) OpenStreetMap contributors, ODbL",
    "verified_lat": 30.3849911,
    "verified_lon": -97.7590763,
    "nearest_feature": "highway/footway Steck Valley Greenbelt at 52 m",
    "anchor_clearance_score_m": 32.4,
    "open_ground_verified": true
   }
  },
  {
   "type": "Feature",
   "geometry": {
    "type": "Polygon",
    "coordinates": [
     [
      [
       -97.7040387,
       30.4083737
      ],
      [
       -97.7026045,
       30.4067151
      ],
      [
       -97.7020221,
       30.4053504
      ],
      [
       -97.6998927,
       30.4056511
      ],
      [
       -97.6998334,
       30.4053756
      ],
      [
       -97.6991631,
       30.4055539
      ],
      [
       -97.6987119,
       30.4055138
      ],
      [
       -97.6983153,
       30.4054866
      ],
      [
       -97.697962,
       30.4054766
      ],
      [
       -97.6978411,
       30.4059232
      ],
      [
       -97.6976737,
       30.4064637
      ],
      [
       -97.6980955,
       30.4065474
      ],
      [
       -97.6984398,
       30.4064079
      ],
      [
       -97.698826,
       30.4064019
      ],
      [
       -97.6995043,
       30.4063914
      ],
      [
       -97.6999969,
       30.4065471
      ],
      [
       -97.7011509,
       30.4069272
      ],
      [
       -97.70132,
       30.4069929
      ],
      [
       -97.7009341,
       30.4079144
      ],
      [
       -97.7009159,
       30.4079579
      ],
      [
       -97.7021691,
       30.4081861
      ],
      [
       -97.7039874,
       30.4085197
      ],
      [
       -97.7040387,
       30.4083737
      ]
     ]
    ]
   },
   "properties": {
    "osm_id": 469564928,
    "osm_type": "way",
    "name": "Walnut Creek Greenbelt",
    "display_name": "Walnut Creek Greenbelt, 2611, Austin, Travis County, Texas, 78701, United States",
    "feature_type": "park",
    "region": "north_austin",
    "area_m2": 88171.4,
    "open_lat": 30.4062101,
    "open_lon": -97.7014467,
    "open_radius_m": 84.6,
    "source": "openstreetmap_nominatim",
    "licence": "Data (c) OpenStreetMap contributors, ODbL",
    "verified_lat": 30.4066287,
    "verified_lon": -97.7014467,
    "nearest_feature": "amenity/bench Northern Walnut Creek Trail, Village at  at 52 m",
    "anchor_clearance_score_m": 41.9,
    "open_ground_verified": true
   }
  },
  {
   "type": "Feature",
   "geometry": {
    "type": "Polygon",
    "coordinates": [
     [
      [
       -97.7317622,
       30.417779
      ],
      [
       -97.73104,
       30.416975
      ],
      [
       -97.7311733,
       30.4167373
      ],
      [
       -97.7306078,
       30.4164558
      ],
      [
       -97.7302445,
       30.4161706
      ],
      [
       -97.7299769,
       30.4158124
      ],
      [
       -97.729607,
       30.4158546
      ],
      [
       -97.729761,
       30.4177815
      ],
      [
       -97.731145,
       30.4177902
      ],
      [
       -97.7314845,
       30.418006
      ],
      [
       -97.7316047,
       30.4178993
      ],
      [
       -97.7317622,
       30.417779
      ]
     ]
    ]
   },
   "properties": {
    "osm_id": 110165353,
    "osm_type": "way",
    "name": "Champions Forest",
    "display_name": "Champions Forest, Austin, Travis County, Texas, United States",
    "feature_type": "park",
    "region": "north_austin",
    "area_m2": 26658.0,
    "open_lat": 30.4171877,
    "open_lon": -97.7304019,
    "open_radius_m": 65.7,
    "source": "openstreetmap_nominatim",
    "licence": "Data (c) OpenStreetMap contributors, ODbL",
    "verified_lat": 30.4171877,
    "verified_lon": -97.7300257,
    "nearest_feature": "building/yes 12001, Hispania Court, Duval Springs, Au at 79 m",
    "anchor_clearance_score_m": 44.2,
    "open_ground_verified": true
   }
  },
  {
   "type": "Feature",
   "geometry": {
    "type": "Polygon",
    "coordinates": [
     [
      [
       -97.7552962,
       30.3744073
      ],
      [
       -97.7543063,
       30.3739095
      ],
      [
       -97.7531849,
       30.3733488
      ],
      [
       -97.7517128,
       30.3726763
      ],
      [
       -97.7515371,
       30.3729192
      ],
      [
       -97.7512032,
       30.3729957
      ],
      [
       -97.7510557,
       30.3731934
      ],
      [
       -97.7501,
       30.3746482
      ],
      [
       -97.7495832,
       30.3754347
      ],
      [
       -97.7534152,
       30.3773278
      ],
      [
       -97.7552962,
       30.3744073
      ]
     ]
    ]
   },
   "properties": {
    "osm_id": 204314427,
    "osm_type": "way",
    "name": "Anderson High School",
    "display_name": "Anderson High School, 8403, Mesa Drive, Westover Hills, Austin, Travis County, Texas, 78759, United States",
    "feature_type": "school",
    "region": "north_austin",
    "area_m2": 155622.8,
    "open_lat": 30.3748719,
    "open_lon": -97.752356,
    "open_radius_m": 186.4,
    "source": "openstreetmap_nominatim",
    "licence": "Data (c) OpenStreetMap contributors, ODbL"
   }
  },
  {
   "type": "Feature",
   "geometry": {
    "type": "Polygon",
    "coordinates": [
     [
      [
       -97.7427033,
       30.4178599
      ],
      [
       -97.7414131,
       30.4172539
      ],
      [
       -97.7414075,
       30.4172629
      ],
      [
       -97.739582,
       30.420167
      ],
      [
       -97.7400962,
       30.4204388
      ],
      [
       -97.7408171,
       30.4207973
      ],
      [
       -97.7422674,
       30.4185908
      ],
      [
       -97.7424129,
       30.4183415
      ],
      [
       -97.7426868,
       30.4178846
      ],
      [
       -97.7427033,
       30.4178599
      ]
     ]
    ]
   },
   "properties": {
    "osm_id": 203672191,
    "osm_type": "way",
    "name": "Davis Elementary School",
    "display_name": "Davis Elementary School, 5214, Duval Road, Duval Springs, Austin, Travis County, Texas, 78859, United States",
    "feature_type": "school",
    "region": "north_austin",
    "area_m2": 52229.3,
    "open_lat": 30.418292,
    "open_lon": -97.7416073,
    "open_radius_m": 71.4,
    "source": "openstreetmap_nominatim",
    "licence": "Data (c) OpenStreetMap contributors, ODbL"
   }
  },
  {
   "type": "Feature",
   "geometry": {
    "type": "Polygon",
    "coordinates": [
     [
      [
       -97.7202933,
       30.4183192
      ],
      [
       -97.7183278,
       30.4174088
      ],
      [
       -97.7169545,
       30.4197181
      ],
      [
       -97.7174445,
       30.4199304
      ],
      [
       -97.7186625,
       30.4204582
      ],
      [
       -97.7194607,
       30.419607
      ],
      [
       -97.7202933,
       30.4183192
      ]
     ]
    ]
   },
   "properties": {
    "osm_id": 37416122,
    "osm_type": "way",
    "name": "Summitt Elementary School",
    "display_name": "Summitt Elementary School, 12207, Brigadoon Lane, Austin, Travis County, Texas, 78727, United States",
    "feature_type": "school",
    "region": "north_austin",
    "area_m2": 58508.6,
    "open_lat": 30.418737,
    "open_lon": -97.7187687,
    "open_radius_m": 105.1,
    "source": "openstreetmap_nominatim",
    "licence": "Data (c) OpenStreetMap contributors, ODbL"
   }
  },
  {
   "type": "Feature",
   "geometry": {
    "type": "Polygon",
    "coordinates": [
     [
      [
       -97.6914355,
       30.4165386
      ],
      [
       -97.6911958,
       30.416206
      ],
      [
       -97.6905851,
       30.4152602
      ],
      [
       -97.6903103,
       30.4153872
      ],
      [
       -97.6900877,
       30.4154925
      ],
      [
       -97.6899925,
       30.415637
      ],
      [
       -97.689684,
       30.4158163
      ],
      [
       -97.6887801,
       30.4160291
      ],
      [
       -97.6887774,
       30.4173556
      ],
      [
       -97.688925,
       30.4177003
      ],
      [
       -97.6891658,
       30.4179093
      ],
      [
       -97.6897105,
       30.4183349
      ],
      [
       -97.6897367,
       30.4183557
      ],
      [
       -97.6910895,
       30.417085
      ],
      [
       -97.6914355,
       30.4165386
      ]
     ]
    ]
   },
   "properties": {
    "osm_id": 989592630,
    "osm_type": "way",
    "name": "Westview Middle School",
    "display_name": "Westview Middle School, 1805, Scofield Lane, Lamplight Village, Austin, Travis County, Texas, 78727, United States",
    "feature_type": "school",
    "region": "north_austin",
    "area_m2": 54022.2,
    "open_lat": 30.4167656,
    "open_lon": -97.6899035,
    "open_radius_m": 107.3,
    "source": "openstreetmap_nominatim",
    "licence": "Data (c) OpenStreetMap contributors, ODbL"
   }
  },
  {
   "type": "Feature",
   "geometry": {
    "type": "Polygon",
    "coordinates": [
     [
      [
       -97.693112,
       30.3822747
      ],
      [
       -97.6923502,
       30.3819462
      ],
      [
       -97.6916797,
       30.3829828
      ],
      [
       -97.6902527,
       30.3823349
      ],
      [
       -97.6897265,
       30.3831785
      ],
      [
       -97.6918674,
       30.3841998
      ],
      [
       -97.693112,
       30.3822747
      ]
     ]
    ]
   },
   "properties": {
    "osm_id": 203194342,
    "osm_type": "way",
    "name": "McBee Elementary School",
    "display_name": "McBee Elementary School, 1001, West Braker Lane, Gracywoods, Austin, Travis County, Texas, 78758, United States",
    "feature_type": "school",
    "region": "north_austin",
    "area_m2": 36522.8,
    "open_lat": 30.3835015,
    "open_lon": -97.6916375,
    "open_radius_m": 57.1,
    "source": "openstreetmap_nominatim",
    "licence": "Data (c) OpenStreetMap contributors, ODbL"
   }
  },
  {
   "type": "Feature",
   "geometry": {
    "type": "Polygon",
    "coordinates": [
     [
      [
       -97.7499264,
       30.3758395
      ],
      [
       -97.7494884,
       30.3757452
      ],
      [
       -97.7492622,
       30.3756897
      ],
      [
       -97.7490719,
       30.375571
      ],
      [
       -97.7489484,
       30.3754669
      ],
      [
       -97.7488001,
       30.3752771
      ],
      [
       -97.7486838,
       30.3751439
      ],
      [
       -97.7485175,
       30.374995
      ],
      [
       -97.7484566,
       30.3750042
      ],
      [
       -97.7473006,
       30.3768091
      ],
      [
       -97.748867,
       30.3775403
      ],
      [
       -97.7499264,
       30.3758395
      ]
     ]
    ]
   },
   "properties": {
    "osm_id": 203261732,
    "osm_type": "way",
    "name": "Hill Elementary School",
    "display_name": "Hill Elementary School, 8601, Tallwood Drive, North Crossing, Austin, Travis County, Texas, 78759, United States",
    "feature_type": "school",
    "region": "north_austin",
    "area_m2": 35904.6,
    "open_lat": 30.3764914,
    "open_lon": -97.7485157,
    "open_radius_m": 85.0,
    "source": "openstreetmap_nominatim",
    "licence": "Data (c) OpenStreetMap contributors, ODbL"
   }
  },
  {
   "type": "Feature",
   "geometry": {
    "type": "Polygon",
    "coordinates": [
     [
      [
       -97.6927646,
       30.4145326
      ],
      [
       -97.6914784,
       30.4138988
      ],
      [
       -97.6910386,
       30.4145823
      ],
      [
       -97.6906979,
       30.4146459
      ],
      [
       -97.6904833,
       30.415016
      ],
      [
       -97.6902889,
       30.4153514
      ],
      [
       -97.6903103,
       30.4153872
      ],
      [
       -97.6905851,
       30.4152602
      ],
      [
       -97.6907569,
       30.4151752
      ],
      [
       -97.6909451,
       30.4154671
      ],
      [
       -97.690995,
       30.4154432
      ],
      [
       -97.6914263,
       30.4161122
      ],
      [
       -97.6914242,
       30.4161684
      ],
      [
       -97.6914905,
       30.4161702
      ],
      [
       -97.691642,
       30.416235
      ],
      [
       -97.6925118,
       30.4149179
      ],
      [
       -97.6927646,
       30.4145326
      ]
     ]
    ]
   },
   "properties": {
    "osm_id": 989592631,
    "osm_type": "way",
    "name": "Parmer Lane Elementary School",
    "display_name": "Parmer Lane Elementary School, 1806, West Parmer Lane, Austin, Travis County, Texas, 78727, United States",
    "feature_type": "school",
    "region": "north_austin",
    "area_m2": 28985.9,
    "open_lat": 30.415035,
    "open_lon": -97.6915743,
    "open_radius_m": 71.7,
    "source": "openstreetmap_nominatim",
    "licence": "Data (c) OpenStreetMap contributors, ODbL"
   }
  },
  {
   "type": "Feature",
   "geometry": {
    "type": "Polygon",
    "coordinates": [
     [
      [
       -97.743024,
       30.4161692
      ],
      [
       -97.7417359,
       30.4155436
      ],
      [
       -97.7410522,
       30.4166041
      ],
      [
       -97.7409499,
       30.4167642
      ],
      [
       -97.7409131,
       30.4168304
      ],
      [
       -97.7409029,
       30.4168497
      ],
      [
       -97.7421008,
       30.4174219
      ],
      [
       -97.7422477,
       30.4172817
      ],
      [
       -97.743024,
       30.4161692
      ]
     ]
    ]
   },
   "properties": {
    "osm_id": 1256987771,
    "osm_type": "way",
    "name": "William's School",
    "display_name": "William's School, 5209, Duval Road, Duval Springs, Austin, Travis County, Texas, 78727, United States",
    "feature_type": "school",
    "region": "north_austin",
    "area_m2": 22925.7,
    "open_lat": 30.4164204,
    "open_lon": -97.7420017,
    "open_radius_m": 69.6,
    "source": "openstreetmap_nominatim",
    "licence": "Data (c) OpenStreetMap contributors, ODbL"
   }
  },
  {
   "type": "Feature",
   "geometry": {
    "type": "Polygon",
    "coordinates": [
     [
      [
       -97.7060213,
       30.3785543
      ],
      [
       -97.7057936,
       30.3784403
      ],
      [
       -97.7056865,
       30.3782506
      ],
      [
       -97.7053572,
       30.3783881
      ],
      [
       -97.7048583,
       30.3774748
      ],
      [
       -97.7039775,
       30.3777947
      ],
      [
       -97.7041305,
       30.3780633
      ],
      [
       -97.7042223,
       30.3785468
      ],
      [
       -97.7045543,
       30.3791324
      ],
      [
       -97.7049158,
       30.3789863
      ],
      [
       -97.7060213,
       30.3785543
      ]
     ]
    ]
   },
   "properties": {
    "osm_id": 203193726,
    "osm_type": "way",
    "name": "Cook Elementary School",
    "display_name": "Cook Elementary School, 1511, Cripple Creek Drive, Quail Creek, Austin, Travis County, Texas, 78758, United States",
    "feature_type": "school",
    "region": "north_austin",
    "area_m2": 17406.4,
    "open_lat": 30.3784416,
    "open_lon": -97.7047759,
    "open_radius_m": 52.9,
    "source": "openstreetmap_nominatim",
    "licence": "Data (c) OpenStreetMap contributors, ODbL"
   }
  },
  {
   "type": "Feature",
   "geometry": {
    "type": "Polygon",
    "coordinates": [
     [
      [
       -97.7095427,
       30.4003746
      ],
      [
       -97.7087189,
       30.3999987
      ],
      [
       -97.708468,
       30.4003966
      ],
      [
       -97.7083285,
       30.4004799
      ],
      [
       -97.708006,
       30.4006495
      ],
      [
       -97.7080167,
       30.4007596
      ],
      [
       -97.7085724,
       30.4018341
      ],
      [
       -97.7095427,
       30.4003746
      ]
     ]
    ]
   },
   "properties": {
    "osm_id": 205282700,
    "osm_type": "way",
    "name": "Harmony School of Science",
    "display_name": "Harmony School of Science, 11800, Stonehollow Drive, Austin, Travis County, Texas, 78758, United States",
    "feature_type": "school",
    "region": "north_austin",
    "area_m2": 14438.4,
    "open_lat": 30.4008447,
    "open_lon": -97.708625,
    "open_radius_m": 49.5,
    "source": "openstreetmap_nominatim",
    "licence": "Data (c) OpenStreetMap contributors, ODbL"
   }
  },
  {
   "type": "Feature",
   "geometry": {
    "type": "Polygon",
    "coordinates": [
     [
      [
       -97.7449778,
       30.4041543
      ],
      [
       -97.7429044,
       30.403303
      ],
      [
       -97.7428426,
       30.4033079
      ],
      [
       -97.7424691,
       30.4038142
      ],
      [
       -97.7412522,
       30.4054058
      ],
      [
       -97.7437627,
       30.4066249
      ],
      [
       -97.7447069,
       30.4071061
      ],
      [
       -97.7447391,
       30.4068331
      ],
      [
       -97.7449778,
       30.4041543
      ]
     ]
    ]
   },
   "properties": {
    "osm_id": 566754318,
    "osm_type": "way",
    "name": "Ascension Seton Northwest Hospital",
    "display_name": "Ascension Seton Northwest Hospital, 11113, Research Boulevard, Austin, Travis County, Texas, 78759, United States",
    "feature_type": "hospital",
    "region": "north_austin",
    "area_m2": 87966.9,
    "open_lat": 30.4049594,
    "open_lon": -97.7433987,
    "open_radius_m": 144.2,
    "source": "openstreetmap_nominatim",
    "licence": "Data (c) OpenStreetMap contributors, ODbL"
   }
  },
  {
   "type": "Feature",
   "geometry": {
    "type": "Polygon",
    "coordinates": [
     [
      [
       -97.709365,
       30.4107984
      ],
      [
       -97.709011,
       30.4105139
      ],
      [
       -97.7085389,
       30.4101738
      ],
      [
       -97.708158,
       30.4100327
      ],
      [
       -97.7076886,
       30.4099333
      ],
      [
       -97.7073668,
       30.4097899
      ],
      [
       -97.7071495,
       30.4096487
      ],
      [
       -97.7065621,
       30.4092624
      ],
      [
       -97.7061678,
       30.4090404
      ],
      [
       -97.7059238,
       30.4095076
      ],
      [
       -97.7056502,
       30.4097899
      ],
      [
       -97.7052049,
       30.410116
      ],
      [
       -97.7048106,
       30.4103913
      ],
      [
       -97.7045719,
       30.4106712
      ],
      [
       -97.7043681,
       30.4111107
      ],
      [
       -97.7043449,
       30.4114458
      ],
      [
       -97.7043305,
       30.4116543
      ],
      [
       -97.7042903,
       30.4122811
      ],
      [
       -97.7041025,
       30.4127507
      ],
      [
       -97.7045075,
       30.4130075
      ],
      [
       -97.7048965,
       30.4133591
      ],
      [
       -97.705044,
       30.4135603
      ],
      [
       -97.7052747,
       30.4139443
      ],
      [
       -97.7055348,
       30.4142172
      ],
      [
       -97.7059801,
       30.4144439
      ],
      [
       -97.7062134,
       30.4141108
      ],
      [
       -97.7065568,
       30.4136737
      ],
      [
       -97.706723,
       30.4134886
      ],
      [
       -97.7070744,
       30.4131463
      ],
      [
       -97.7073587,
       30.4128386
      ],
      [
       -97.70826,
       30.4119365
      ],
      [
       -97.709357,
       30.4108863
      ],
      [
       -97.709365,
       30.4107984
      ]
     ]
    ]
   },
   "properties": {
    "osm_id": 71896426,
    "osm_type": "way",
    "name": "Saint David's North Austin Medical Center",
    "display_name": "Saint David's North Austin Medical Center, 12221, North Mopac Expressway, The Centrum, Austin, Travis County, Texas, 78758, United States",
    "feature_type": "hospital",
    "region": "north_austin",
    "area_m2": 160457.1,
    "open_lat": 30.4114836,
    "open_lon": -97.7062268,
    "open_radius_m": 179.9,
    "source": "openstreetmap_nominatim",
    "licence": "Data (c) OpenStreetMap contributors, ODbL"
   }
  },
  {
   "type": "Feature",
   "geometry": {
    "type": "Polygon",
    "coordinates": [
     [
      [
       -97.7059329,
       30.4090793
      ],
      [
       -97.705906,
       30.408959
      ],
      [
       -97.7056861,
       30.4088988
      ],
      [
       -97.7050775,
       30.4088789
      ],
      [
       -97.7019769,
       30.4082959
      ],
      [
       -97.701419,
       30.409175
      ],
      [
       -97.7022666,
       30.4098041
      ],
      [
       -97.7027064,
       30.4107387
      ],
      [
       -97.7026156,
       30.4111293
      ],
      [
       -97.7020757,
       30.411994
      ],
      [
       -97.7026043,
       30.412112
      ],
      [
       -97.7039272,
       30.4126202
      ],
      [
       -97.7040714,
       30.4123362
      ],
      [
       -97.7041197,
       30.4119754
      ],
      [
       -97.7041411,
       30.4114572
      ],
      [
       -97.7041572,
       30.4112167
      ],
      [
       -97.7042162,
       30.4110131
      ],
      [
       -97.7043557,
       30.410606
      ],
      [
       -97.7047205,
       30.4102359
      ],
      [
       -97.7051497,
       30.409912
      ],
      [
       -97.7055037,
       30.409653
      ],
      [
       -97.7058148,
       30.4093152
      ],
      [
       -97.7059329,
       30.4090793
      ]
     ]
    ]
   },
   "properties": {
    "osm_id": 469564929,
    "osm_type": "way",
    "name": "Tyson Cove",
    "display_name": "Tyson Cove, North Star, Austin, Travis County, Texas, 78758, United States",
    "feature_type": "hospital",
    "region": "north_austin",
    "area_m2": 101881.7,
    "open_lat": 30.4097106,
    "open_lon": -97.7035831,
    "open_radius_m": 120.8,
    "source": "openstreetmap_nominatim",
    "licence": "Data (c) OpenStreetMap contributors, ODbL"
   }
  },
  {
   "type": "Feature",
   "geometry": {
    "type": "Polygon",
    "coordinates": [
     [
      [
       -97.6918979,
       30.4155989
      ],
      [
       -97.6916246,
       30.4154722
      ],
      [
       -97.6916524,
       30.4154309
      ],
      [
       -97.6909452,
       30.4150849
      ],
      [
       -97.6907569,
       30.4151752
      ],
      [
       -97.6909451,
       30.4154671
      ],
      [
       -97.690995,
       30.4154432
      ],
      [
       -97.6914263,
       30.4161122
      ],
      [
       -97.6914242,
       30.4161684
      ],
      [
       -97.6914905,
       30.4161702
      ],
      [
       -97.6918979,
       30.4155989
      ]
     ]
    ]
   },
   "properties": {
    "osm_id": 1212247494,
    "osm_type": "way",
    "name": "Paris Avenue",
    "display_name": "Paris Avenue, Austin, Travis County, Texas, 78727, United States",
    "feature_type": "playground",
    "region": "north_austin",
    "area_m2": 5477.1,
    "open_lat": 30.4156911,
    "open_lon": -97.6914894,
    "open_radius_m": 27.6,
    "source": "openstreetmap_nominatim",
    "licence": "Data (c) OpenStreetMap contributors, ODbL"
   }
  },
  {
   "type": "Feature",
   "geometry": {
    "type": "Polygon",
    "coordinates": [
     [
      [
       -97.6979031,
       30.4149017
      ],
      [
       -97.6978968,
       30.4148297
      ],
      [
       -97.6975592,
       30.4146501
      ],
      [
       -97.697457,
       30.4147707
      ],
      [
       -97.6975335,
       30.4148692
      ],
      [
       -97.6975034,
       30.4149255
      ],
      [
       -97.6975134,
       30.4149661
      ],
      [
       -97.6975618,
       30.415077
      ],
      [
       -97.6977261,
       30.415031
      ],
      [
       -97.6978679,
       30.414946
      ],
      [
       -97.6979031,
       30.4149017
      ]
     ]
    ]
   },
   "properties": {
    "osm_id": 1212389629,
    "osm_type": "way",
    "name": "Alderbrook Trail 2",
    "display_name": "Alderbrook Trail 2, North Star, Austin, Travis County, Texas, 78727, United States",
    "feature_type": "playground",
    "region": "north_austin",
    "area_m2": 1201.6,
    "open_lat": 30.4148802,
    "open_lon": -97.6976916,
    "open_radius_m": 15.1,
    "source": "openstreetmap_nominatim",
    "licence": "Data (c) OpenStreetMap contributors, ODbL"
   }
  },
  {
   "type": "Feature",
   "geometry": {
    "type": "Polygon",
    "coordinates": [
     [
      [
       -97.6903745,
       30.3830018
      ],
      [
       -97.6900464,
       30.3828824
      ],
      [
       -97.6899568,
       30.3830165
      ],
      [
       -97.6902328,
       30.3831726
      ],
      [
       -97.6903745,
       30.3830018
      ]
     ]
    ]
   },
   "properties": {
    "osm_id": 896837776,
    "osm_type": "way",
    "name": "West Braker Lane",
    "display_name": "West Braker Lane, Gracywoods, Austin, Travis County, Texas, 78753, United States",
    "feature_type": "playground",
    "region": "north_austin",
    "area_m2": 661.4,
    "open_lat": 30.3830331,
    "open_lon": -97.6901852,
    "open_radius_m": 10.3,
    "source": "openstreetmap_nominatim",
    "licence": "Data (c) OpenStreetMap contributors, ODbL"
   }
  },
  {
   "type": "Feature",
   "geometry": {
    "type": "Polygon",
    "coordinates": [
     [
      [
       -97.7390355,
       30.4048871
      ],
      [
       -97.7387635,
       30.4048669
      ],
      [
       -97.7387577,
       30.4049106
      ],
      [
       -97.7386119,
       30.4050128
      ],
      [
       -97.7389244,
       30.4051376
      ],
      [
       -97.7390355,
       30.4048871
      ]
     ]
    ]
   },
   "properties": {
    "osm_id": 543627687,
    "osm_type": "way",
    "name": "Balcones Woods Drive",
    "display_name": "Balcones Woods Drive, Balcones Woods, Austin, Travis County, Texas, 78759, United States",
    "feature_type": "playground",
    "region": "north_austin",
    "area_m2": 688.8,
    "open_lat": 30.4049851,
    "open_lon": -97.7388568,
    "open_radius_m": 12.1,
    "source": "openstreetmap_nominatim",
    "licence": "Data (c) OpenStreetMap contributors, ODbL"
   }
  },
  {
   "type": "Feature",
   "geometry": {
    "type": "Polygon",
    "coordinates": [
     [
      [
       -97.7058133,
       30.3780498
      ],
      [
       -97.7058072,
       30.3780069
      ],
      [
       -97.7057879,
       30.3779665
      ],
      [
       -97.7057656,
       30.3779341
      ],
      [
       -97.705732,
       30.3779025
      ],
      [
       -97.7056965,
       30.3778894
      ],
      [
       -97.7056507,
       30.3778981
      ],
      [
       -97.7056273,
       30.3779183
      ],
      [
       -97.7056121,
       30.3779569
      ],
      [
       -97.7056162,
       30.3779999
      ],
      [
       -97.7056365,
       30.3780411
      ],
      [
       -97.7056731,
       30.3780726
      ],
      [
       -97.7057178,
       30.3780945
      ],
      [
       -97.7057635,
       30.3780998
      ],
      [
       -97.7057961,
       30.3780858
      ],
      [
       -97.7058133,
       30.3780498
      ]
     ]
    ]
   },
   "properties": {
    "osm_id": 1229686539,
    "osm_type": "way",
    "name": "Mearns Meadow Boulevard",
    "display_name": "Mearns Meadow Boulevard, Austin, Travis County, Texas, 78758, United States",
    "feature_type": "playground",
    "region": "north_austin",
    "area_m2": 324.1,
    "open_lat": 30.3779847,
    "open_lon": -97.7057013,
    "open_radius_m": 8.2,
    "source": "openstreetmap_nominatim",
    "licence": "Data (c) OpenStreetMap contributors, ODbL"
   }
  },
  {
   "type": "Feature",
   "geometry": {
    "type": "Polygon",
    "coordinates": [
     [
      [
       -97.6971457,
       30.4052496
      ],
      [
       -97.6971243,
       30.4052288
      ],
      [
       -97.6970314,
       30.4052047
      ],
      [
       -97.6970054,
       30.4052159
      ],
      [
       -97.6969254,
       30.4051903
      ],
      [
       -97.696878,
       30.4052063
      ],
      [
       -97.6968523,
       30.4052756
      ],
      [
       -97.69697,
       30.4053081
      ],
      [
       -97.6970007,
       30.4052953
      ],
      [
       -97.6970899,
       30.4053209
      ],
      [
       -97.6971215,
       30.4053073
      ],
      [
       -97.6971457,
       30.4052496
      ]
     ]
    ]
   },
   "properties": {
    "osm_id": 877704429,
    "osm_type": "way",
    "name": "Northern Walnut Creek Trail",
    "display_name": "Northern Walnut Creek Trail, Village at Walnut Creek, Austin, Travis County, Texas, 78727, United States",
    "feature_type": "playground",
    "region": "north_austin",
    "area_m2": 268.8,
    "open_lat": 30.4052437,
    "open_lon": -97.6969302,
    "open_radius_m": 5.4,
    "source": "openstreetmap_nominatim",
    "licence": "Data (c) OpenStreetMap contributors, ODbL"
   }
  },
  {
   "type": "Feature",
   "geometry": {
    "type": "Polygon",
    "coordinates": [
     [
      [
       -97.7178781,
       30.418755
      ],
      [
       -97.7178244,
       30.4186868
      ],
      [
       -97.7177185,
       30.4186394
      ],
      [
       -97.7176997,
       30.4186718
      ],
      [
       -97.7176903,
       30.4187758
      ],
      [
       -97.7178298,
       30.4188383
      ],
      [
       -97.7178781,
       30.418755
      ]
     ]
    ]
   },
   "properties": {
    "osm_id": 1159169744,
    "osm_type": "way",
    "name": "Amherst Drive",
    "display_name": "Amherst Drive, Austin, Travis County, Texas, 78727, United States",
    "feature_type": "playground",
    "region": "north_austin",
    "area_m2": 245.3,
    "open_lat": 30.4187451,
    "open_lon": -97.717777,
    "open_radius_m": 6.9,
    "source": "openstreetmap_nominatim",
    "licence": "Data (c) OpenStreetMap contributors, ODbL"
   }
  },
  {
   "type": "Feature",
   "geometry": {
    "type": "Polygon",
    "coordinates": [
     [
      [
       -97.7408566,
       30.419339
      ],
      [
       -97.7408485,
       30.4193188
      ],
      [
       -97.7407211,
       30.4192263
      ],
      [
       -97.7406889,
       30.419228
      ],
      [
       -97.7406514,
       30.4192633
      ],
      [
       -97.7406587,
       30.4193101
      ],
      [
       -97.7407338,
       30.4193587
      ],
      [
       -97.7408083,
       30.4193789
      ],
      [
       -97.7408257,
       30.4193743
      ],
      [
       -97.7408566,
       30.419339
      ]
     ]
    ]
   },
   "properties": {
    "osm_id": 1068860797,
    "osm_type": "way",
    "name": "Mustang Chase",
    "display_name": "Mustang Chase, Angus Valley, Austin, Travis County, Texas, 78859, United States",
    "feature_type": "playground",
    "region": "north_austin",
    "area_m2": 195.7,
    "open_lat": 30.4193081,
    "open_lon": -97.7407476,
    "open_radius_m": 5.3,
    "source": "openstreetmap_nominatim",
    "licence": "Data (c) OpenStreetMap contributors, ODbL"
   }
  },
  {
   "type": "Feature",
   "geometry": {
    "type": "Polygon",
    "coordinates": [
     [
      [
       -97.7406721,
       30.4197505
      ],
      [
       -97.7406694,
       30.4197297
      ],
      [
       -97.7406542,
       30.4197148
      ],
      [
       -97.7406452,
       30.4196584
      ],
      [
       -97.7406252,
       30.4196429
      ],
      [
       -97.7405577,
       30.4196322
      ],
      [
       -97.7404998,
       30.4196922
      ],
      [
       -97.7404957,
       30.4197541
      ],
      [
       -97.7405646,
       30.4198004
      ],
      [
       -97.7406128,
       30.4197927
      ],
      [
       -97.7406204,
       30.4197768
      ],
      [
       -97.7406259,
       30.4197713
      ],
      [
       -97.7406535,
       30.4197695
      ],
      [
       -97.7406721,
       30.4197505
      ]
     ]
    ]
   },
   "properties": {
    "osm_id": 1068860803,
    "osm_type": "way",
    "name": "Bull Run",
    "display_name": "Bull Run, Austin, Travis County, Texas, 78859, United States",
    "feature_type": "playground",
    "region": "north_austin",
    "area_m2": 224.6,
    "open_lat": 30.4197216,
    "open_lon": -97.7405778,
    "open_radius_m": 7.2,
    "source": "openstreetmap_nominatim",
    "licence": "Data (c) OpenStreetMap contributors, ODbL"
   }
  },
  {
   "type": "Feature",
   "geometry": {
    "type": "Polygon",
    "coordinates": [
     [
      [
       -97.7517647,
       30.382511
      ],
      [
       -97.7517479,
       30.3824786
      ],
      [
       -97.751705,
       30.3824659
      ],
      [
       -97.7516695,
       30.3824665
      ],
      [
       -97.7516326,
       30.3824786
      ],
      [
       -97.7515763,
       30.3825226
      ],
      [
       -97.7515763,
       30.3825544
      ],
      [
       -97.7515924,
       30.3825845
      ],
      [
       -97.7516178,
       30.3825972
      ],
      [
       -97.7516554,
       30.3825967
      ],
      [
       -97.751699,
       30.382581
      ],
      [
       -97.7517553,
       30.3825492
      ],
      [
       -97.7517647,
       30.382511
      ]
     ]
    ]
   },
   "properties": {
    "osm_id": 1268366256,
    "osm_type": "way",
    "name": "Westover Club Drive",
    "display_name": "Westover Club Drive, Westover Hills, Austin, Travis County, Texas, 78759, United States",
    "feature_type": "playground",
    "region": "north_austin",
    "area_m2": 195.8,
    "open_lat": 30.3825265,
    "open_lon": -97.7516764,
    "open_radius_m": 6.3,
    "source": "openstreetmap_nominatim",
    "licence": "Data (c) OpenStreetMap contributors, ODbL"
   }
  },
  {
   "type": "Feature",
   "geometry": {
    "type": "Polygon",
    "coordinates": [
     [
      [
       -97.7438258,
       30.4165496
      ],
      [
       -97.7437661,
       30.4164549
      ],
      [
       -97.7436509,
       30.4165141
      ],
      [
       -97.743682,
       30.4165779
      ],
      [
       -97.7437202,
       30.4165697
      ],
      [
       -97.743759,
       30.4165836
      ],
      [
       -97.7438258,
       30.4165496
      ]
     ]
    ]
   },
   "properties": {
    "osm_id": 1256985799,
    "osm_type": "way",
    "name": "Thunder Creek Road",
    "display_name": "Thunder Creek Road, Austin, Travis County, Texas, 78859, United States",
    "feature_type": "playground",
    "region": "north_austin",
    "area_m2": 142.1,
    "open_lat": 30.416524,
    "open_lon": -97.7437438,
    "open_radius_m": 5.5,
    "source": "openstreetmap_nominatim",
    "licence": "Data (c) OpenStreetMap contributors, ODbL"
   }
  }
 ]
}
