{
 "type": "FeatureCollection",
 "features": [
  {
   "type": "Feature",
   "geometry": {
    "type": "Polygon",
    "coordinates": [
     [
      [
       -97.7163484,
       30.510825
      ],
      [
       -97.7159347,
       30.5099665
      ],
      [
       -97.7156708,
       30.5100609
      ],
      [
       -97.7155041,
       30.5101205
      ],
      [
       -97.7148578,
       30.5103516
      ],
      [
       -97.7152713,
       30.5112101
      ],
      [
       -97.7153878,
       30.5111685
      ],
      [
       -97.7155832,
       30.5110986
      ],
      [
       -97.7157437,
       30.5110412
      ],
      [
       -97.7159126,
       30.5109808
      ],
      [
       -97.716105,
       30.510912
      ],
      [
       -97.7163484,
       30.510825
      ]
     ]
    ]
   },
   "properties": {
    "osm_id": 92358947,
    "osm_type": "way",
    "name": "Park Valley Drive",
    "display_name": "Park Valley Drive, The Oaklands, Round Rock, Williamson County, Texas, 78781, United States",
    "feature_type": "parking_lot",
    "region": "round_rock",
    "area_m2": 11552.2,
    "open_lat": 30.5105883,
    "open_lon": -97.7156031,
    "open_radius_m": 51.7,
    "source": "openstreetmap_nominatim",
    "licence": "Data (c) OpenStreetMap contributors, ODbL",
    "verified_lat": 30.510844,
    "verified_lon": -97.7156031,
    "nearest_feature": "amenity/parking Park Valley Drive, The Oaklands, Round R at 28 m",
    "anchor_clearance_score_m": 18.4,
    "open_ground_verified": false
   }
  },
  {
   "type": "Feature",
   "geometry": {
    "type": "Polygon",
    "coordinates": [
     [
      [
       -97.6905169,
       30.5191219
      ],
      [
       -97.6899749,
       30.5178741
      ],
      [
       -97.6904955,
       30.5177052
      ],
      [
       -97.6904526,
       30.5176129
      ],
      [
       -97.690376,
       30.5176235
      ],
      [
       -97.6901433,
       30.5175681
      ],
      [
       -97.6899381,
       30.5174757
      ],
      [
       -97.6898064,
       30.5176815
      ],
      [
       -97.689243,
       30.5178662
      ],
      [
       -97.6893042,
       30.5195176
      ],
      [
       -97.6905169,
       30.5191219
      ]
     ]
    ]
   },
   "properties": {
    "osm_id": 1275928193,
    "osm_type": "way",
    "name": "Sam Bass Road",
    "display_name": "Sam Bass Road, Old Round Rock, Round Rock, Williamson County, Texas, 78680, United States",
    "feature_type": "parking_lot",
    "region": "round_rock",
    "area_m2": 17929.2,
    "open_lat": 30.5188516,
    "open_lon": -97.6898199,
    "open_radius_m": 51.7,
    "source": "openstreetmap_nominatim",
    "licence": "Data (c) OpenStreetMap contributors, ODbL",
    "verified_lat": 30.5191077,
    "verified_lon": -97.6898199,
    "nearest_feature": "amenity/parking Sam Bass Road, Old Round Rock, Round Roc at 68 m",
    "anchor_clearance_score_m": 58.1,
    "open_ground_verified": true
   }
  },
  {
   "type": "Feature",
   "geometry": {
    "type": "Polygon",
    "coordinates": [
     [
      [
       -97.6744227,
       30.5467563
      ],
      [
       -97.6741407,
       30.5460271
      ],
      [
       -97.6740897,
       30.5460417
      ],
      [
       -97.6740114,
       30.5460626
      ],
      [
       -97.6738868,
       30.5461001
      ],
      [
       -97.6738221,
       30.5461468
      ],
      [
       -97.6735961,
       30.5462143
      ],
      [
       -97.6735076,
       30.5462149
      ],
      [
       -97.6731797,
       30.5463119
      ],
      [
       -97.6731066,
       30.546361
      ],
      [
       -97.6730525,
       30.5463764
      ],
      [
       -97.6732274,
       30.5468162
      ],
      [
       -97.6732801,
       30.5468003
      ],
      [
       -97.6734099,
       30.5471118
      ],
      [
       -97.6743859,
       30.5468205
      ],
      [
       -97.6743717,
       30.5467744
      ],
      [
       -97.6744227,
       30.5467563
      ]
     ]
    ]
   },
   "properties": {
    "osm_id": 1430038451,
    "osm_type": "way",
    "name": "Applegate Circle",
    "display_name": "Applegate Circle, Round Rock, Williamson County, Texas, 78665, United States",
    "feature_type": "parking_lot",
    "region": "round_rock",
    "area_m2": 9765.0,
    "open_lat": 30.5466018,
    "open_lon": -97.6737001,
    "open_radius_m": 44.2,
    "source": "openstreetmap_nominatim",
    "licence": "Data (c) OpenStreetMap contributors, ODbL",
    "verified_lat": 30.5468206,
    "verified_lon": -97.6737001,
    "nearest_feature": "amenity/parking Sunrise Road, Chandler Crossing, Round R at 29 m",
    "anchor_clearance_score_m": 18.5,
    "open_ground_verified": false
   }
  },
  {
   "type": "Feature",
   "geometry": {
    "type": "Polygon",
    "coordinates": [
     [
      [
       -97.666769,
       30.5416176
      ],
      [
       -97.6662483,
       30.5414055
      ],
      [
       -97.6647924,
       30.5415678
      ],
      [
       -97.6646336,
       30.5404911
      ],
      [
       -97.6633462,
       30.5406407
      ],
      [
       -97.6632233,
       30.5398018
      ],
      [
       -97.6629333,
       30.5398692
      ],
      [
       -97.6626243,
       30.5399549
      ],
      [
       -97.662187,
       30.5400807
      ],
      [
       -97.6622293,
       30.54049
      ],
      [
       -97.66127,
       30.5415193
      ],
      [
       -97.6599493,
       30.5429363
      ],
      [
       -97.658554,
       30.5441189
      ],
      [
       -97.659485,
       30.5469635
      ],
      [
       -97.6583632,
       30.547312
      ],
      [
       -97.6584983,
       30.5479391
      ],
      [
       -97.6586166,
       30.5482277
      ],
      [
       -97.6588721,
       30.5486125
      ],
      [
       -97.6600348,
       30.5488843
      ],
      [
       -97.6603043,
       30.5500203
      ],
      [
       -97.6604709,
       30.550362
      ],
      [
       -97.6607452,
       30.5509306
      ],
      [
       -97.6617358,
       30.5529079
      ],
      [
       -97.6619143,
       30.5532679
      ],
      [
       -97.6621898,
       30.553822
      ],
      [
       -97.662234,
       30.5538037
      ],
      [
       -97.6622029,
       30.5537783
      ],
      [
       -97.6621802,
       30.5537366
      ],
      [
       -97.6621743,
       30.5536925
      ],
      [
       -97.6621808,
       30.5536596
      ],
      [
       -97.6622107,
       30.5536107
      ],
      [
       -97.6620539,
       30.5532801
      ],
      [
       -97.6622324,
       30.5532013
      ],
      [
       -97.6623614,
       30.5532755
      ],
      [
       -97.662872,
       30.5534869
      ],
      [
       -97.6631679,
       30.5535618
      ],
      [
       -97.6632139,
       30.5534198
      ],
      [
       -97.6629591,
       30.5533564
      ],
      [
       -97.6628811,
       30.5533303
      ],
      [
       -97.6621734,
       30.5530103
      ],
      [
       -97.661999,
       30.5526244
      ],
      [
       -97.6619461,
       30.5524693
      ],
      [
       -97.6617484,
       30.5520059
      ],
      [
       -97.6616909,
       30.5518451
      ],
      [
       -97.6615485,
       30.5515369
      ],
      [
       -97.6613618,
       30.5510764
      ],
      [
       -97.6616841,
       30.5509731
      ],
      [
       -97.6616112,
       30.5507733
      ],
      [
       -97.6615609,
       30.5507534
      ],
      [
       -97.6615397,
       30.5506511
      ],
      [
       -97.6615669,
       30.5505581
      ],
      [
       -97.6616086,
       30.5505452
      ],
      [
       -97.6616694,
       30.5504145
      ],
      [
       -97.6617861,
       30.5503041
      ],
      [
       -97.661876,
       30.5502427
      ],
      [
       -97.6619597,
       30.5501455
      ],
      [
       -97.6621611,
       30.5498169
      ],
      [
       -97.6627742,
       30.5487074
      ],
      [
       -97.662914,
       30.5484793
      ],
      [
       -97.6630449,
       30.5483418
      ],
      [
       -97.6631184,
       30.5482993
      ],
      [
       -97.6632367,
       30.548226
      ],
      [
       -97.6633321,
       30.5481854
      ],
      [
       -97.6634413,
       30.5481437
      ],
      [
       -97.6640021,
       30.5480013
      ],
      [
       -97.664921,
       30.5479847
      ],
      [
       -97.6650122,
       30.5479893
      ],
      [
       -97.6650999,
       30.5480076
      ],
      [
       -97.6651274,
       30.5479917
      ],
      [
       -97.6651457,
       30.5479591
      ],
      [
       -97.6651506,
       30.5479284
      ],
      [
       -97.6651592,
       30.5478741
      ],
      [
       -97.6651724,
       30.5477148
      ],
      [
       -97.6651548,
       30.5475742
      ],
      [
       -97.664307,
       30.5472651
      ],
      [
       -97.6629434,
       30.5458789
      ],
      [
       -97.6626169,
       30.5451389
      ],
      [
       -97.6626076,
       30.5449966
      ],
      [
       -97.6626203,
       30.5449212
      ],
      [
       -97.6626682,
       30.5447166
      ],
      [
       -97.6628783,
       30.5444879
      ],
      [
       -97.6630417,
       30.5444063
      ],
      [
       -97.6631625,
       30.5443528
      ],
      [
       -97.6634529,
       30.5442711
      ],
      [
       -97.6634377,
       30.5442279
      ],
      [
       -97.6637169,
       30.5441531
      ],
      [
       -97.6638248,
       30.5443899
      ],
      [
       -97.6637515,
       30.544413
      ],
      [
       -97.6638819,
       30.5445454
      ],
      [
       -97.6640015,
       30.5447471
      ],
      [
       -97.6640962,
       30.5449578
      ],
      [
       -97.6642642,
       30.5453497
      ],
      [
       -97.6642596,
       30.5451641
      ],
      [
       -97.664263,
       30.5450376
      ],
      [
       -97.6642799,
       30.5449058
      ],
      [
       -97.6643103,
       30.5447759
      ],
      [
       -97.6643551,
       30.544646
      ],
      [
       -97.6644134,
       30.5445202
      ],
      [
       -97.6644779,
       30.54441
      ],
      [
       -97.6645928,
       30.5442556
      ],
      [
       -97.6647313,
       30.5441124
      ],
      [
       -97.665809,
       30.5432194
      ],
      [
       -97.6659578,
       30.5430675
      ],
      [
       -97.6660715,
       30.5429008
      ],
      [
       -97.666769,
       30.5416176
      ]
     ]
    ]
   },
   "properties": {
    "osm_id": 261177082,
    "osm_type": "way",
    "name": "Meadow Lake Park",
    "display_name": "Meadow Lake Park, Round Rock, Williamson County, Texas, United States",
    "feature_type": "park",
    "region": "round_rock",
    "area_m2": 491753.6,
    "open_lat": 30.5424785,
    "open_lon": -97.6630184,
    "open_radius_m": 197.4,
    "source": "openstreetmap_nominatim",
    "licence": "Data (c) OpenStreetMap contributors, ODbL",
    "verified_lat": 30.5424785,
    "verified_lon": -97.6618858,
    "nearest_feature": "highway/residential Round Rock, Williamson County, Texas, 78 at 190 m",
    "anchor_clearance_score_m": 170.4,
    "open_ground_verified": true
   }
  },
  {
   "type": "Feature",
   "geometry": {
    "type": "Polygon",
    "coordinates": [
     [
      [
       -97.7004341,
       30.5225473
      ],
      [
       -97.7004037,
       30.5225549
      ],
      [
       -97.7003621,
       30.522565
      ],
      [
       -97.7003317,
       30.5225727
      ],
      [
       -97.7002902,
       30.5225828
      ],
      [
       -97.7002598,
       30.5225905
      ],
      [
       -97.7002294,
       30.5225981
      ],
      [
       -97.7001878,
       30.5226082
      ],
      [
       -97.7001606,
       30.5226159
      ],
      [
       -97.700131,
       30.5226236
      ],
      [
       -97.7001006,
       30.5226312
      ],
      [
       -97.7000961,
       30.5226325
      ],
      [
       -97.7000654,
       30.5226415
      ],
      [
       -97.700035,
       30.5226491
      ],
      [
       -97.7000054,
       30.5226567
      ],
      [
       -97.6999758,
       30.5226644
      ],
      [
       -97.6999398,
       30.5226747
      ],
      [
       -97.6999102,
       30.5226823
      ],
      [
       -97.6998742,
       30.5226926
      ],
      [
       -97.6998446,
       30.5227002
      ],
      [
       -97.6998085,
       30.5227105
      ],
      [
       -97.699779,
       30.5227181
      ],
      [
       -97.6997429,
       30.5227284
      ],
      [
       -97.6997077,
       30.5227387
      ],
      [
       -97.6996717,
       30.5227489
      ],
      [
       -97.6996365,
       30.5227592
      ],
      [
       -97.6996004,
       30.5227695
      ],
      [
       -97.6995652,
       30.5227797
      ],
      [
       -97.6993554,
       30.5228442
      ],
      [
       -97.6994753,
       30.5231355
      ],
      [
       -97.6991765,
       30.5232283
      ],
      [
       -97.6990267,
       30.5232748
      ],
      [
       -97.6988777,
       30.5233212
      ],
      [
       -97.6988048,
       30.5233417
      ],
      [
       -97.6985529,
       30.5237849
      ],
      [
       -97.6985784,
       30.5238102
      ],
      [
       -97.6985913,
       30.5238324
      ],
      [
       -97.6986008,
       30.5238601
      ],
      [
       -97.698604,
       30.5238877
      ],
      [
       -97.6986018,
       30.5239124
      ],
      [
       -97.6985923,
       30.5239397
      ],
      [
       -97.6985757,
       30.5239641
      ],
      [
       -97.6985545,
       30.5239857
      ],
      [
       -97.6985326,
       30.5240017
      ],
      [
       -97.6985037,
       30.5240149
      ],
      [
       -97.6984765,
       30.5240226
      ],
      [
       -97.6984438,
       30.5240247
      ],
      [
       -97.698405,
       30.5240211
      ],
      [
       -97.6983744,
       30.5240095
      ],
      [
       -97.6983462,
       30.5239952
      ],
      [
       -97.6983229,
       30.5239754
      ],
      [
       -97.6983019,
       30.5239585
      ],
      [
       -97.6982712,
       30.5239496
      ],
      [
       -97.6982345,
       30.5239544
      ],
      [
       -97.6978164,
       30.5240833
      ],
      [
       -97.6979012,
       30.5243216
      ],
      [
       -97.6975344,
       30.5244323
      ],
      [
       -97.6974524,
       30.5244114
      ],
      [
       -97.6974255,
       30.5244356
      ],
      [
       -97.6973981,
       30.5244488
      ],
      [
       -97.697362,
       30.5244618
      ],
      [
       -97.6972945,
       30.5246942
      ],
      [
       -97.696893,
       30.5248015
      ],
      [
       -97.6969821,
       30.5251006
      ],
      [
       -97.6969845,
       30.5251086
      ],
      [
       -97.696995,
       30.5251421
      ],
      [
       -97.6969984,
       30.5251529
      ],
      [
       -97.697427,
       30.5266139
      ],
      [
       -97.6975471,
       30.5265779
      ],
      [
       -97.6979556,
       30.5264555
      ],
      [
       -97.6980196,
       30.5264363
      ],
      [
       -97.698207,
       30.5263797
      ],
      [
       -97.6984105,
       30.5263178
      ],
      [
       -97.698646,
       30.5262456
      ],
      [
       -97.6989414,
       30.5261582
      ],
      [
       -97.6989376,
       30.5261494
      ],
      [
       -97.6989056,
       30.5260749
      ],
      [
       -97.6985186,
       30.526199
      ],
      [
       -97.6984625,
       30.5260713
      ],
      [
       -97.6984073,
       30.5259409
      ],
      [
       -97.6987935,
       30.5258169
      ],
      [
       -97.6987739,
       30.5257711
      ],
      [
       -97.6987373,
       30.5256865
      ],
      [
       -97.6983512,
       30.5258133
      ],
      [
       -97.6982951,
       30.5256856
      ],
      [
       -97.6982391,
       30.5255552
      ],
      [
       -97.6981838,
       30.5254275
      ],
      [
       -97.69857,
       30.5253008
      ],
      [
       -97.698532,
       30.5252138
      ],
      [
       -97.6985052,
       30.5251527
      ],
      [
       -97.6985041,
       30.5251506
      ],
      [
       -97.6984802,
       30.5251338
      ],
      [
       -97.6984469,
       30.5251331
      ],
      [
       -97.6984043,
       30.5251458
      ],
      [
       -97.6983775,
       30.5250796
      ],
      [
       -97.6983516,
       30.5250157
      ],
      [
       -97.6982953,
       30.5248789
      ],
      [
       -97.6982319,
       30.5247244
      ],
      [
       -97.6983767,
       30.5246779
      ],
      [
       -97.6985281,
       30.5246315
      ],
      [
       -97.6985262,
       30.5246269
      ],
      [
       -97.6984976,
       30.5245566
      ],
      [
       -97.6984477,
       30.5244346
      ],
      [
       -97.6984023,
       30.5243236
      ],
      [
       -97.6989554,
       30.5241369
      ],
      [
       -97.698941,
       30.5241119
      ],
      [
       -97.698933,
       30.5240842
      ],
      [
       -97.6989316,
       30.5240512
      ],
      [
       -97.6989396,
       30.5240183
      ],
      [
       -97.6989563,
       30.5239884
      ],
      [
       -97.698609,
       30.523764
      ],
      [
       -97.6990169,
       30.5234561
      ],
      [
       -97.6992628,
       30.5233814
      ],
      [
       -97.699383,
       30.5233426
      ],
      [
       -97.6995031,
       30.5233065
      ],
      [
       -97.6996225,
       30.5232705
      ],
      [
       -97.6997426,
       30.5232344
      ],
      [
       -97.6998619,
       30.5231984
      ],
      [
       -97.699982,
       30.5231623
      ],
      [
       -97.7001022,
       30.5231263
      ],
      [
       -97.7002216,
       30.5230875
      ],
      [
       -97.7003393,
       30.5230514
      ],
      [
       -97.7003913,
       30.5227774
      ],
      [
       -97.7004326,
       30.5225551
      ],
      [
       -97.7004341,
       30.5225473
      ]
     ]
    ]
   },
   "properties": {
    "osm_id": 261177085,
    "osm_type": "way",
    "name": "Somerset park",
    "display_name": "Somerset park, Round Rock, Williamson County, Texas, United States",
    "feature_type": "park",
    "region": "round_rock",
    "area_m2": 38953.8,
    "open_lat": 30.5251485,
    "open_lon": -97.6976464,
    "open_radius_m": 60.1,
    "source": "openstreetmap_nominatim",
    "licence": "Data (c) OpenStreetMap contributors, ODbL",
    "verified_lat": 30.5251485,
    "verified_lon": -97.6973015,
    "nearest_feature": "highway/residential Taron Drive at 91 m",
    "anchor_clearance_score_m": 70.7,
    "open_ground_verified": true
   }
  },
  {
   "type": "Feature",
   "geometry": {
    "type": "Polygon",
    "coordinates": [
     [
      [
       -97.6894328,
       30.5134928
      ],
      [
       -97.6893903,
       30.5131998
      ],
      [
       -97.6893466,
       30.513193
      ],
      [
       -97.6892993,
       30.5132109
      ],
      [
       -97.6891986,
       30.5132194
      ],
      [
       -97.6891385,
       30.5132042
      ],
      [
       -97.6890783,
       30.5132061
      ],
      [
       -97.6890363,
       30.5131881
      ],
      [
       -97.6889107,
       30.5131943
      ],
      [
       -97.6888612,
       30.5131741
      ],
      [
       -97.6887939,
       30.5131269
      ],
      [
       -97.6886364,
       30.5130846
      ],
      [
       -97.6884815,
       30.5130682
      ],
      [
       -97.688391,
       30.5131122
      ],
      [
       -97.6882515,
       30.5132213
      ],
      [
       -97.6880013,
       30.5132638
      ],
      [
       -97.6878836,
       30.513316
      ],
      [
       -97.6875726,
       30.5132619
      ],
      [
       -97.6875297,
       30.5130607
      ],
      [
       -97.6875732,
       30.5130753
      ],
      [
       -97.6876112,
       30.5130817
      ],
      [
       -97.687604,
       30.5129049
      ],
      [
       -97.6876348,
       30.5126707
      ],
      [
       -97.6876879,
       30.5124368
      ],
      [
       -97.6874313,
       30.512534
      ],
      [
       -97.6865798,
       30.5125238
      ],
      [
       -97.6863408,
       30.5125168
      ],
      [
       -97.6860519,
       30.5112986
      ],
      [
       -97.685195,
       30.5112986
      ],
      [
       -97.6848216,
       30.511267
      ],
      [
       -97.6846607,
       30.5112868
      ],
      [
       -97.6845646,
       30.5112986
      ],
      [
       -97.6843871,
       30.5113408
      ],
      [
       -97.6843259,
       30.5113988
      ],
      [
       -97.6841606,
       30.5116994
      ],
      [
       -97.6838675,
       30.5117572
      ],
      [
       -97.6833587,
       30.5118833
      ],
      [
       -97.6833988,
       30.5122596
      ],
      [
       -97.6838539,
       30.5125361
      ],
      [
       -97.6842091,
       30.5125829
      ],
      [
       -97.6844124,
       30.5126097
      ],
      [
       -97.6846983,
       30.5126428
      ],
      [
       -97.684522,
       30.5128417
      ],
      [
       -97.6844614,
       30.5129438
      ],
      [
       -97.6844618,
       30.5130793
      ],
      [
       -97.6858399,
       30.5131487
      ],
      [
       -97.6862312,
       30.513166
      ],
      [
       -97.6863588,
       30.5135606
      ],
      [
       -97.6879425,
       30.5136161
      ],
      [
       -97.6879073,
       30.5134625
      ],
      [
       -97.6894328,
       30.5134928
      ]
     ]
    ]
   },
   "properties": {
    "osm_id": 14938558,
    "osm_type": "relation",
    "name": "Memorial Park",
    "display_name": "Memorial Park, 600, Round Rock, Williamson County, Texas, 78664, United States",
    "feature_type": "park",
    "region": "round_rock",
    "area_m2": 64050.1,
    "open_lat": 30.512073,
    "open_lon": -97.6853043,
    "open_radius_m": 86.0,
    "source": "openstreetmap_nominatim",
    "licence": "Data (c) OpenStreetMap contributors, ODbL",
    "verified_lat": 30.512073,
    "verified_lon": -97.6848114,
    "nearest_feature": "leisure/pitch Brushy Creek Regional Trail, Round Rock, at 27 m",
    "anchor_clearance_score_m": 12.2,
    "open_ground_verified": false
   }
  },
  {
   "type": "Feature",
   "geometry": {
    "type": "Polygon",
    "coordinates": [
     [
      [
       -97.6235082,
       30.4978432
      ],
      [
       -97.6234981,
       30.4975088
      ],
      [
       -97.623485,
       30.4970963
      ],
      [
       -97.6234714,
       30.4967786
      ],
      [
       -97.6234671,
       30.4967552
      ],
      [
       -97.6234491,
       30.4967331
      ],
      [
       -97.6234189,
       30.4967167
      ],
      [
       -97.622851,
       30.4967029
      ],
      [
       -97.6226198,
       30.4966982
      ],
      [
       -97.6223046,
       30.4967085
      ],
      [
       -97.6219157,
       30.4967328
      ],
      [
       -97.6215562,
       30.4967705
      ],
      [
       -97.6212579,
       30.4968161
      ],
      [
       -97.6209949,
       30.4968604
      ],
      [
       -97.6206288,
       30.4969359
      ],
      [
       -97.6201303,
       30.4970577
      ],
      [
       -97.6198807,
       30.4971171
      ],
      [
       -97.6198445,
       30.497136
      ],
      [
       -97.6198295,
       30.4971701
      ],
      [
       -97.6198309,
       30.4971994
      ],
      [
       -97.6199317,
       30.497497
      ],
      [
       -97.6200211,
       30.4977673
      ],
      [
       -97.6200853,
       30.4979722
      ],
      [
       -97.6201834,
       30.4982819
      ],
      [
       -97.6202337,
       30.4984381
      ],
      [
       -97.620308,
       30.4986681
      ],
      [
       -97.6203512,
       30.4988934
      ],
      [
       -97.6203692,
       30.4990806
      ],
      [
       -97.6203783,
       30.499362
      ],
      [
       -97.6203544,
       30.4996248
      ],
      [
       -97.6203182,
       30.4998173
      ],
      [
       -97.6202535,
       30.5000389
      ],
      [
       -97.6202481,
       30.5000735
      ],
      [
       -97.620255,
       30.500108
      ],
      [
       -97.6202738,
       30.5001318
      ],
      [
       -97.6204291,
       30.5001618
      ],
      [
       -97.6207588,
       30.5002287
      ],
      [
       -97.621083,
       30.5002659
      ],
      [
       -97.621385,
       30.5002766
      ],
      [
       -97.6215556,
       30.5002675
      ],
      [
       -97.621714,
       30.5002544
      ],
      [
       -97.6216536,
       30.4999037
      ],
      [
       -97.6214146,
       30.4983697
      ],
      [
       -97.6216303,
       30.4982398
      ],
      [
       -97.6218663,
       30.498061
      ],
      [
       -97.6220046,
       30.4978712
      ],
      [
       -97.6227338,
       30.4978579
      ],
      [
       -97.6235082,
       30.4978432
      ]
     ]
    ]
   },
   "properties": {
    "osm_id": 583530951,
    "osm_type": "way",
    "name": "Lake Forest Park",
    "display_name": "Lake Forest Park, Round Rock, Williamson County, Texas, United States",
    "feature_type": "park",
    "region": "round_rock",
    "area_m2": 73245.9,
    "open_lat": 30.4976837,
    "open_lon": -97.6209482,
    "open_radius_m": 87.9,
    "source": "openstreetmap_nominatim",
    "licence": "Data (c) OpenStreetMap contributors, ODbL",
    "verified_lat": 30.4976837,
    "verified_lon": -97.6214525,
    "nearest_feature": "amenity/school Blackland Prairie Elementary School at 192 m",
    "anchor_clearance_score_m": 182.2,
    "open_ground_verified": true
   }
  },
  {
   "type": "Feature",
   "geometry": {
    "type": "Polygon",
    "coordinates": [
     [
      [
       -97.6729165,
       30.5327152
      ],
      [
       -97.6729158,
       30.5327134
      ],
      [
       -97.6725123,
       30.5316668
      ],
      [
       -97.6717065,
       30.529577
      ],
      [
       -97.6716017,
       30.5293051
      ],
      [
       -97.671578,
       30.5292544
      ],
      [
       -97.6707343,
       30.5295342
      ],
      [
       -97.6707524,
       30.5295764
      ],
      [
       -97.6708581,
       30.5298534
      ],
      [
       -97.6712151,
       30.5307877
      ],
      [
       -97.6716516,
       30.5319401
      ],
      [
       -97.6720389,
       30.532939
      ],
      [
       -97.6728077,
       30.5327441
      ],
      [
       -97.6729165,
       30.5327152
      ]
     ]
    ]
   },
   "properties": {
    "osm_id": 261177077,
    "osm_type": "way",
    "name": "Bowman Park",
    "display_name": "Bowman Park, 950, Round Rock, Williamson County, Texas, 78664, United States",
    "feature_type": "park",
    "region": "round_rock",
    "area_m2": 35142.9,
    "open_lat": 30.5318523,
    "open_lon": -97.6721006,
    "open_radius_m": 43.9,
    "source": "openstreetmap_nominatim",
    "licence": "Data (c) OpenStreetMap contributors, ODbL",
    "verified_lat": 30.5320697,
    "verified_lon": -97.6721006,
    "nearest_feature": "highway/residential Mesa Park Drive at 59 m",
    "anchor_clearance_score_m": 39.2,
    "open_ground_verified": true
   }
  },
  {
   "type": "Feature",
   "geometry": {
    "type": "Polygon",
    "coordinates": [
     [
      [
       -97.6651149,
       30.5227042
      ],
      [
       -97.6648401,
       30.5226462
      ],
      [
       -97.6646237,
       30.5226005
      ],
      [
       -97.6644082,
       30.5225547
      ],
      [
       -97.6641918,
       30.522509
      ],
      [
       -97.6639471,
       30.5224544
      ],
      [
       -97.6637342,
       30.5224005
      ],
      [
       -97.6635204,
       30.5223465
      ],
      [
       -97.6633075,
       30.5222926
      ],
      [
       -97.6630937,
       30.5222386
      ],
      [
       -97.6628809,
       30.522182
      ],
      [
       -97.6627199,
       30.5221429
      ],
      [
       -97.6626802,
       30.522142
      ],
      [
       -97.6624572,
       30.5221374
      ],
      [
       -97.6622111,
       30.5221323
      ],
      [
       -97.6622118,
       30.5221653
      ],
      [
       -97.6622459,
       30.522397
      ],
      [
       -97.6622482,
       30.5226556
      ],
      [
       -97.6647619,
       30.5234615
      ],
      [
       -97.6647799,
       30.5234335
      ],
      [
       -97.6649212,
       30.5232145
      ],
      [
       -97.6649354,
       30.52319
      ],
      [
       -97.6649496,
       30.5231656
      ],
      [
       -97.664963,
       30.5231411
      ],
      [
       -97.6649756,
       30.5231166
      ],
      [
       -97.6649882,
       30.5230921
      ],
      [
       -97.6649992,
       30.5230648
      ],
      [
       -97.6650102,
       30.5230403
      ],
      [
       -97.6650205,
       30.5230158
      ],
      [
       -97.6650307,
       30.5229885
      ],
      [
       -97.6650394,
       30.5229639
      ],
      [
       -97.6650481,
       30.5229366
      ],
      [
       -97.6650559,
       30.522912
      ],
      [
       -97.6651149,
       30.5227042
      ]
     ]
    ]
   },
   "properties": {
    "osm_id": 261177086,
    "osm_type": "way",
    "name": "Stark Park",
    "display_name": "Stark Park, Round Rock, Williamson County, Texas, United States",
    "feature_type": "park",
    "region": "round_rock",
    "area_m2": 20927.5,
    "open_lat": 30.522978,
    "open_lon": -97.6645307,
    "open_radius_m": 42.7,
    "source": "openstreetmap_nominatim",
    "licence": "Data (c) OpenStreetMap contributors, ODbL",
    "verified_lat": 30.522978,
    "verified_lon": -97.6647753,
    "nearest_feature": "leisure/pitch Provident Lane, Round Rock, Williamson C at 35 m",
    "anchor_clearance_score_m": 19.9,
    "open_ground_verified": false
   }
  },
  {
   "type": "Feature",
   "geometry": {
    "type": "Polygon",
    "coordinates": [
     [
      [
       -97.6281871,
       30.5059587
      ],
      [
       -97.6280597,
       30.5057758
      ],
      [
       -97.6278828,
       30.5056355
      ],
      [
       -97.6275855,
       30.5054464
      ],
      [
       -97.6273476,
       30.505182
      ],
      [
       -97.6269613,
       30.5053592
      ],
      [
       -97.6269368,
       30.5053976
      ],
      [
       -97.6273401,
       30.5062662
      ],
      [
       -97.6274962,
       30.5065963
      ],
      [
       -97.6275531,
       30.5067444
      ],
      [
       -97.6275844,
       30.5068394
      ],
      [
       -97.627604,
       30.5070022
      ],
      [
       -97.6275986,
       30.5072066
      ],
      [
       -97.6275688,
       30.5073345
      ],
      [
       -97.627513,
       30.50751
      ],
      [
       -97.6273405,
       30.5077871
      ],
      [
       -97.6273322,
       30.5078168
      ],
      [
       -97.6273405,
       30.5078494
      ],
      [
       -97.6273566,
       30.5078684
      ],
      [
       -97.6278443,
       30.5081034
      ],
      [
       -97.6278647,
       30.5080725
      ],
      [
       -97.6279889,
       30.5079224
      ],
      [
       -97.627996,
       30.507709
      ],
      [
       -97.6280102,
       30.5071601
      ],
      [
       -97.6279889,
       30.5068552
      ],
      [
       -97.6280385,
       30.5065564
      ],
      [
       -97.628173,
       30.5060868
      ],
      [
       -97.6281871,
       30.5059587
      ]
     ]
    ]
   },
   "properties": {
    "osm_id": 461656339,
    "osm_type": "way",
    "name": "Sonoma HOA Park",
    "display_name": "Sonoma HOA Park, Round Rock, Williamson County, Texas, United States",
    "feature_type": "park",
    "region": "round_rock",
    "area_m2": 18315.0,
    "open_lat": 30.5060322,
    "open_lon": -97.627714,
    "open_radius_m": 43.0,
    "source": "openstreetmap_nominatim",
    "licence": "Data (c) OpenStreetMap contributors, ODbL",
    "verified_lat": 30.5062448,
    "verified_lon": -97.627714,
    "nearest_feature": "leisure/playground Via Sonoma Trail, Lake Forest, Round Roc at 43 m",
    "anchor_clearance_score_m": 28.3,
    "open_ground_verified": true
   }
  },
  {
   "type": "Feature",
   "geometry": {
    "type": "Polygon",
    "coordinates": [
     [
      [
       -97.6541368,
       30.514696
      ],
      [
       -97.6540953,
       30.5146066
      ],
      [
       -97.6540218,
       30.5145543
      ],
      [
       -97.653934,
       30.5145351
      ],
      [
       -97.6538621,
       30.5145241
      ],
      [
       -97.6537052,
       30.5143036
      ],
      [
       -97.6534567,
       30.5142836
      ],
      [
       -97.6533106,
       30.5142738
      ],
      [
       -97.6530819,
       30.5142726
      ],
      [
       -97.6529787,
       30.5142923
      ],
      [
       -97.652822,
       30.5143876
      ],
      [
       -97.6527586,
       30.514483
      ],
      [
       -97.6526694,
       30.5145864
      ],
      [
       -97.6525864,
       30.5146636
      ],
      [
       -97.6525466,
       30.5147047
      ],
      [
       -97.6525029,
       30.5147325
      ],
      [
       -97.6524687,
       30.5147539
      ],
      [
       -97.6524594,
       30.5147723
      ],
      [
       -97.6524683,
       30.5148883
      ],
      [
       -97.6525001,
       30.5152095
      ],
      [
       -97.6525495,
       30.5156104
      ],
      [
       -97.6525763,
       30.5156323
      ],
      [
       -97.6526017,
       30.5156438
      ],
      [
       -97.6528343,
       30.5156265
      ],
      [
       -97.6531365,
       30.515532
      ],
      [
       -97.6531459,
       30.5155171
      ],
      [
       -97.6530042,
       30.5151127
      ],
      [
       -97.6540202,
       30.5147717
      ],
      [
       -97.6541176,
       30.5147318
      ],
      [
       -97.6541368,
       30.514696
      ]
     ]
    ]
   },
   "properties": {
    "osm_id": 571784637,
    "osm_type": "way",
    "name": "Play for All Abilities Park",
    "display_name": "Play for All Abilities Park, Round Rock, Williamson County, Texas, United States",
    "feature_type": "park",
    "region": "round_rock",
    "area_m2": 13086.0,
    "open_lat": 30.5146529,
    "open_lon": -97.6531539,
    "open_radius_m": 42.2,
    "source": "openstreetmap_nominatim",
    "licence": "Data (c) OpenStreetMap contributors, ODbL",
    "verified_lat": 30.5146529,
    "verified_lon": -97.6531539,
    "nearest_feature": "amenity/parking Brushy Creek Trail East, Round Rock, Wil at 61 m",
    "anchor_clearance_score_m": 51.4,
    "open_ground_verified": true
   }
  },
  {
   "type": "Feature",
   "geometry": {
    "type": "Polygon",
    "coordinates": [
     [
      [
       -97.6778631,
       30.5142841
      ],
      [
       -97.6766687,
       30.5146361
      ],
      [
       -97.6764943,
       30.514235
      ],
      [
       -97.6764384,
       30.5142515
      ],
      [
       -97.6764274,
       30.5143221
      ],
      [
       -97.676384,
       30.5144232
      ],
      [
       -97.6763598,
       30.5144561
      ],
      [
       -97.6762893,
       30.5145196
      ],
      [
       -97.6761958,
       30.5145633
      ],
      [
       -97.6761398,
       30.5145771
      ],
      [
       -97.676081,
       30.5145814
      ],
      [
       -97.6760869,
       30.5146454
      ],
      [
       -97.6756333,
       30.5146667
      ],
      [
       -97.6749978,
       30.5146878
      ],
      [
       -97.6750017,
       30.5149307
      ],
      [
       -97.6750768,
       30.5149399
      ],
      [
       -97.6754882,
       30.5149937
      ],
      [
       -97.6756796,
       30.5149998
      ],
      [
       -97.6758756,
       30.5149999
      ],
      [
       -97.6760523,
       30.5149976
      ],
      [
       -97.6763082,
       30.5149842
      ],
      [
       -97.6765487,
       30.5149575
      ],
      [
       -97.6767784,
       30.5149018
      ],
      [
       -97.676932,
       30.5148463
      ],
      [
       -97.6770902,
       30.5147586
      ],
      [
       -97.6772479,
       30.5146275
      ],
      [
       -97.6775166,
       30.5144577
      ],
      [
       -97.677615,
       30.514428
      ],
      [
       -97.6778631,
       30.5142841
      ]
     ]
    ]
   },
   "properties": {
    "osm_id": 183451398,
    "osm_type": "way",
    "name": "Veterans Park",
    "display_name": "Veterans Park, 600, Round Rock, Williamson County, Texas, 78664, United States",
    "feature_type": "park",
    "region": "round_rock",
    "area_m2": 8939.1,
    "open_lat": 30.5147285,
    "open_lon": -97.6764137,
    "open_radius_m": 26.1,
    "source": "openstreetmap_nominatim",
    "licence": "Data (c) OpenStreetMap contributors, ODbL",
    "verified_lat": 30.5148576,
    "verified_lon": -97.6764137,
    "nearest_feature": "place/house 502, Pecan Avenue, Round Rock, Williamso at 29 m",
    "anchor_clearance_score_m": -5.8,
    "open_ground_verified": false
   }
  },
  {
   "type": "Feature",
   "geometry": {
    "type": "Polygon",
    "coordinates": [
     [
      [
       -97.6879851,
       30.4967531
      ],
      [
       -97.6876579,
       30.4959369
      ],
      [
       -97.6875196,
       30.4959824
      ],
      [
       -97.6874078,
       30.4960227
      ],
      [
       -97.6871822,
       30.4961296
      ],
      [
       -97.6874465,
       30.4964116
      ],
      [
       -97.6872615,
       30.4965499
      ],
      [
       -97.6868875,
       30.4969195
      ],
      [
       -97.6868753,
       30.4970509
      ],
      [
       -97.6869183,
       30.497529
      ],
      [
       -97.6876358,
       30.497491
      ],
      [
       -97.6879607,
       30.4972155
      ],
      [
       -97.6877778,
       30.4970631
      ],
      [
       -97.6876965,
       30.4968354
      ],
      [
       -97.6879851,
       30.4967531
      ]
     ]
    ]
   },
   "properties": {
    "osm_id": 581282776,
    "osm_type": "way",
    "name": "Chisholm Valley Park",
    "display_name": "Chisholm Valley Park, Round Rock, Williamson County, Texas, United States",
    "feature_type": "park",
    "region": "round_rock",
    "area_m2": 11653.7,
    "open_lat": 30.4971185,
    "open_lon": -97.6873293,
    "open_radius_m": 42.8,
    "source": "openstreetmap_nominatim",
    "licence": "Data (c) OpenStreetMap contributors, ODbL",
    "verified_lat": 30.4969065,
    "verified_lon": -97.6873293,
    "nearest_feature": "amenity/shelter Trey Street, Chisholm Valley, Round Rock at 68 m",
    "anchor_clearance_score_m": 58.3,
    "open_ground_verified": true
   }
  },
  {
   "type": "Feature",
   "geometry": {
    "type": "Polygon",
    "coordinates": [
     [
      [
       -97.6217931,
       30.4961864
      ],
      [
       -97.6217852,
       30.4958807
      ],
      [
       -97.6209245,
       30.4957624
      ],
      [
       -97.6209115,
       30.4953495
      ],
      [
       -97.6205159,
       30.4952503
      ],
      [
       -97.6205599,
       30.4951072
      ],
      [
       -97.6201652,
       30.4949549
      ],
      [
       -97.6199121,
       30.4949753
      ],
      [
       -97.6201194,
       30.4959286
      ],
      [
       -97.6192162,
       30.4961167
      ],
      [
       -97.6195009,
       30.4970367
      ],
      [
       -97.6203906,
       30.4968357
      ],
      [
       -97.6212447,
       30.4966483
      ],
      [
       -97.6215136,
       30.4966142
      ],
      [
       -97.6215107,
       30.496188
      ],
      [
       -97.6217931,
       30.4961864
      ]
     ]
    ]
   },
   "properties": {
    "osm_id": 349662286,
    "osm_type": "way",
    "name": "Bradford Park",
    "display_name": "Bradford Park, 2615, Round Rock, Williamson County, Texas, 78681, United States",
    "feature_type": "park",
    "region": "round_rock",
    "area_m2": 29448.2,
    "open_lat": 30.4962347,
    "open_lon": -97.6206305,
    "open_radius_m": 59.1,
    "source": "openstreetmap_nominatim",
    "licence": "Data (c) OpenStreetMap contributors, ODbL",
    "verified_lat": 30.4962347,
    "verified_lon": -97.6209692,
    "nearest_feature": "highway/path Bradford Park Path at 29 m",
    "anchor_clearance_score_m": 9.2,
    "open_ground_verified": false
   }
  },
  {
   "type": "Feature",
   "geometry": {
    "type": "Polygon",
    "coordinates": [
     [
      [
       -97.6995383,
       30.5057612
      ],
      [
       -97.6994149,
       30.5051142
      ],
      [
       -97.6987175,
       30.5052205
      ],
      [
       -97.698857,
       30.5058721
      ],
      [
       -97.6995383,
       30.5057612
      ]
     ]
    ]
   },
   "properties": {
    "osm_id": 205356150,
    "osm_type": "way",
    "name": "Round Rock HS Tennis Courts",
    "display_name": "Round Rock HS Tennis Courts, Round Rock, Williamson County, Texas, United States",
    "feature_type": "recreation_ground",
    "region": "round_rock",
    "area_m2": 4923.0,
    "open_lat": 30.5054909,
    "open_lon": -97.6991311,
    "open_radius_m": 33.5,
    "source": "openstreetmap_nominatim",
    "licence": "Data (c) OpenStreetMap contributors, ODbL",
    "verified_lat": 30.5054909,
    "verified_lon": -97.6991311,
    "nearest_feature": "amenity/school Round Rock High School at 298 m",
    "anchor_clearance_score_m": 287.5,
    "open_ground_verified": true
   }
  },
  {
   "type": "Feature",
   "geometry": {
    "type": "Polygon",
    "coordinates": [
     [
      [
       -97.7010313,
       30.5105296
      ],
      [
       -97.7007366,
       30.5096728
      ],
      [
       -97.7005913,
       30.5092331
      ],
      [
       -97.7005492,
       30.5090586
      ],
      [
       -97.7004166,
       30.5084434
      ],
      [
       -97.6995947,
       30.5042876
      ],
      [
       -97.6994909,
       30.5043197
      ],
      [
       -97.6973255,
       30.5049901
      ],
      [
       -97.6972666,
       30.505141
      ],
      [
       -97.6973872,
       30.5058979
      ],
      [
       -97.6942933,
       30.5063469
      ],
      [
       -97.6944321,
       30.5070116
      ],
      [
       -97.6945043,
       30.5073795
      ],
      [
       -97.6946405,
       30.5080727
      ],
      [
       -97.6946607,
       30.5081861
      ],
      [
       -97.6947559,
       30.5087204
      ],
      [
       -97.6948502,
       30.5092033
      ],
      [
       -97.6949805,
       30.5098523
      ],
      [
       -97.6950663,
       30.5103233
      ],
      [
       -97.695149,
       30.5107168
      ],
      [
       -97.6952337,
       30.5111595
      ],
      [
       -97.6952952,
       30.5115005
      ],
      [
       -97.6957991,
       30.5115089
      ],
      [
       -97.696204,
       30.5115251
      ],
      [
       -97.6965922,
       30.5115568
      ],
      [
       -97.6970634,
       30.5116206
      ],
      [
       -97.6980117,
       30.5117735
      ],
      [
       -97.6983695,
       30.5118375
      ],
      [
       -97.6985569,
       30.5118176
      ],
      [
       -97.6983244,
       30.5106065
      ],
      [
       -97.7007331,
       30.510623
      ],
      [
       -97.7010313,
       30.5105296
      ]
     ]
    ]
   },
   "properties": {
    "osm_id": 231041389,
    "osm_type": "way",
    "name": "Round Rock High School",
    "display_name": "Round Rock High School, 300, North Lake Creek Drive, Round Rock, Williamson County, Texas, 78681, United States",
    "feature_type": "school",
    "region": "round_rock",
    "area_m2": 348887.1,
    "open_lat": 30.5083132,
    "open_lon": -97.6975085,
    "open_radius_m": 266.6,
    "source": "openstreetmap_nominatim",
    "licence": "Data (c) OpenStreetMap contributors, ODbL"
   }
  },
  {
   "type": "Feature",
   "geometry": {
    "type": "Polygon",
    "coordinates": [
     [
      [
       -97.6652229,
       30.5280703
      ],
      [
       -97.6617412,
       30.5281297
      ],
      [
       -97.6616699,
       30.525449
      ],
      [
       -97.66165,
       30.5246993
      ],
      [
       -97.6614491,
       30.5247028
      ],
      [
       -97.6586639,
       30.5247517
      ],
      [
       -97.6585038,
       30.5247545
      ],
      [
       -97.6576614,
       30.5247693
      ],
      [
       -97.6577587,
       30.52815
      ],
      [
       -97.65815,
       30.5281451
      ],
      [
       -97.65879,
       30.528137
      ],
      [
       -97.659424,
       30.52813
      ],
      [
       -97.6594395,
       30.5285347
      ],
      [
       -97.6594586,
       30.530894
      ],
      [
       -97.6594642,
       30.5311909
      ],
      [
       -97.659466,
       30.531811
      ],
      [
       -97.6624513,
       30.5317839
      ],
      [
       -97.6632432,
       30.5316951
      ],
      [
       -97.6638337,
       30.5315417
      ],
      [
       -97.6652151,
       30.5311086
      ],
      [
       -97.6652229,
       30.5280703
      ]
     ]
    ]
   },
   "properties": {
    "osm_id": 364105802,
    "osm_type": "way",
    "name": "Stony Point High School",
    "display_name": "Stony Point High School, 1801, Tiger Trail, Round Rock, Williamson County, Texas, 78664, United States",
    "feature_type": "school",
    "region": "round_rock",
    "area_m2": 362380.1,
    "open_lat": 30.5299567,
    "open_lon": -97.661579,
    "open_radius_m": 203.6,
    "source": "openstreetmap_nominatim",
    "licence": "Data (c) OpenStreetMap contributors, ODbL"
   }
  },
  {
   "type": "Feature",
   "geometry": {
    "type": "Polygon",
    "coordinates": [
     [
      [
       -97.7048857,
       30.5026539
      ],
      [
       -97.7035842,
       30.5008951
      ],
      [
       -97.7032338,
       30.500398
      ],
      [
       -97.7032179,
       30.5005795
      ],
      [
       -97.7032108,
       30.5007731
      ],
      [
       -97.7031648,
       30.5009226
      ],
      [
       -97.7030515,
       30.5010918
      ],
      [
       -97.7028126,
       30.5013693
      ],
      [
       -97.7024959,
       30.501723
      ],
      [
       -97.702103,
       30.5021027
      ],
      [
       -97.7017792,
       30.5023878
      ],
      [
       -97.7016907,
       30.5024534
      ],
      [
       -97.701558,
       30.5025372
      ],
      [
       -97.7014111,
       30.5026028
      ],
      [
       -97.7012377,
       30.5026683
      ],
      [
       -97.7009803,
       30.502743
      ],
      [
       -97.7007465,
       30.5027711
      ],
      [
       -97.7005234,
       30.5027524
      ],
      [
       -97.7003439,
       30.5027243
      ],
      [
       -97.7001862,
       30.5027055
      ],
      [
       -97.7000013,
       30.5027149
      ],
      [
       -97.6998668,
       30.502744
      ],
      [
       -97.6997783,
       30.5028274
      ],
      [
       -97.6996717,
       30.5029329
      ],
      [
       -97.6996223,
       30.5029704
      ],
      [
       -97.6995893,
       30.5029984
      ],
      [
       -97.6998096,
       30.5041844
      ],
      [
       -97.7032685,
       30.5031415
      ],
      [
       -97.7048857,
       30.5026539
      ]
     ]
    ]
   },
   "properties": {
    "osm_id": 231044142,
    "osm_type": "way",
    "name": "Chisholm Trail Middle School",
    "display_name": "Chisholm Trail Middle School, 500, Oakridge Drive, Round Rock, Williamson County, Texas, 78681, United States",
    "feature_type": "school",
    "region": "round_rock",
    "area_m2": 77388.7,
    "open_lat": 30.5021975,
    "open_lon": -97.7033495,
    "open_radius_m": 96.5,
    "source": "openstreetmap_nominatim",
    "licence": "Data (c) OpenStreetMap contributors, ODbL"
   }
  },
  {
   "type": "Feature",
   "geometry": {
    "type": "Polygon",
    "coordinates": [
     [
      [
       -97.6443672,
       30.4943199
      ],
      [
       -97.6425024,
       30.4899467
      ],
      [
       -97.6423124,
       30.4895012
      ],
      [
       -97.64001,
       30.4900862
      ],
      [
       -97.6360975,
       30.4910802
      ],
      [
       -97.6362329,
       30.4962803
      ],
      [
       -97.6416239,
       30.4962216
      ],
      [
       -97.6432208,
       30.4962042
      ],
      [
       -97.6432007,
       30.4943084
      ],
      [
       -97.6443672,
       30.4943199
      ]
     ]
    ]
   },
   "properties": {
    "osm_id": 364108982,
    "osm_type": "way",
    "name": "Cedar Ridge High School",
    "display_name": "Cedar Ridge High School, 2801, Gattis School Road, Round Rock, Williamson County, Texas, 78664, United States",
    "feature_type": "school",
    "region": "round_rock",
    "area_m2": 461720.9,
    "open_lat": 30.4932358,
    "open_lon": -97.6399457,
    "open_radius_m": 333.8,
    "source": "openstreetmap_nominatim",
    "licence": "Data (c) OpenStreetMap contributors, ODbL"
   }
  },
  {
   "type": "Feature",
   "geometry": {
    "type": "Polygon",
    "coordinates": [
     [
      [
       -97.6617358,
       30.5529079
      ],
      [
       -97.6607452,
       30.5509306
      ],
      [
       -97.6589465,
       30.5504595
      ],
      [
       -97.6586648,
       30.5505481
      ],
      [
       -97.6556864,
       30.5514591
      ],
      [
       -97.6560965,
       30.5525282
      ],
      [
       -97.6572756,
       30.5543749
      ],
      [
       -97.6577785,
       30.5543139
      ],
      [
       -97.6583071,
       30.5543403
      ],
      [
       -97.6593935,
       30.5529499
      ],
      [
       -97.6598356,
       30.5531854
      ],
      [
       -97.6600922,
       30.5528802
      ],
      [
       -97.6611993,
       30.5535371
      ],
      [
       -97.6617358,
       30.5529079
      ]
     ]
    ]
   },
   "properties": {
    "osm_id": 364105801,
    "osm_type": "way",
    "name": "Hopewell Middle School",
    "display_name": "Hopewell Middle School, Lakeside Loop, Meadow Lake, Round Rock, Williamson County, Texas, 78665, United States",
    "feature_type": "school",
    "region": "round_rock",
    "area_m2": 153973.3,
    "open_lat": 30.5523204,
    "open_lon": -97.6578663,
    "open_radius_m": 159.8,
    "source": "openstreetmap_nominatim",
    "licence": "Data (c) OpenStreetMap contributors, ODbL"
   }
  },
  {
   "type": "Feature",
   "geometry": {
    "type": "Polygon",
    "coordinates": [
     [
      [
       -97.6297365,
       30.5014344
      ],
      [
       -97.6296957,
       30.5009364
      ],
      [
       -97.6295611,
       30.5006287
      ],
      [
       -97.6292856,
       30.5002596
      ],
      [
       -97.6286838,
       30.4997357
      ],
      [
       -97.6284634,
       30.4994123
      ],
      [
       -97.6283451,
       30.4990747
      ],
      [
       -97.6283124,
       30.4985122
      ],
      [
       -97.6260393,
       30.4985437
      ],
      [
       -97.6245759,
       30.4985574
      ],
      [
       -97.6236978,
       30.4985684
      ],
      [
       -97.6237952,
       30.5015395
      ],
      [
       -97.623841,
       30.5015387
      ],
      [
       -97.6264612,
       30.5014923
      ],
      [
       -97.6266858,
       30.5014884
      ],
      [
       -97.6297365,
       30.5014344
      ]
     ]
    ]
   },
   "properties": {
    "osm_id": 364108984,
    "osm_type": "way",
    "name": "Ridgeview Middle School",
    "display_name": "Ridgeview Middle School, 2000, Via Sonoma Trail, Lake Forest, Round Rock, Williamson County, Texas, 78665, United States",
    "feature_type": "school",
    "region": "round_rock",
    "area_m2": 165402.1,
    "open_lat": 30.5000309,
    "open_lon": -97.6254611,
    "open_radius_m": 164.3,
    "source": "openstreetmap_nominatim",
    "licence": "Data (c) OpenStreetMap contributors, ODbL"
   }
  },
  {
   "type": "Feature",
   "geometry": {
    "type": "Polygon",
    "coordinates": [
     [
      [
       -97.7059659,
       30.5325641
      ],
      [
       -97.7050231,
       30.530538
      ],
      [
       -97.7028089,
       30.5312854
      ],
      [
       -97.7022443,
       30.531424
      ],
      [
       -97.702306,
       30.5328206
      ],
      [
       -97.7027901,
       30.5329719
      ],
      [
       -97.7029752,
       30.5331001
      ],
      [
       -97.7030932,
       30.5332468
      ],
      [
       -97.7031844,
       30.5333901
      ],
      [
       -97.7033105,
       30.5334166
      ],
      [
       -97.7059659,
       30.5325641
      ]
     ]
    ]
   },
   "properties": {
    "osm_id": 1223110900,
    "osm_type": "way",
    "name": "Old Town Elementary School",
    "display_name": "Old Town Elementary School, Oak Hollow Drive, Round Rock, Williamson County, Texas, 78681, United States",
    "feature_type": "school",
    "region": "round_rock",
    "area_m2": 73482.5,
    "open_lat": 30.5319585,
    "open_lon": -97.7042577,
    "open_radius_m": 120.2,
    "source": "openstreetmap_nominatim",
    "licence": "Data (c) OpenStreetMap contributors, ODbL"
   }
  },
  {
   "type": "Feature",
   "geometry": {
    "type": "Polygon",
    "coordinates": [
     [
      [
       -97.6736531,
       30.4942594
      ],
      [
       -97.672323,
       30.4946469
      ],
      [
       -97.6713881,
       30.4949141
      ],
      [
       -97.6711103,
       30.4949489
      ],
      [
       -97.6709929,
       30.4949785
      ],
      [
       -97.6710265,
       30.4969688
      ],
      [
       -97.6710547,
       30.4979555
      ],
      [
       -97.6728769,
       30.4979466
      ],
      [
       -97.6733502,
       30.4980153
      ],
      [
       -97.6733163,
       30.496303
      ],
      [
       -97.6736493,
       30.4962077
      ],
      [
       -97.6736531,
       30.4942594
      ]
     ]
    ]
   },
   "properties": {
    "osm_id": 914860837,
    "osm_type": "way",
    "name": "Success High School",
    "display_name": "Success High School, 500, Gattis School Road, Round Rock, Williamson County, Texas, 78664, United States",
    "feature_type": "school",
    "region": "round_rock",
    "area_m2": 87325.4,
    "open_lat": 30.4957999,
    "open_lon": -97.672238,
    "open_radius_m": 117.6,
    "source": "openstreetmap_nominatim",
    "licence": "Data (c) OpenStreetMap contributors, ODbL"
   }
  },
  {
   "type": "Feature",
   "geometry": {
    "type": "Polygon",
    "coordinates": [
     [
      [
       -97.6424347,
       30.5006857
      ],
      [
       -97.6423907,
       30.4989806
      ],
      [
       -97.6423269,
       30.4965129
      ],
      [
       -97.6416196,
       30.4965025
      ],
      [
       -97.6415727,
       30.4974384
      ],
      [
       -97.6415297,
       30.4976955
      ],
      [
       -97.6414329,
       30.4978742
      ],
      [
       -97.641317,
       30.4980508
      ],
      [
       -97.6411306,
       30.4982779
      ],
      [
       -97.6410322,
       30.4983979
      ],
      [
       -97.6402231,
       30.4992087
      ],
      [
       -97.6404988,
       30.4995237
      ],
      [
       -97.6405562,
       30.5006134
      ],
      [
       -97.6424347,
       30.5006857
      ]
     ]
    ]
   },
   "properties": {
    "osm_id": 914523857,
    "osm_type": "way",
    "name": "Gattis Elementary School",
    "display_name": "Gattis Elementary School, 2920, Round Rock Ranch Boulevard, Round Rock, Williamson County, Texas, 78665, United States",
    "feature_type": "school",
    "region": "round_rock",
    "area_m2": 62271.0,
    "open_lat": 30.4992845,
    "open_lon": -97.6414283,
    "open_radius_m": 93.0,
    "source": "openstreetmap_nominatim",
    "licence": "Data (c) OpenStreetMap contributors, ODbL"
   }
  },
  {
   "type": "Feature",
   "geometry": {
    "type": "Polygon",
    "coordinates": [
     [
      [
       -97.6601506,
       30.502299
      ],
      [
       -97.6600998,
       30.5007172
      ],
      [
       -97.6569932,
       30.5010273
      ],
      [
       -97.6570348,
       30.5013609
      ],
      [
       -97.6574594,
       30.5013677
      ],
      [
       -97.6576452,
       30.5013993
      ],
      [
       -97.657866,
       30.5014832
      ],
      [
       -97.6579878,
       30.5015634
      ],
      [
       -97.6581107,
       30.5016695
      ],
      [
       -97.6582586,
       30.5019213
      ],
      [
       -97.6583089,
       30.5021271
      ],
      [
       -97.6586104,
       30.50357
      ],
      [
       -97.6595015,
       30.5034482
      ],
      [
       -97.660066,
       30.5034729
      ],
      [
       -97.6600673,
       30.5034542
      ],
      [
       -97.6601506,
       30.502299
      ]
     ]
    ]
   },
   "properties": {
    "osm_id": 364108980,
    "osm_type": "way",
    "name": "Callison Elementary School",
    "display_name": "Callison Elementary School, 1750, Thompson Trail, Turtle Creek Village, Round Rock, Williamson County, Texas, 78664, United States",
    "feature_type": "school",
    "region": "round_rock",
    "area_m2": 57057.0,
    "open_lat": 30.50167,
    "open_lon": -97.6591723,
    "open_radius_m": 91.9,
    "source": "openstreetmap_nominatim",
    "licence": "Data (c) OpenStreetMap contributors, ODbL"
   }
  },
  {
   "type": "Feature",
   "geometry": {
    "type": "Polygon",
    "coordinates": [
     [
      [
       -97.6917354,
       30.5383088
      ],
      [
       -97.6915536,
       30.5369106
      ],
      [
       -97.6914029,
       30.5369234
      ],
      [
       -97.6913356,
       30.5369155
      ],
      [
       -97.6912808,
       30.5369067
      ],
      [
       -97.6912414,
       30.5368885
      ],
      [
       -97.6909102,
       30.5367064
      ],
      [
       -97.6908834,
       30.5367045
      ],
      [
       -97.690861,
       30.5367016
      ],
      [
       -97.6908364,
       30.5367026
      ],
      [
       -97.6908196,
       30.5367064
      ],
      [
       -97.6884278,
       30.5374102
      ],
      [
       -97.6883463,
       30.5374342
      ],
      [
       -97.6883636,
       30.5374788
      ],
      [
       -97.6883716,
       30.5374993
      ],
      [
       -97.6888418,
       30.5387089
      ],
      [
       -97.6888658,
       30.5388384
      ],
      [
       -97.6888593,
       30.5389998
      ],
      [
       -97.6888222,
       30.539163
      ],
      [
       -97.6917354,
       30.5383088
      ]
     ]
    ]
   },
   "properties": {
    "osm_id": 921829817,
    "osm_type": "way",
    "name": "Meridian World School",
    "display_name": "Meridian World School, 2555, North Interstate 35, Round Rock, Williamson County, Texas, 78664, United States",
    "feature_type": "school",
    "region": "round_rock",
    "area_m2": 57292.4,
    "open_lat": 30.537721,
    "open_lon": -97.6905505,
    "open_radius_m": 98.4,
    "source": "openstreetmap_nominatim",
    "licence": "Data (c) OpenStreetMap contributors, ODbL"
   }
  },
  {
   "type": "Feature",
   "geometry": {
    "type": "Polygon",
    "coordinates": [
     [
      [
       -97.6677854,
       30.5303044
      ],
      [
       -97.6677754,
       30.5280467
      ],
      [
       -97.6652229,
       30.5280703
      ],
      [
       -97.6652151,
       30.5311086
      ],
      [
       -97.6677854,
       30.5303044
      ]
     ]
    ]
   },
   "properties": {
    "osm_id": 364105800,
    "osm_type": "way",
    "name": "Hernandez Middle School",
    "display_name": "Hernandez Middle School, 1901, Sunrise Road, Round Rock, Williamson County, Texas, 78664, United States",
    "feature_type": "school",
    "region": "round_rock",
    "area_m2": 72281.3,
    "open_lat": 30.5291874,
    "open_lon": -97.6665002,
    "open_radius_m": 122.8,
    "source": "openstreetmap_nominatim",
    "licence": "Data (c) OpenStreetMap contributors, ODbL"
   }
  },
  {
   "type": "Feature",
   "geometry": {
    "type": "Polygon",
    "coordinates": [
     [
      [
       -97.7175228,
       30.5103182
      ],
      [
       -97.7174418,
       30.5098185
      ],
      [
       -97.7161722,
       30.5090389
      ],
      [
       -97.715106,
       30.5082528
      ],
      [
       -97.714076,
       30.5089179
      ],
      [
       -97.7116191,
       30.5097914
      ],
      [
       -97.7126545,
       30.5122593
      ],
      [
       -97.7144677,
       30.5116493
      ],
      [
       -97.7149719,
       30.5115938
      ],
      [
       -97.7154225,
       30.5116539
      ],
      [
       -97.7171781,
       30.5120284
      ],
      [
       -97.7174905,
       30.5108439
      ],
      [
       -97.7175228,
       30.5103182
      ]
     ]
    ]
   },
   "properties": {
    "osm_id": 566779185,
    "osm_type": "way",
    "name": "Saint David's Round Rock Medical Center",
    "display_name": "Saint David's Round Rock Medical Center, 2400, Round Rock Avenue, Round Rock, Williamson County, Texas, 78681, United States",
    "feature_type": "hospital",
    "region": "round_rock",
    "area_m2": 160518.2,
    "open_lat": 30.5101317,
    "open_lon": -97.7150379,
    "open_radius_m": 162.6,
    "source": "openstreetmap_nominatim",
    "licence": "Data (c) OpenStreetMap contributors, ODbL"
   }
  },
  {
   "type": "Feature",
   "geometry": {
    "type": "Polygon",
    "coordinates": [
     [
      [
       -97.6334529,
       30.4914203
      ],
      [
       -97.6334091,
       30.4914033
      ],
      [
       -97.6333612,
       30.4914309
      ],
      [
       -97.6332874,
       30.4915014
      ],
      [
       -97.6332907,
       30.4915687
      ],
      [
       -97.6333379,
       30.4915844
      ],
      [
       -97.6333805,
       30.4915861
      ],
      [
       -97.6334152,
       30.4915639
      ],
      [
       -97.6334529,
       30.4914203
      ]
     ]
    ]
   },
   "properties": {
    "osm_id": 803010651,
    "osm_type": "way",
    "name": "Northfield Playground",
    "display_name": "Northfield Playground, Hat Bender Loop, Northfields, Round Rock, Williamson County, Texas, 78664, United States",
    "feature_type": "playground",
    "region": "round_rock",
    "area_m2": 213.2,
    "open_lat": 30.491529,
    "open_lon": -97.6333569,
    "open_radius_m": 6.2,
    "source": "openstreetmap_nominatim",
    "licence": "Data (c) OpenStreetMap contributors, ODbL"
   }
  },
  {
   "type": "Feature",
   "geometry": {
    "type": "Polygon",
    "coordinates": [
     [
      [
       -97.6204802,
       30.4951403
      ],
      [
       -97.6204709,
       30.4951289
      ],
      [
       -97.6204574,
       30.4951245
      ],
      [
       -97.6204161,
       30.49511
      ],
      [
       -97.6203235,
       30.4950966
      ],
      [
       -97.6202974,
       30.4950957
      ],
      [
       -97.6202888,
       30.4950976
      ],
      [
       -97.6202757,
       30.4951458
      ],
      [
       -97.6202714,
       30.4951671
      ],
      [
       -97.6202767,
       30.4951753
      ],
      [
       -97.6202864,
       30.4951803
      ],
      [
       -97.6203288,
       30.49519
      ],
      [
       -97.6203402,
       30.4951966
      ],
      [
       -97.6203399,
       30.4952099
      ],
      [
       -97.6203344,
       30.4952424
      ],
      [
       -97.6203368,
       30.4952506
      ],
      [
       -97.6203461,
       30.4952564
      ],
      [
       -97.6204239,
       30.4952722
      ],
      [
       -97.6204356,
       30.4952724
      ],
      [
       -97.620447,
       30.4952658
      ],
      [
       -97.6204555,
       30.4952536
      ],
      [
       -97.6204802,
       30.4951403
      ]
     ]
    ]
   },
   "properties": {
    "osm_id": 349662289,
    "osm_type": "way",
    "name": "Bradford Park Playground",
    "display_name": "Bradford Park Playground, Andres Way, Round Rock, Williamson County, Texas, 78664, United States",
    "feature_type": "playground",
    "region": "round_rock",
    "area_m2": 269.1,
    "open_lat": 30.4951672,
    "open_lon": -97.6203954,
    "open_radius_m": 6.2,
    "source": "openstreetmap_nominatim",
    "licence": "Data (c) OpenStreetMap contributors, ODbL"
   }
  },
  {
   "type": "Feature",
   "geometry": {
    "type": "Polygon",
    "coordinates": [
     [
      [
       -97.6507095,
       30.5352927
      ],
      [
       -97.6503675,
       30.5344727
      ],
      [
       -97.6500784,
       30.5345878
      ],
      [
       -97.6499126,
       30.5345455
      ],
      [
       -97.6498467,
       30.5347858
      ],
      [
       -97.649774,
       30.5349344
      ],
      [
       -97.6496979,
       30.5352257
      ],
      [
       -97.6506119,
       30.5353641
      ],
      [
       -97.6507095,
       30.5352927
      ]
     ]
    ]
   },
   "properties": {
    "osm_id": 1249483906,
    "osm_type": "way",
    "name": "Beckwood Trail",
    "display_name": "Beckwood Trail, Villages of Chandler Creek, Round Rock, Williamson County, Texas, 78665, United States",
    "feature_type": "playground",
    "region": "round_rock",
    "area_m2": 6132.0,
    "open_lat": 30.5349637,
    "open_lon": -97.6501674,
    "open_radius_m": 36.0,
    "source": "openstreetmap_nominatim",
    "licence": "Data (c) OpenStreetMap contributors, ODbL"
   }
  },
  {
   "type": "Feature",
   "geometry": {
    "type": "Polygon",
    "coordinates": [
     [
      [
       -97.6846607,
       30.5112868
      ],
      [
       -97.6845831,
       30.5110135
      ],
      [
       -97.6841191,
       30.511096
      ],
      [
       -97.6841766,
       30.5113311
      ],
      [
       -97.6843259,
       30.5113988
      ],
      [
       -97.6843871,
       30.5113408
      ],
      [
       -97.6845646,
       30.5112986
      ],
      [
       -97.6846607,
       30.5112868
      ]
     ]
    ]
   },
   "properties": {
    "osm_id": 914868490,
    "osm_type": "way",
    "name": "Brushy Creek Regional Trail",
    "display_name": "Brushy Creek Regional Trail, Round Rock, Williamson County, Texas, 78680, United States",
    "feature_type": "playground",
    "region": "round_rock",
    "area_m2": 1462.5,
    "open_lat": 30.5111988,
    "open_lon": -97.6843645,
    "open_radius_m": 15.8,
    "source": "openstreetmap_nominatim",
    "licence": "Data (c) OpenStreetMap contributors, ODbL"
   }
  },
  {
   "type": "Feature",
   "geometry": {
    "type": "Polygon",
    "coordinates": [
     [
      [
       -97.6279523,
       30.5383104
      ],
      [
       -97.6278806,
       30.5382307
      ],
      [
       -97.6278021,
       30.5382342
      ],
      [
       -97.6276821,
       30.5383416
      ],
      [
       -97.6277518,
       30.5384132
      ],
      [
       -97.627615,
       30.5385288
      ],
      [
       -97.6277129,
       30.5386252
      ],
      [
       -97.6279268,
       30.5384508
      ],
      [
       -97.6279423,
       30.5383965
      ],
      [
       -97.6279523,
       30.5383104
      ]
     ]
    ]
   },
   "properties": {
    "osm_id": 546633954,
    "osm_type": "way",
    "name": "Harrell Parkway",
    "display_name": "Harrell Parkway, Round Rock, Williamson County, Texas, 78665, United States",
    "feature_type": "playground",
    "region": "round_rock",
    "area_m2": 760.2,
    "open_lat": 30.5383478,
    "open_lon": -97.6278337,
    "open_radius_m": 10.7,
    "source": "openstreetmap_nominatim",
    "licence": "Data (c) OpenStreetMap contributors, ODbL"
   }
  },
  {
   "type": "Feature",
   "geometry": {
    "type": "Polygon",
    "coordinates": [
     [
      [
       -97.6874615,
       30.4917038
      ],
      [
       -97.6874317,
       30.4916406
      ],
      [
       -97.6874104,
       30.4916282
      ],
      [
       -97.6873422,
       30.491648
      ],
      [
       -97.6873174,
       30.4916414
      ],
      [
       -97.6872842,
       30.491598
      ],
      [
       -97.6872654,
       30.49159
      ],
      [
       -97.6871998,
       30.4916127
      ],
      [
       -97.6871913,
       30.4916289
      ],
      [
       -97.6871998,
       30.4916627
      ],
      [
       -97.6871904,
       30.4916869
      ],
      [
       -97.687112,
       30.4917236
      ],
      [
       -97.6871001,
       30.491745
      ],
      [
       -97.6871307,
       30.4918118
      ],
      [
       -97.6871631,
       30.4918191
      ],
      [
       -97.6874453,
       30.4917303
      ],
      [
       -97.6874615,
       30.4917038
      ]
     ]
    ]
   },
   "properties": {
    "osm_id": 866871800,
    "osm_type": "way",
    "name": "Lasso Drive",
    "display_name": "Lasso Drive, Chisholm Valley, Round Rock, Williamson County, Texas, 78682, United States",
    "feature_type": "playground",
    "region": "round_rock",
    "area_m2": 491.2,
    "open_lat": 30.4917046,
    "open_lon": -97.6872808,
    "open_radius_m": 7.8,
    "source": "openstreetmap_nominatim",
    "licence": "Data (c) OpenStreetMap contributors, ODbL"
   }
  },
  {
   "type": "Feature",
   "geometry": {
    "type": "Polygon",
    "coordinates": [
     [
      [
       -97.6647805,
       30.5437352
      ],
      [
       -97.6647445,
       30.543683
      ],
      [
       -97.6646336,
       30.5436239
      ],
      [
       -97.6645241,
       30.5437184
      ],
      [
       -97.6645554,
       30.5437549
      ],
      [
       -97.6645025,
       30.5438095
      ],
      [
       -97.6645906,
       30.543889
      ],
      [
       -97.6647805,
       30.5437352
      ]
     ]
    ]
   },
   "properties": {
    "osm_id": 928704217,
    "osm_type": "way",
    "name": "Settlement Drive",
    "display_name": "Settlement Drive, The Settlement, Round Rock, Williamson County, Texas, 78665, United States",
    "feature_type": "playground",
    "region": "round_rock",
    "area_m2": 418.0,
    "open_lat": 30.5437275,
    "open_lon": -97.6646463,
    "open_radius_m": 9.0,
    "source": "openstreetmap_nominatim",
    "licence": "Data (c) OpenStreetMap contributors, ODbL"
   }
  },
  {
   "type": "Feature",
   "geometry": {
    "type": "Polygon",
    "coordinates": [
     [
      [
       -97.6885439,
       30.5560582
      ],
      [
       -97.6884878,
       30.556011
      ],
      [
       -97.6883848,
       30.5560435
      ],
      [
       -97.6883922,
       30.5560607
      ],
      [
       -97.6883492,
       30.5560743
      ],
      [
       -97.6883592,
       30.5560977
      ],
      [
       -97.6883288,
       30.5561073
      ],
      [
       -97.6883781,
       30.5562231
      ],
      [
       -97.688326,
       30.5563109
      ],
      [
       -97.6883798,
       30.5563346
      ],
      [
       -97.6885439,
       30.5560582
      ]
     ]
    ]
   },
   "properties": {
    "osm_id": 892097736,
    "osm_type": "way",
    "name": "University Oaks Boulevard",
    "display_name": "University Oaks Boulevard, University Oaks Shopping Center, Round Rock, Williamson County, Texas, 78665, United States",
    "feature_type": "playground",
    "region": "round_rock",
    "area_m2": 365.5,
    "open_lat": 30.5561172,
    "open_lon": -97.6884291,
    "open_radius_m": 6.8,
    "source": "openstreetmap_nominatim",
    "licence": "Data (c) OpenStreetMap contributors, ODbL"
   }
  },
  {
   "type": "Feature",
   "geometry": {
    "type": "Polygon",
    "coordinates": [
     [
      [
       -97.6924298,
       30.5031632
      ],
      [
       -97.6921138,
       30.5031221
      ],
      [
       -97.6921121,
       30.5031552
      ],
      [
       -97.6921138,
       30.5031858
      ],
      [
       -97.6921284,
       30.5032189
      ],
      [
       -97.6921534,
       30.503254
      ],
      [
       -97.6921825,
       30.5032741
      ],
      [
       -97.6922174,
       30.5032901
      ],
      [
       -97.6922564,
       30.5032966
      ],
      [
       -97.6922925,
       30.5032931
      ],
      [
       -97.6923216,
       30.5032871
      ],
      [
       -97.6923443,
       30.5032776
      ],
      [
       -97.6923757,
       30.5032575
      ],
      [
       -97.6923961,
       30.5032405
      ],
      [
       -97.692417,
       30.5032084
      ],
      [
       -97.6924298,
       30.5031632
      ]
     ]
    ]
   },
   "properties": {
    "osm_id": 915292035,
    "osm_type": "way",
    "name": "Round Rock West Drive",
    "display_name": "Round Rock West Drive, Round Rock, Williamson County, Texas, 78680, United States",
    "feature_type": "playground",
    "region": "round_rock",
    "area_m2": 414.2,
    "open_lat": 30.5032179,
    "open_lon": -97.692261,
    "open_radius_m": 8.4,
    "source": "openstreetmap_nominatim",
    "licence": "Data (c) OpenStreetMap contributors, ODbL"
   }
  },
  {
   "type": "Feature",
   "geometry": {
    "type": "Polygon",
    "coordinates": [
     [
      [
       -97.6903097,
       30.4903228
      ],
      [
       -97.6901516,
       30.4902419
      ],
      [
       -97.6900995,
       30.4903928
      ],
      [
       -97.6902191,
       30.4904541
      ],
      [
       -97.6903097,
       30.4903228
      ]
     ]
    ]
   },
   "properties": {
    "osm_id": 866871793,
    "osm_type": "way",
    "name": "Chisholm Valley Drive",
    "display_name": "Chisholm Valley Drive, Chisholm Valley, Round Rock, Williamson County, Texas, 78682, United States",
    "feature_type": "playground",
    "region": "round_rock",
    "area_m2": 262.9,
    "open_lat": 30.4903579,
    "open_lon": -97.6901931,
    "open_radius_m": 7.5,
    "source": "openstreetmap_nominatim",
    "licence": "Data (c) OpenStreetMap contributors, ODbL"
   }
  },
  {
   "type": "Feature",
   "geometry": {
    "type": "Polygon",
    "coordinates": [
     [
      [
       -97.6226047,
       30.498261
      ],
      [
       -97.6225941,
       30.4980536
      ],
      [
       -97.622403,
       30.4980567
      ],
      [
       -97.6224065,
       30.498264
      ],
      [
       -97.6226047,
       30.498261
      ]
     ]
    ]
   },
   "properties": {
    "osm_id": 386569170,
    "osm_type": "way",
    "name": "Via Sonoma Trail",
    "display_name": "Via Sonoma Trail, Lake Forest, Round Rock, Williamson County, Texas, 78664, United States",
    "feature_type": "playground",
    "region": "round_rock",
    "area_m2": 430.5,
    "open_lat": 30.4981588,
    "open_lon": -97.6225021,
    "open_radius_m": 9.3,
    "source": "openstreetmap_nominatim",
    "licence": "Data (c) OpenStreetMap contributors, ODbL"
   }
  },
  {
   "type": "Feature",
   "geometry": {
    "type": "Polygon",
    "coordinates": [
     [
      [
       -97.6709639,
       30.5215479
      ],
      [
       -97.6709476,
       30.5215408
      ],
      [
       -97.6708795,
       30.5215402
      ],
      [
       -97.6708775,
       30.521445
      ],
      [
       -97.6707783,
       30.521443
      ],
      [
       -97.6707802,
       30.5216548
      ],
      [
       -97.6707966,
       30.5216619
      ],
      [
       -97.6708328,
       30.5216609
      ],
      [
       -97.6709239,
       30.521633
      ],
      [
       -97.6709523,
       30.5216166
      ],
      [
       -97.6709616,
       30.5215885
      ],
      [
       -97.6709639,
       30.5215479
      ]
     ]
    ]
   },
   "properties": {
    "osm_id": 1228660678,
    "osm_type": "way",
    "name": "Georgetown Street",
    "display_name": "Georgetown Street, Round Rock, Williamson County, Texas, 78680, United States",
    "feature_type": "playground",
    "region": "round_rock",
    "area_m2": 305.5,
    "open_lat": 30.5215935,
    "open_lon": -97.6708552,
    "open_radius_m": 6.3,
    "source": "openstreetmap_nominatim",
    "licence": "Data (c) OpenStreetMap contributors, ODbL"
   }
  }
 ]
}
