{
 "type": "FeatureCollection",
 "features": [
  {
   "type": "Feature",
   "geometry": {
    "type": "Polygon",
    "coordinates": [
     [
      [
       -97.6655326,
       30.4394486
      ],
      [
       -97.6649608,
       30.4391605
      ],
      [
       -97.6647731,
       30.439107
      ],
      [
       -97.6648061,
       30.4390583
      ],
      [
       -97.6640447,
       30.4386767
      ],
      [
       -97.6638241,
       30.4386369
      ],
      [
       -97.6631819,
       30.4387975
      ],
      [
       -97.6631089,
       30.4388939
      ],
      [
       -97.6628601,
       30.4387815
      ],
      [
       -97.6623462,
       30.4396592
      ],
      [
       -97.662369,
       30.4396705
      ],
      [
       -97.6622627,
       30.4398406
      ],
      [
       -97.6624752,
       30.4399406
      ],
      [
       -97.6624124,
       30.4400518
      ],
      [
       -97.6634763,
       30.4405442
      ],
      [
       -97.6640208,
       30.4404118
      ],
      [
       -97.6641738,
       30.4404903
      ],
      [
       -97.664284,
       30.440317
      ],
      [
       -97.6642296,
       30.4402927
      ],
      [
       -97.6642925,
       30.4401851
      ],
      [
       -97.6643075,
       30.4401689
      ],
      [
       -97.6643413,
       30.4401503
      ],
      [
       -97.6643713,
       30.4401463
      ],
      [
       -97.6644014,
       30.4401552
      ],
      [
       -97.6644286,
       30.4401713
      ],
      [
       -97.6644014,
       30.4402199
      ],
      [
       -97.6648495,
       30.4404306
      ],
      [
       -97.6648876,
       30.4403688
      ],
      [
       -97.6649475,
       30.4403959
      ],
      [
       -97.6655326,
       30.4394486
      ]
     ],
     [
      [
       -97.6652463,
       30.4394406
      ],
      [
       -97.6648217,
       30.4401118
      ],
      [
       -97.6649134,
       30.4401527
      ],
      [
       -97.6648604,
       30.4402387
      ],
      [
       -97.6644506,
       30.4400472
      ],
      [
       -97.6648768,
       30.4393715
      ],
      [
       -97.6648246,
       30.4393445
      ],
      [
       -97.6648693,
       30.4392764
      ],
      [
       -97.6648872,
       30.4392597
      ],
      [
       -97.6649334,
       30.439243
      ],
      [
       -97.6649692,
       30.4392469
      ],
      [
       -97.664999,
       30.439261
      ],
      [
       -97.6649692,
       30.4393098
      ],
      [
       -97.6652463,
       30.4394406
      ]
     ],
     [
      [
       -97.6647505,
       30.4392382
      ],
      [
       -97.6644324,
       30.4397338
      ],
      [
       -97.6642816,
       30.4399662
      ],
      [
       -97.6641079,
       30.4402393
      ],
      [
       -97.6640734,
       30.4402845
      ],
      [
       -97.6640032,
       30.4400587
      ],
      [
       -97.6632431,
       30.4402493
      ],
      [
       -97.6624307,
       30.4398671
      ],
      [
       -97.6626721,
       30.4394695
      ],
      [
       -97.662957,
       30.4390202
      ],
      [
       -97.6632342,
       30.4391413
      ],
      [
       -97.6640939,
       30.4389266
      ],
      [
       -97.6647505,
       30.4392382
      ]
     ]
    ]
   },
   "properties": {
    "osm_id": 19302225,
    "osm_type": "relation",
    "name": "Wells Branch Parkway",
    "display_name": "Wells Branch Parkway, Austin, Travis County, Texas, 78728, United States",
    "feature_type": "parking_lot",
    "region": "wells_branch",
    "area_m2": 19131.2,
    "open_lat": 30.4389232,
    "open_lon": -97.6633931,
    "open_radius_m": 19.1,
    "source": "openstreetmap_nominatim",
    "licence": "Data (c) OpenStreetMap contributors, ODbL",
    "verified_lat": 30.4389232,
    "verified_lon": -97.6632839,
    "nearest_feature": "amenity/parking Wells Branch Parkway, Austin, Travis Cou at 207 m",
    "anchor_clearance_score_m": 197.3,
    "open_ground_verified": true
   }
  },
  {
   "type": "Feature",
   "geometry": {
    "type": "Polygon",
    "coordinates": [
     [
      [
       -97.6628792,
       30.415015
      ],
      [
       -97.6622402,
       30.4149842
      ],
      [
       -97.6622204,
       30.4153505
      ],
      [
       -97.6620695,
       30.4158022
      ],
      [
       -97.6617957,
       30.4163362
      ],
      [
       -97.661629,
       30.4166545
      ],
      [
       -97.6614702,
       30.4168975
      ],
      [
       -97.6620298,
       30.4171542
      ],
      [
       -97.6624069,
       30.4165158
      ],
      [
       -97.6627184,
       30.4158681
      ],
      [
       -97.6628464,
       30.4154142
      ],
      [
       -97.6628792,
       30.415015
      ]
     ]
    ]
   },
   "properties": {
    "osm_id": 894769686,
    "osm_type": "way",
    "name": "McCallen Pass",
    "display_name": "McCallen Pass, Austin, Travis County, Texas, 78753, United States",
    "feature_type": "parking_lot",
    "region": "wells_branch",
    "area_m2": 14636.9,
    "open_lat": 30.4163871,
    "open_lon": -97.6621207,
    "open_radius_m": 30.8,
    "source": "openstreetmap_nominatim",
    "licence": "Data (c) OpenStreetMap contributors, ODbL",
    "verified_lat": 30.4165396,
    "verified_lon": -97.6621207,
    "nearest_feature": "amenity/parking McCallen Pass, Austin, Travis County, Te at 50 m",
    "anchor_clearance_score_m": 40.5,
    "open_ground_verified": true
   }
  },
  {
   "type": "Feature",
   "geometry": {
    "type": "Polygon",
    "coordinates": [
     [
      [
       -97.6752068,
       30.4146173
      ],
      [
       -97.6740342,
       30.4143562
      ],
      [
       -97.6738731,
       30.4147436
      ],
      [
       -97.6736658,
       30.4159408
      ],
      [
       -97.6746696,
       30.4161691
      ],
      [
       -97.6748819,
       30.4156237
      ],
      [
       -97.6750455,
       30.415134
      ],
      [
       -97.6752068,
       30.4146173
      ]
     ]
    ]
   },
   "properties": {
    "osm_id": 895746979,
    "osm_type": "way",
    "name": "North Interstate 35",
    "display_name": "North Interstate 35, Austin, Travis County, Texas, 78753, United States",
    "feature_type": "parking_lot",
    "region": "wells_branch",
    "area_m2": 20212.8,
    "open_lat": 30.4150113,
    "open_lon": -97.6744486,
    "open_radius_m": 58.8,
    "source": "openstreetmap_nominatim",
    "licence": "Data (c) OpenStreetMap contributors, ODbL",
    "verified_lat": 30.4147201,
    "verified_lon": -97.6744486,
    "nearest_feature": "place/house 13000, North Interstate 35, Austin, Trav at 97 m",
    "anchor_clearance_score_m": 62.0,
    "open_ground_verified": true
   }
  },
  {
   "type": "Feature",
   "geometry": {
    "type": "Polygon",
    "coordinates": [
     [
      [
       -97.6900032,
       30.4425899
      ],
      [
       -97.6899925,
       30.4420511
      ],
      [
       -97.6897484,
       30.4420396
      ],
      [
       -97.6894381,
       30.4420373
      ],
      [
       -97.68944,
       30.4419818
      ],
      [
       -97.689102,
       30.4419563
      ],
      [
       -97.6887612,
       30.4419314
      ],
      [
       -97.6886915,
       30.4423268
      ],
      [
       -97.6886943,
       30.4428119
      ],
      [
       -97.6887077,
       30.4435404
      ],
      [
       -97.688941,
       30.4435362
      ],
      [
       -97.6893406,
       30.4435362
      ],
      [
       -97.6894774,
       30.4435084
      ],
      [
       -97.6896947,
       30.4434044
      ],
      [
       -97.6898262,
       30.4433045
      ],
      [
       -97.6899872,
       30.4430547
      ],
      [
       -97.6897912,
       30.4429812
      ],
      [
       -97.6896572,
       30.4431819
      ],
      [
       -97.6890564,
       30.4431773
      ],
      [
       -97.6890537,
       30.4428443
      ],
      [
       -97.6890564,
       30.442472
      ],
      [
       -97.6890618,
       30.4421436
      ],
      [
       -97.6892923,
       30.4421649
      ],
      [
       -97.68955,
       30.442183
      ],
      [
       -97.6898155,
       30.4421737
      ],
      [
       -97.6898235,
       30.442472
      ],
      [
       -97.6896607,
       30.4424684
      ],
      [
       -97.6896626,
       30.4428536
      ],
      [
       -97.6900018,
       30.4428577
      ],
      [
       -97.6900032,
       30.4425899
      ]
     ]
    ]
   },
   "properties": {
    "osm_id": 169746452,
    "osm_type": "way",
    "name": "Double File Trail",
    "display_name": "Double File Trail, Wells Branch, Travis County, Texas, 78728, United States",
    "feature_type": "parking_lot",
    "region": "wells_branch",
    "area_m2": 12488.2,
    "open_lat": 30.4433456,
    "open_lon": -97.6889325,
    "open_radius_m": 21.2,
    "source": "openstreetmap_nominatim",
    "licence": "Data (c) OpenStreetMap contributors, ODbL",
    "verified_lat": 30.4434505,
    "verified_lon": -97.6889325,
    "nearest_feature": "amenity/parking Double File Trail, Wells Branch, Travis  at 84 m",
    "anchor_clearance_score_m": 73.5,
    "open_ground_verified": true
   }
  },
  {
   "type": "Feature",
   "geometry": {
    "type": "Polygon",
    "coordinates": [
     [
      [
       -97.6698964,
       30.4487112
      ],
      [
       -97.6697925,
       30.4486606
      ],
      [
       -97.6696141,
       30.4489324
      ],
      [
       -97.6694563,
       30.4488555
      ],
      [
       -97.6697169,
       30.4484586
      ],
      [
       -97.6697986,
       30.4484985
      ],
      [
       -97.6698511,
       30.4484185
      ],
      [
       -97.6698022,
       30.4483947
      ],
      [
       -97.6696886,
       30.4483393
      ],
      [
       -97.6690213,
       30.4493564
      ],
      [
       -97.6693636,
       30.4495233
      ],
      [
       -97.6698964,
       30.4487112
      ]
     ]
    ]
   },
   "properties": {
    "osm_id": 1318830766,
    "osm_type": "way",
    "name": "Marsha Street",
    "display_name": "Marsha Street, Wells Branch, Travis County, Texas, 78728, United States",
    "feature_type": "parking_lot",
    "region": "wells_branch",
    "area_m2": 3634.2,
    "open_lat": 30.449181,
    "open_lon": -97.6693624,
    "open_radius_m": 18.8,
    "source": "openstreetmap_nominatim",
    "licence": "Data (c) OpenStreetMap contributors, ODbL",
    "verified_lat": 30.4492743,
    "verified_lon": -97.6693624,
    "nearest_feature": "amenity/parking Marsha Street, Wells Branch, Travis Coun at 43 m",
    "anchor_clearance_score_m": 32.8,
    "open_ground_verified": true
   }
  },
  {
   "type": "Feature",
   "geometry": {
    "type": "Polygon",
    "coordinates": [
     [
      [
       -97.6833209,
       30.4207079
      ],
      [
       -97.6831877,
       30.4206558
      ],
      [
       -97.6831572,
       30.4205871
      ],
      [
       -97.6831093,
       30.4208227
      ],
      [
       -97.6829943,
       30.4208052
      ],
      [
       -97.6831242,
       30.4205123
      ],
      [
       -97.6829695,
       30.4201632
      ],
      [
       -97.6831595,
       30.4201736
      ],
      [
       -97.6828307,
       30.419518
      ],
      [
       -97.6819087,
       30.4189265
      ],
      [
       -97.6816725,
       30.418791
      ],
      [
       -97.681571,
       30.4186354
      ],
      [
       -97.6815431,
       30.418526
      ],
      [
       -97.6813257,
       30.4185675
      ],
      [
       -97.6810649,
       30.4175433
      ],
      [
       -97.6812822,
       30.4175017
      ],
      [
       -97.681188,
       30.4171322
      ],
      [
       -97.6811937,
       30.4167782
      ],
      [
       -97.6814089,
       30.4164312
      ],
      [
       -97.6817568,
       30.4165933
      ],
      [
       -97.6818527,
       30.4164323
      ],
      [
       -97.6825943,
       30.4152294
      ],
      [
       -97.6822167,
       30.4150686
      ],
      [
       -97.6814199,
       30.4150808
      ],
      [
       -97.6811034,
       30.4157129
      ],
      [
       -97.6808287,
       30.415629
      ],
      [
       -97.6805948,
       30.4155575
      ],
      [
       -97.6809504,
       30.4148472
      ],
      [
       -97.680475,
       30.4148521
      ],
      [
       -97.680192,
       30.414855
      ],
      [
       -97.6801668,
       30.4149998
      ],
      [
       -97.6793331,
       30.415982
      ],
      [
       -97.6795252,
       30.4166902
      ],
      [
       -97.6794121,
       30.4166613
      ],
      [
       -97.6791119,
       30.4169818
      ],
      [
       -97.678861,
       30.4175738
      ],
      [
       -97.679215,
       30.4176117
      ],
      [
       -97.6792353,
       30.4175841
      ],
      [
       -97.6792665,
       30.417589
      ],
      [
       -97.6792951,
       30.4174509
      ],
      [
       -97.67942,
       30.4174703
      ],
      [
       -97.6794899,
       30.4171319
      ],
      [
       -97.6796407,
       30.4169794
      ],
      [
       -97.6798843,
       30.4170172
      ],
      [
       -97.6796414,
       30.4176866
      ],
      [
       -97.6797095,
       30.4177071
      ],
      [
       -97.6796982,
       30.4177622
      ],
      [
       -97.680325,
       30.417951
      ],
      [
       -97.6805063,
       30.4180057
      ],
      [
       -97.6806966,
       30.418063
      ],
      [
       -97.6808133,
       30.4187151
      ],
      [
       -97.6809903,
       30.4189093
      ],
      [
       -97.6811173,
       30.4189658
      ],
      [
       -97.6814395,
       30.4192947
      ],
      [
       -97.6815798,
       30.419419
      ],
      [
       -97.6818797,
       30.4195121
      ],
      [
       -97.6821514,
       30.4196643
      ],
      [
       -97.6825373,
       30.4201892
      ],
      [
       -97.6825582,
       30.420378
      ],
      [
       -97.6825736,
       30.4205177
      ],
      [
       -97.6826561,
       30.4206964
      ],
      [
       -97.6831112,
       30.4209594
      ],
      [
       -97.6832059,
       30.4209284
      ],
      [
       -97.6833209,
       30.4207079
      ]
     ]
    ]
   },
   "properties": {
    "osm_id": 1196118428,
    "osm_type": "way",
    "name": "Scofield Farms Neighborhood Park",
    "display_name": "Scofield Farms Neighborhood Park, 12901, Austin, Travis County, Texas, 78727, United States",
    "feature_type": "park",
    "region": "wells_branch",
    "area_m2": 86762.5,
    "open_lat": 30.4163514,
    "open_lon": -97.6804,
    "open_radius_m": 89.0,
    "source": "openstreetmap_nominatim",
    "licence": "Data (c) OpenStreetMap contributors, ODbL",
    "verified_lat": 30.416792,
    "verified_lon": -97.6804,
    "nearest_feature": "highway/footway Scofield Farms Neighborhood Park Trail at 33 m",
    "anchor_clearance_score_m": 13.2,
    "open_ground_verified": false
   }
  },
  {
   "type": "Feature",
   "geometry": {
    "type": "Polygon",
    "coordinates": [
     [
      [
       -97.6425709,
       30.4585713
      ],
      [
       -97.6425384,
       30.4584189
      ],
      [
       -97.6424611,
       30.458291
      ],
      [
       -97.6424286,
       30.4582209
      ],
      [
       -97.642453,
       30.4580825
      ],
      [
       -97.6424774,
       30.4579773
      ],
      [
       -97.642457,
       30.4577934
      ],
      [
       -97.6424042,
       30.4576321
      ],
      [
       -97.6422741,
       30.4574534
      ],
      [
       -97.6420952,
       30.4573273
      ],
      [
       -97.6418188,
       30.4572396
      ],
      [
       -97.6410068,
       30.4570655
      ],
      [
       -97.6408811,
       30.4574621
      ],
      [
       -97.6408988,
       30.4575323
      ],
      [
       -97.6407537,
       30.4577413
      ],
      [
       -97.6406767,
       30.4578561
      ],
      [
       -97.6407187,
       30.4579046
      ],
      [
       -97.6411029,
       30.4580746
      ],
      [
       -97.6424977,
       30.4587536
      ],
      [
       -97.6425587,
       30.4587763
      ],
      [
       -97.6425709,
       30.4585713
      ]
     ]
    ]
   },
   "properties": {
    "osm_id": 1217151543,
    "osm_type": "way",
    "name": "Windermere Park",
    "display_name": "Windermere Park, 16800, Pflugerville, Travis County, Texas, 78660, United States",
    "feature_type": "park",
    "region": "wells_branch",
    "area_m2": 19196.5,
    "open_lat": 30.4578006,
    "open_lon": -97.6417941,
    "open_radius_m": 59.0,
    "source": "openstreetmap_nominatim",
    "licence": "Data (c) OpenStreetMap contributors, ODbL",
    "verified_lat": 30.4578006,
    "verified_lon": -97.6417941,
    "nearest_feature": "leisure/swimming_pool Windermere Pool at 27 m",
    "anchor_clearance_score_m": 11.7,
    "open_ground_verified": false
   }
  },
  {
   "type": "Feature",
   "geometry": {
    "type": "Polygon",
    "coordinates": [
     [
      [
       -97.6811621,
       30.4429921
      ],
      [
       -97.6811069,
       30.4426964
      ],
      [
       -97.6808932,
       30.442169
      ],
      [
       -97.6808714,
       30.4421232
      ],
      [
       -97.6808244,
       30.4420984
      ],
      [
       -97.6803071,
       30.4422613
      ],
      [
       -97.6800437,
       30.4422998
      ],
      [
       -97.6796771,
       30.4422471
      ],
      [
       -97.6794093,
       30.442109
      ],
      [
       -97.6792148,
       30.441927
      ],
      [
       -97.6791259,
       30.441821
      ],
      [
       -97.6790431,
       30.4416783
      ],
      [
       -97.6788427,
       30.4410335
      ],
      [
       -97.6788357,
       30.4410409
      ],
      [
       -97.6787725,
       30.4410689
      ],
      [
       -97.6779844,
       30.4416812
      ],
      [
       -97.677448,
       30.4416858
      ],
      [
       -97.676874,
       30.4416118
      ],
      [
       -97.6757159,
       30.4409757
      ],
      [
       -97.675412,
       30.441435
      ],
      [
       -97.6757636,
       30.4415979
      ],
      [
       -97.6761407,
       30.4418528
      ],
      [
       -97.6765146,
       30.4422223
      ],
      [
       -97.6769507,
       30.4423476
      ],
      [
       -97.6778235,
       30.4427079
      ],
      [
       -97.6785152,
       30.4431889
      ],
      [
       -97.67888,
       30.4436606
      ],
      [
       -97.6792842,
       30.4444889
      ],
      [
       -97.6797383,
       30.4448351
      ],
      [
       -97.6804961,
       30.4441659
      ],
      [
       -97.6807654,
       30.4439247
      ],
      [
       -97.6809727,
       30.4436616
      ],
      [
       -97.6810669,
       30.4434658
      ],
      [
       -97.6811368,
       30.4432407
      ],
      [
       -97.6811621,
       30.4429921
      ]
     ]
    ]
   },
   "properties": {
    "osm_id": 161313942,
    "osm_type": "way",
    "name": "Katherine Fleischer Park",
    "display_name": "Katherine Fleischer Park, Wells Branch, Travis County, Texas, United States",
    "feature_type": "park",
    "region": "wells_branch",
    "area_m2": 88749.0,
    "open_lat": 30.4432691,
    "open_lon": -97.6799099,
    "open_radius_m": 108.0,
    "source": "openstreetmap_nominatim",
    "licence": "Data (c) OpenStreetMap contributors, ODbL",
    "verified_lat": 30.4432691,
    "verified_lon": -97.679291,
    "nearest_feature": "leisure/pitch Alpha Collier Drive, Wells Branch, Travi at 67 m",
    "anchor_clearance_score_m": 52.2,
    "open_ground_verified": true
   }
  },
  {
   "type": "Feature",
   "geometry": {
    "type": "Polygon",
    "coordinates": [
     [
      [
       -97.6745582,
       30.4513942
      ],
      [
       -97.6736678,
       30.4509491
      ],
      [
       -97.673054,
       30.4519584
      ],
      [
       -97.6738955,
       30.4523755
      ],
      [
       -97.6739331,
       30.4529577
      ],
      [
       -97.6740657,
       30.4529452
      ],
      [
       -97.6741622,
       30.4529412
      ],
      [
       -97.6741557,
       30.4520566
      ],
      [
       -97.6745582,
       30.4513942
      ]
     ]
    ]
   },
   "properties": {
    "osm_id": 690525548,
    "osm_type": "way",
    "name": "Vista Park",
    "display_name": "Vista Park, 15419, Wells Branch, Travis County, Texas, 78728, United States",
    "feature_type": "park",
    "region": "wells_branch",
    "area_m2": 14310.0,
    "open_lat": 30.4516317,
    "open_lon": -97.6738334,
    "open_radius_m": 49.3,
    "source": "openstreetmap_nominatim",
    "licence": "Data (c) OpenStreetMap contributors, ODbL",
    "verified_lat": 30.4518758,
    "verified_lon": -97.6738334,
    "nearest_feature": "leisure/pitch Iceberg Lane, Wells Branch, Travis Count at 71 m",
    "anchor_clearance_score_m": 55.7,
    "open_ground_verified": true
   }
  },
  {
   "type": "Feature",
   "geometry": {
    "type": "Polygon",
    "coordinates": [
     [
      [
       -97.6463692,
       30.4179273
      ],
      [
       -97.6454311,
       30.4176803
      ],
      [
       -97.6451276,
       30.4175276
      ],
      [
       -97.6450807,
       30.4172064
      ],
      [
       -97.6445316,
       30.4172041
      ],
      [
       -97.6440422,
       30.4173267
      ],
      [
       -97.6439966,
       30.4172955
      ],
      [
       -97.6438088,
       30.4170411
      ],
      [
       -97.6436509,
       30.4169324
      ],
      [
       -97.6435191,
       30.41693
      ],
      [
       -97.6433314,
       30.4168606
      ],
      [
       -97.6430846,
       30.4166987
      ],
      [
       -97.6428379,
       30.4166085
      ],
      [
       -97.6425589,
       30.4166895
      ],
      [
       -97.642237,
       30.4166224
      ],
      [
       -97.6420761,
       30.4164998
      ],
      [
       -97.6416175,
       30.4159655
      ],
      [
       -97.6415521,
       30.4151805
      ],
      [
       -97.6410683,
       30.414562
      ],
      [
       -97.6399987,
       30.4136952
      ],
      [
       -97.6398376,
       30.4130862
      ],
      [
       -97.6386967,
       30.4150123
      ],
      [
       -97.6385751,
       30.4152167
      ],
      [
       -97.6380757,
       30.415684
      ],
      [
       -97.6377117,
       30.4160108
      ],
      [
       -97.6382687,
       30.4165192
      ],
      [
       -97.639346,
       30.4172869
      ],
      [
       -97.6395615,
       30.4175534
      ],
      [
       -97.6396103,
       30.4176586
      ],
      [
       -97.6396265,
       30.4178339
      ],
      [
       -97.6396184,
       30.4179881
      ],
      [
       -97.6395656,
       30.4181774
      ],
      [
       -97.6393785,
       30.4184474
      ],
      [
       -97.6396794,
       30.4187805
      ],
      [
       -97.6400981,
       30.4189838
      ],
      [
       -97.6408706,
       30.4186332
      ],
      [
       -97.6409966,
       30.419096
      ],
      [
       -97.6410413,
       30.4191486
      ],
      [
       -97.6410454,
       30.4192117
      ],
      [
       -97.6411592,
       30.4194395
      ],
      [
       -97.6414316,
       30.4197831
      ],
      [
       -97.6415251,
       30.4199584
      ],
      [
       -97.6415576,
       30.4201828
      ],
      [
       -97.6415861,
       30.4203826
      ],
      [
       -97.6416999,
       30.4208278
      ],
      [
       -97.6419073,
       30.4212801
      ],
      [
       -97.6423737,
       30.4219254
      ],
      [
       -97.6426167,
       30.422238
      ],
      [
       -97.6426631,
       30.4223017
      ],
      [
       -97.6427796,
       30.4225029
      ],
      [
       -97.6429158,
       30.4228354
      ],
      [
       -97.6429552,
       30.4229448
      ],
      [
       -97.6430747,
       30.4232613
      ],
      [
       -97.6431117,
       30.4234055
      ],
      [
       -97.6431269,
       30.4235167
      ],
      [
       -97.6431253,
       30.4236887
      ],
      [
       -97.6431004,
       30.4239689
      ],
      [
       -97.6430922,
       30.4240383
      ],
      [
       -97.643009,
       30.424281
      ],
      [
       -97.6429739,
       30.4243626
      ],
      [
       -97.6429074,
       30.4245123
      ],
      [
       -97.6428704,
       30.424605
      ],
      [
       -97.6428204,
       30.424794
      ],
      [
       -97.6428133,
       30.4248161
      ],
      [
       -97.6428545,
       30.4249085
      ],
      [
       -97.6428342,
       30.4249891
      ],
      [
       -97.6428612,
       30.4250557
      ],
      [
       -97.6428708,
       30.4251784
      ],
      [
       -97.6428301,
       30.4254168
      ],
      [
       -97.6432692,
       30.4256236
      ],
      [
       -97.6433383,
       30.4257288
      ],
      [
       -97.6434643,
       30.4260022
      ],
      [
       -97.6435741,
       30.4261845
      ],
      [
       -97.6438515,
       30.4257195
      ],
      [
       -97.6447213,
       30.4243871
      ],
      [
       -97.6445718,
       30.4240166
      ],
      [
       -97.6445905,
       30.4239079
      ],
      [
       -97.6446068,
       30.4238112
      ],
      [
       -97.6445625,
       30.4237246
      ],
      [
       -97.644392,
       30.4235293
      ],
      [
       -97.6442683,
       30.4234065
      ],
      [
       -97.6442076,
       30.4232615
      ],
      [
       -97.6441865,
       30.4231387
      ],
      [
       -97.6441375,
       30.4229635
      ],
      [
       -97.6441142,
       30.4228407
      ],
      [
       -97.6441959,
       30.4226394
      ],
      [
       -97.6442706,
       30.422579
      ],
      [
       -97.6445816,
       30.4224066
      ],
      [
       -97.6445109,
       30.4222867
      ],
      [
       -97.6444537,
       30.4221634
      ],
      [
       -97.6442073,
       30.4212286
      ],
      [
       -97.6441855,
       30.4209978
      ],
      [
       -97.6441979,
       30.4208201
      ],
      [
       -97.6442368,
       30.4206432
      ],
      [
       -97.6443243,
       30.4204098
      ],
      [
       -97.6444333,
       30.4202427
      ],
      [
       -97.6445396,
       30.4201112
      ],
      [
       -97.6447527,
       30.4199217
      ],
      [
       -97.6450737,
       30.4197285
      ],
      [
       -97.6452293,
       30.4196213
      ],
      [
       -97.6453414,
       30.4195272
      ],
      [
       -97.645441,
       30.4194307
      ],
      [
       -97.6455371,
       30.4192955
      ],
      [
       -97.6456466,
       30.419126
      ],
      [
       -97.6457321,
       30.4189996
      ],
      [
       -97.6458139,
       30.4188755
      ],
      [
       -97.6459567,
       30.4186465
      ],
      [
       -97.6461781,
       30.418307
      ],
      [
       -97.6463253,
       30.4180533
      ],
      [
       -97.6463692,
       30.4179273
      ]
     ]
    ]
   },
   "properties": {
    "osm_id": 444061751,
    "osm_type": "way",
    "name": "Stoney Creek Park",
    "display_name": "Stoney Creek Park, Austin, Travis County, Texas, United States",
    "feature_type": "park",
    "region": "wells_branch",
    "area_m2": 385901.4,
    "open_lat": 30.4188711,
    "open_lon": -97.6431399,
    "open_radius_m": 192.2,
    "source": "openstreetmap_nominatim",
    "licence": "Data (c) OpenStreetMap contributors, ODbL",
    "verified_lat": 30.4179196,
    "verified_lon": -97.6431399,
    "nearest_feature": "leisure/playground Maricella Lane, Northtown Park, Travis C at 128 m",
    "anchor_clearance_score_m": 112.6,
    "open_ground_verified": true
   }
  },
  {
   "type": "Feature",
   "geometry": {
    "type": "Polygon",
    "coordinates": [
     [
      [
       -97.6818709,
       30.4553793
      ],
      [
       -97.6812558,
       30.4550552
      ],
      [
       -97.6805607,
       30.4543385
      ],
      [
       -97.67997,
       30.4546481
      ],
      [
       -97.6797574,
       30.4547856
      ],
      [
       -97.6794819,
       30.4550296
      ],
      [
       -97.679329,
       30.4552147
      ],
      [
       -97.6793075,
       30.455259
      ],
      [
       -97.6793206,
       30.4552989
      ],
      [
       -97.6793511,
       30.4553241
      ],
      [
       -97.6804465,
       30.4558451
      ],
      [
       -97.6806378,
       30.4559067
      ],
      [
       -97.6808334,
       30.4559482
      ],
      [
       -97.6816575,
       30.4559872
      ],
      [
       -97.6816587,
       30.4559655
      ],
      [
       -97.681677,
       30.4556175
      ],
      [
       -97.6818709,
       30.4553793
      ]
     ]
    ]
   },
   "properties": {
    "osm_id": 585195771,
    "osm_type": "way",
    "name": "Willow Bend Park",
    "display_name": "Willow Bend Park, 2801, Austin, Travis County, Texas, 78728, United States",
    "feature_type": "park",
    "region": "wells_branch",
    "area_m2": 25067.0,
    "open_lat": 30.4551326,
    "open_lon": -97.680414,
    "open_radius_m": 67.5,
    "source": "openstreetmap_nominatim",
    "licence": "Data (c) OpenStreetMap contributors, ODbL",
    "verified_lat": 30.4551326,
    "verified_lon": -97.6808006,
    "nearest_feature": "amenity/parking Sauls Drive, Jack's Pond, Travis County, at 43 m",
    "anchor_clearance_score_m": 32.7,
    "open_ground_verified": true
   }
  },
  {
   "type": "Feature",
   "geometry": {
    "type": "Polygon",
    "coordinates": [
     [
      [
       -97.6579951,
       30.4443261
      ],
      [
       -97.6579613,
       30.4441704
      ],
      [
       -97.6578845,
       30.4440163
      ],
      [
       -97.6578099,
       30.4439172
      ],
      [
       -97.6577339,
       30.443844
      ],
      [
       -97.6576415,
       30.4437728
      ],
      [
       -97.6575004,
       30.4436963
      ],
      [
       -97.6573693,
       30.4436509
      ],
      [
       -97.6573204,
       30.4436401
      ],
      [
       -97.6572789,
       30.4436488
      ],
      [
       -97.6572566,
       30.4436847
      ],
      [
       -97.6571312,
       30.444887
      ],
      [
       -97.6571318,
       30.4449075
      ],
      [
       -97.6571492,
       30.4449289
      ],
      [
       -97.6571805,
       30.4449381
      ],
      [
       -97.6575584,
       30.4449677
      ],
      [
       -97.6578825,
       30.4449918
      ],
      [
       -97.6579232,
       30.4449798
      ],
      [
       -97.6579349,
       30.4449516
      ],
      [
       -97.6579944,
       30.4444213
      ],
      [
       -97.6579951,
       30.4443261
      ]
     ]
    ]
   },
   "properties": {
    "osm_id": 553879428,
    "osm_type": "way",
    "name": "Sarah's Creek HOA Park",
    "display_name": "Sarah's Creek HOA Park, 15305, Pflugerville, Travis County, Texas, 78660, United States",
    "feature_type": "park",
    "region": "wells_branch",
    "area_m2": 9743.1,
    "open_lat": 30.4444691,
    "open_lon": -97.6575815,
    "open_radius_m": 38.9,
    "source": "openstreetmap_nominatim",
    "licence": "Data (c) OpenStreetMap contributors, ODbL",
    "verified_lat": 30.4446615,
    "verified_lon": -97.6575815,
    "nearest_feature": "building/yes 1226, Coaches Crossing, Spring Hill Vill at 61 m",
    "anchor_clearance_score_m": 25.5,
    "open_ground_verified": true
   }
  },
  {
   "type": "Feature",
   "geometry": {
    "type": "Polygon",
    "coordinates": [
     [
      [
       -97.6858585,
       30.4246369
      ],
      [
       -97.6853747,
       30.4243933
      ],
      [
       -97.6855372,
       30.4241029
      ],
      [
       -97.685456,
       30.4240628
      ],
      [
       -97.6853243,
       30.4239326
      ],
      [
       -97.6850611,
       30.4233785
      ],
      [
       -97.6847398,
       30.4234686
      ],
      [
       -97.6846353,
       30.4233952
      ],
      [
       -97.6844669,
       30.4230597
      ],
      [
       -97.6842569,
       30.4225762
      ],
      [
       -97.6841244,
       30.4225808
      ],
      [
       -97.6839773,
       30.4223872
      ],
      [
       -97.6838882,
       30.4217362
      ],
      [
       -97.6838263,
       30.4216862
      ],
      [
       -97.6842018,
       30.4209718
      ],
      [
       -97.6837144,
       30.4208208
      ],
      [
       -97.6834082,
       30.4215093
      ],
      [
       -97.6835127,
       30.4220834
      ],
      [
       -97.6835147,
       30.4224239
      ],
      [
       -97.6834121,
       30.4225073
      ],
      [
       -97.6837721,
       30.423225
      ],
      [
       -97.6841089,
       30.4236422
      ],
      [
       -97.6841166,
       30.4238625
      ],
      [
       -97.6843063,
       30.4253679
      ],
      [
       -97.6847526,
       30.4251949
      ],
      [
       -97.6850727,
       30.4250708
      ],
      [
       -97.6850224,
       30.4250508
      ],
      [
       -97.6849798,
       30.424964
      ],
      [
       -97.6849643,
       30.4248939
      ],
      [
       -97.6850108,
       30.4248172
      ],
      [
       -97.6851114,
       30.4247871
      ],
      [
       -97.6852198,
       30.4247971
      ],
      [
       -97.6852895,
       30.4248672
      ],
      [
       -97.6858585,
       30.4246369
      ]
     ]
    ]
   },
   "properties": {
    "osm_id": 585551957,
    "osm_type": "way",
    "name": "Wells Creek Greenbelt",
    "display_name": "Wells Creek Greenbelt, 13120, Austin, Travis County, Texas, 78727, United States",
    "feature_type": "park",
    "region": "wells_branch",
    "area_m2": 37949.9,
    "open_lat": 30.4242045,
    "open_lon": -97.6847876,
    "open_radius_m": 59.7,
    "source": "openstreetmap_nominatim",
    "licence": "Data (c) OpenStreetMap contributors, ODbL",
    "verified_lat": 30.4242045,
    "verified_lon": -97.6847876,
    "nearest_feature": "building/yes 1811, Magazine Street, Scofield Farms, A at 90 m",
    "anchor_clearance_score_m": 54.9,
    "open_ground_verified": true
   }
  },
  {
   "type": "Feature",
   "geometry": {
    "type": "Polygon",
    "coordinates": [
     [
      [
       -97.6659906,
       30.4322714
      ],
      [
       -97.6659852,
       30.4321755
      ],
      [
       -97.665965,
       30.4320855
      ],
      [
       -97.6659341,
       30.4320007
      ],
      [
       -97.6657523,
       30.4316866
      ],
      [
       -97.6655454,
       30.4313039
      ],
      [
       -97.665372,
       30.4315718
      ],
      [
       -97.6649274,
       30.4322714
      ],
      [
       -97.6649209,
       30.4322818
      ],
      [
       -97.6644415,
       30.4330361
      ],
      [
       -97.664092,
       30.4335862
      ],
      [
       -97.6640862,
       30.4337116
      ],
      [
       -97.6641252,
       30.4338117
      ],
      [
       -97.6641909,
       30.4338774
      ],
      [
       -97.6648175,
       30.4341956
      ],
      [
       -97.665399,
       30.4332864
      ],
      [
       -97.6653853,
       30.4332039
      ],
      [
       -97.6653875,
       30.4331682
      ],
      [
       -97.6654195,
       30.4330784
      ],
      [
       -97.6654988,
       30.4330146
      ],
      [
       -97.6655086,
       30.4330265
      ],
      [
       -97.665529,
       30.4330494
      ],
      [
       -97.6655509,
       30.433067
      ],
      [
       -97.6655813,
       30.4330583
      ],
      [
       -97.6656024,
       30.4330418
      ],
      [
       -97.6657526,
       30.4328413
      ],
      [
       -97.6658462,
       30.4326903
      ],
      [
       -97.6659184,
       30.4325429
      ],
      [
       -97.6659776,
       30.432362
      ],
      [
       -97.6659906,
       30.4322714
      ]
     ]
    ]
   },
   "properties": {
    "osm_id": 621323083,
    "osm_type": "way",
    "name": "Austin",
    "display_name": "Austin, Travis County, Texas, United States",
    "feature_type": "park",
    "region": "wells_branch",
    "area_m2": 26183.4,
    "open_lat": 30.4325577,
    "open_lon": -97.6653392,
    "open_radius_m": 49.9,
    "source": "openstreetmap_nominatim",
    "licence": "Data (c) OpenStreetMap contributors, ODbL",
    "verified_lat": 30.4325577,
    "verified_lon": -97.6653392,
    "nearest_feature": "amenity/fountain Lake Victor Drive, Austin, Travis County at 43 m",
    "anchor_clearance_score_m": 33.4,
    "open_ground_verified": true
   }
  },
  {
   "type": "Feature",
   "geometry": {
    "type": "Polygon",
    "coordinates": [
     [
      [
       -97.6422725,
       30.4351301
      ],
      [
       -97.6422522,
       30.4350319
      ],
      [
       -97.6421973,
       30.4349232
      ],
      [
       -97.6420896,
       30.4348356
      ],
      [
       -97.6420191,
       30.4347895
      ],
      [
       -97.6417953,
       30.4346801
      ],
      [
       -97.6417498,
       30.4346406
      ],
      [
       -97.6414905,
       30.4345185
      ],
      [
       -97.6414394,
       30.4344945
      ],
      [
       -97.6412084,
       30.4343857
      ],
      [
       -97.6411678,
       30.4343666
      ],
      [
       -97.6411379,
       30.4343525
      ],
      [
       -97.6406487,
       30.4351226
      ],
      [
       -97.6415036,
       30.435544
      ],
      [
       -97.6419444,
       30.4357566
      ],
      [
       -97.6421833,
       30.4353885
      ],
      [
       -97.6422421,
       30.435265
      ],
      [
       -97.6422725,
       30.4351301
      ]
     ]
    ]
   },
   "properties": {
    "osm_id": 1222290972,
    "osm_type": "way",
    "name": "Pflugerville",
    "display_name": "Pflugerville, Travis County, Texas, United States",
    "feature_type": "park",
    "region": "wells_branch",
    "area_m2": 13553.2,
    "open_lat": 30.4349832,
    "open_lon": -97.6414034,
    "open_radius_m": 49.3,
    "source": "openstreetmap_nominatim",
    "licence": "Data (c) OpenStreetMap contributors, ODbL",
    "verified_lat": 30.4349832,
    "verified_lon": -97.6411206,
    "nearest_feature": "highway/residential Chisholm Trail at 148 m",
    "anchor_clearance_score_m": 127.9,
    "open_ground_verified": true
   }
  },
  {
   "type": "Feature",
   "geometry": {
    "type": "Polygon",
    "coordinates": [
     [
      [
       -97.6825707,
       30.4482279
      ],
      [
       -97.6825328,
       30.4478244
      ],
      [
       -97.6822259,
       30.4475992
      ],
      [
       -97.681857,
       30.4473745
      ],
      [
       -97.681932,
       30.4470405
      ],
      [
       -97.6815493,
       30.4469533
      ],
      [
       -97.6813075,
       30.4466838
      ],
      [
       -97.6812986,
       30.446484
      ],
      [
       -97.6813482,
       30.4463238
      ],
      [
       -97.6813818,
       30.4461041
      ],
      [
       -97.6813037,
       30.4458083
      ],
      [
       -97.6811317,
       30.4455525
      ],
      [
       -97.6810234,
       30.4454205
      ],
      [
       -97.6806167,
       30.4450885
      ],
      [
       -97.6800848,
       30.4447444
      ],
      [
       -97.6798531,
       30.4449375
      ],
      [
       -97.6800473,
       30.445071
      ],
      [
       -97.6806818,
       30.4455145
      ],
      [
       -97.6809764,
       30.4458493
      ],
      [
       -97.6810821,
       30.4461507
      ],
      [
       -97.6810479,
       30.4466225
      ],
      [
       -97.6810073,
       30.4470147
      ],
      [
       -97.6809195,
       30.4472232
      ],
      [
       -97.6809255,
       30.4473596
      ],
      [
       -97.6807158,
       30.4473786
      ],
      [
       -97.6804861,
       30.4478624
      ],
      [
       -97.6804046,
       30.4480586
      ],
      [
       -97.6803178,
       30.4482816
      ],
      [
       -97.6801633,
       30.448569
      ],
      [
       -97.6799763,
       30.4488073
      ],
      [
       -97.6798055,
       30.4490807
      ],
      [
       -97.6795941,
       30.4494312
      ],
      [
       -97.6795453,
       30.4495153
      ],
      [
       -97.6792933,
       30.4495503
      ],
      [
       -97.6791144,
       30.4496975
      ],
      [
       -97.6789355,
       30.4497676
      ],
      [
       -97.679025,
       30.4501321
      ],
      [
       -97.679171,
       30.4506631
      ],
      [
       -97.6790309,
       30.4509529
      ],
      [
       -97.679127,
       30.4510089
      ],
      [
       -97.679244,
       30.4511188
      ],
      [
       -97.6793238,
       30.4512135
      ],
      [
       -97.6795747,
       30.4516985
      ],
      [
       -97.6797638,
       30.4520761
      ],
      [
       -97.6797867,
       30.4521644
      ],
      [
       -97.6797935,
       30.4522531
      ],
      [
       -97.6797908,
       30.4523415
      ],
      [
       -97.679742,
       30.452454
      ],
      [
       -97.6800809,
       30.4526156
      ],
      [
       -97.6800739,
       30.4528798
      ],
      [
       -97.6800251,
       30.4531321
      ],
      [
       -97.6800495,
       30.4533564
      ],
      [
       -97.6800332,
       30.4536228
      ],
      [
       -97.6799682,
       30.4540363
      ],
      [
       -97.6798165,
       30.4540393
      ],
      [
       -97.6794343,
       30.454616
      ],
      [
       -97.6790823,
       30.4551471
      ],
      [
       -97.6791366,
       30.4551618
      ],
      [
       -97.6791791,
       30.4551525
      ],
      [
       -97.6793983,
       30.4548968
      ],
      [
       -97.6796153,
       30.4547109
      ],
      [
       -97.6800088,
       30.4544428
      ],
      [
       -97.6803991,
       30.4542466
      ],
      [
       -97.6805769,
       30.4540992
      ],
      [
       -97.6805214,
       30.4536318
      ],
      [
       -97.6805769,
       30.4533131
      ],
      [
       -97.680657,
       30.4529996
      ],
      [
       -97.6807618,
       30.4526172
      ],
      [
       -97.6808111,
       30.4522878
      ],
      [
       -97.6808542,
       30.4519372
      ],
      [
       -97.6808566,
       30.4519165
      ],
      [
       -97.6812206,
       30.4518698
      ],
      [
       -97.6811567,
       30.4513861
      ],
      [
       -97.6811589,
       30.4513287
      ],
      [
       -97.6811612,
       30.4512925
      ],
      [
       -97.6812209,
       30.4510328
      ],
      [
       -97.6813488,
       30.4505051
      ],
      [
       -97.6814707,
       30.4501015
      ],
      [
       -97.6814496,
       30.4500911
      ],
      [
       -97.6812772,
       30.450013
      ],
      [
       -97.6808899,
       30.4498946
      ],
      [
       -97.6804897,
       30.4498379
      ],
      [
       -97.6805426,
       30.4492956
      ],
      [
       -97.6807621,
       30.4486467
      ],
      [
       -97.6812695,
       30.4481551
      ],
      [
       -97.6819473,
       30.4479363
      ],
      [
       -97.6820638,
       30.4482692
      ],
      [
       -97.6822541,
       30.4482427
      ],
      [
       -97.6825707,
       30.4482279
      ]
     ]
    ]
   },
   "properties": {
    "osm_id": 470079059,
    "osm_type": "way",
    "name": "Mills Pond",
    "display_name": "Mills Pond, Wells Branch, Travis County, Texas, 78728, United States",
    "feature_type": "park",
    "region": "wells_branch",
    "area_m2": 109212.7,
    "open_lat": 30.4507161,
    "open_lon": -97.680223,
    "open_radius_m": 100.9,
    "source": "openstreetmap_nominatim",
    "licence": "Data (c) OpenStreetMap contributors, ODbL",
    "verified_lat": 30.4507161,
    "verified_lon": -97.680223,
    "nearest_feature": "tourism/picnic_site Rick Whinery Drive, Wells Branch, Travis",
    "anchor_clearance_score_m": 999.0,
    "open_ground_verified": true
   }
  },
  {
   "type": "Feature",
   "geometry": {
    "type": "Polygon",
    "coordinates": [
     [
      [
       -97.678593,
       30.4335058
      ],
      [
       -97.6785906,
       30.4333709
      ],
      [
       -97.6784674,
       30.4323997
      ],
      [
       -97.6784581,
       30.4323258
      ],
      [
       -97.6783596,
       30.4315493
      ],
      [
       -97.6751402,
       30.4299746
      ],
      [
       -97.6750617,
       30.4301937
      ],
      [
       -97.6775175,
       30.4313972
      ],
      [
       -97.6779265,
       30.431597
      ],
      [
       -97.6780709,
       30.4317319
      ],
      [
       -97.6781455,
       30.4320908
      ],
      [
       -97.6783524,
       30.4334871
      ],
      [
       -97.678326,
       30.4336365
      ],
      [
       -97.6779073,
       30.4343999
      ],
      [
       -97.6776643,
       30.4347008
      ],
      [
       -97.6778351,
       30.4346634
      ],
      [
       -97.678415,
       30.4345618
      ],
      [
       -97.6783837,
       30.4342692
      ],
      [
       -97.6783909,
       30.434012
      ],
      [
       -97.678593,
       30.4335058
      ]
     ]
    ]
   },
   "properties": {
    "osm_id": 585238672,
    "osm_type": "way",
    "name": "Wells Branch",
    "display_name": "Wells Branch, Travis County, Texas, United States",
    "feature_type": "park",
    "region": "wells_branch",
    "area_m2": 18488.0,
    "open_lat": 30.4343962,
    "open_lon": -97.6781633,
    "open_radius_m": 22.0,
    "source": "openstreetmap_nominatim",
    "licence": "Data (c) OpenStreetMap contributors, ODbL",
    "verified_lat": 30.4343962,
    "verified_lon": -97.6780371,
    "nearest_feature": "building/apartments 1831 1/2, Wells Branch Parkway, Wells Br at 62 m",
    "anchor_clearance_score_m": 27.0,
    "open_ground_verified": true
   }
  },
  {
   "type": "Feature",
   "geometry": {
    "type": "Polygon",
    "coordinates": [
     [
      [
       -97.6806108,
       30.416472
      ],
      [
       -97.6803164,
       30.4160392
      ],
      [
       -97.6801959,
       30.4158748
      ],
      [
       -97.6801223,
       30.4160652
      ],
      [
       -97.6801558,
       30.4163826
      ],
      [
       -97.6799684,
       30.4174963
      ],
      [
       -97.6800755,
       30.4176464
      ],
      [
       -97.6802361,
       30.4175079
      ],
      [
       -97.6805171,
       30.4176637
      ],
      [
       -97.6804603,
       30.4173348
      ],
      [
       -97.6803063,
       30.4169885
      ],
      [
       -97.6803599,
       30.416726
      ],
      [
       -97.6804569,
       30.4165528
      ],
      [
       -97.6805406,
       30.4166596
      ],
      [
       -97.6805406,
       30.4169193
      ],
      [
       -97.6806108,
       30.4169395
      ],
      [
       -97.6806108,
       30.416472
      ]
     ]
    ]
   },
   "properties": {
    "osm_id": 1251743229,
    "osm_type": "way",
    "name": "Scofield Farms Neighborhood Park Mixed Use Field",
    "display_name": "Scofield Farms Neighborhood Park Mixed Use Field, 1390, Austin, Travis County, Texas, 78727, United States",
    "feature_type": "recreation_ground",
    "region": "wells_branch",
    "area_m2": 6301.7,
    "open_lat": 30.4173213,
    "open_lon": -97.6802168,
    "open_radius_m": 20.8,
    "source": "openstreetmap_nominatim",
    "licence": "Data (c) OpenStreetMap contributors, ODbL",
    "verified_lat": 30.4173213,
    "verified_lon": -97.680336,
    "nearest_feature": "highway/footway Scofield Farms Neighborhood Park Trail at 38 m",
    "anchor_clearance_score_m": 18.2,
    "open_ground_verified": false
   }
  },
  {
   "type": "Feature",
   "geometry": {
    "type": "Polygon",
    "coordinates": [
     [
      [
       -97.6482767,
       30.4402979
      ],
      [
       -97.6458601,
       30.4391272
      ],
      [
       -97.6444763,
       30.4413385
      ],
      [
       -97.6468834,
       30.4424754
      ],
      [
       -97.6482767,
       30.4402979
      ]
     ]
    ]
   },
   "properties": {
    "osm_id": 1312879881,
    "osm_type": "way",
    "name": "Wells Point Sports Park",
    "display_name": "Wells Point Sports Park, Pflugerville, Travis County, Texas, United States",
    "feature_type": "recreation_ground",
    "region": "wells_branch",
    "area_m2": 73537.8,
    "open_lat": 30.4407948,
    "open_lon": -97.6463841,
    "open_radius_m": 132.3,
    "source": "openstreetmap_nominatim",
    "licence": "Data (c) OpenStreetMap contributors, ODbL",
    "verified_lat": 30.4407948,
    "verified_lon": -97.6463841,
    "nearest_feature": "amenity/school Spring Hill Elementary School at 227 m",
    "anchor_clearance_score_m": 217.3,
    "open_ground_verified": true
   }
  },
  {
   "type": "Feature",
   "geometry": {
    "type": "Polygon",
    "coordinates": [
     [
      [
       -97.67873,
       30.4176286
      ],
      [
       -97.6780623,
       30.4175172
      ],
      [
       -97.6779359,
       30.4174961
      ],
      [
       -97.6761036,
       30.4171903
      ],
      [
       -97.6753933,
       30.4183827
      ],
      [
       -97.6743526,
       30.4202238
      ],
      [
       -97.6732122,
       30.4224084
      ],
      [
       -97.6744441,
       30.4229314
      ],
      [
       -97.6743526,
       30.4232399
      ],
      [
       -97.6743045,
       30.4237869
      ],
      [
       -97.6744456,
       30.4238122
      ],
      [
       -97.6744877,
       30.4238197
      ],
      [
       -97.6746568,
       30.4238125
      ],
      [
       -97.6750607,
       30.4236608
      ],
      [
       -97.6753987,
       30.4233925
      ],
      [
       -97.6756422,
       30.4231577
      ],
      [
       -97.675903,
       30.4230086
      ],
      [
       -97.6763857,
       30.4224118
      ],
      [
       -97.6769168,
       30.4218937
      ],
      [
       -97.6774372,
       30.4216347
      ],
      [
       -97.6781548,
       30.4210884
      ],
      [
       -97.678215,
       30.4210426
      ],
      [
       -97.6785905,
       30.4205846
      ],
      [
       -97.6786516,
       30.4204086
      ],
      [
       -97.6786454,
       30.4203137
      ],
      [
       -97.6786219,
       30.420241
      ],
      [
       -97.6785416,
       30.4201201
      ],
      [
       -97.6782309,
       30.4199914
      ],
      [
       -97.6779428,
       30.4198834
      ],
      [
       -97.677774,
       30.4197396
      ],
      [
       -97.6776839,
       30.4192477
      ],
      [
       -97.677818,
       30.4187805
      ],
      [
       -97.6780058,
       30.4184058
      ],
      [
       -97.6784511,
       30.4180126
      ],
      [
       -97.67873,
       30.4176286
      ]
     ]
    ]
   },
   "properties": {
    "osm_id": 211765176,
    "osm_type": "way",
    "name": "John B Connally High School",
    "display_name": "John B Connally High School, 13212, North Lamar Boulevard, River Oak Lake Estates, Austin, Travis County, Texas, 78753, United States",
    "feature_type": "school",
    "region": "wells_branch",
    "area_m2": 203576.8,
    "open_lat": 30.4204694,
    "open_lon": -97.6761997,
    "open_radius_m": 171.3,
    "source": "openstreetmap_nominatim",
    "licence": "Data (c) OpenStreetMap contributors, ODbL"
   }
  },
  {
   "type": "Feature",
   "geometry": {
    "type": "Polygon",
    "coordinates": [
     [
      [
       -97.6927847,
       30.4378493
      ],
      [
       -97.691335,
       30.4371529
      ],
      [
       -97.6909045,
       30.4379626
      ],
      [
       -97.6914571,
       30.4382933
      ],
      [
       -97.6916408,
       30.4384595
      ],
      [
       -97.6925755,
       30.4382054
      ],
      [
       -97.6927847,
       30.4378493
      ]
     ]
    ]
   },
   "properties": {
    "osm_id": 205123026,
    "osm_type": "way",
    "name": "Chaparral Star Academy",
    "display_name": "Chaparral Star Academy, 14046, Summit Drive, Wells Branch, Travis County, Texas, 78728, United States",
    "feature_type": "school",
    "region": "wells_branch",
    "area_m2": 14612.2,
    "open_lat": 30.4379013,
    "open_lon": -97.6917638,
    "open_radius_m": 52.6,
    "source": "openstreetmap_nominatim",
    "licence": "Data (c) OpenStreetMap contributors, ODbL"
   }
  },
  {
   "type": "Feature",
   "geometry": {
    "type": "Polygon",
    "coordinates": [
     [
      [
       -97.6914355,
       30.4165386
      ],
      [
       -97.6911958,
       30.416206
      ],
      [
       -97.6905851,
       30.4152602
      ],
      [
       -97.6903103,
       30.4153872
      ],
      [
       -97.6900877,
       30.4154925
      ],
      [
       -97.6899925,
       30.415637
      ],
      [
       -97.689684,
       30.4158163
      ],
      [
       -97.6887801,
       30.4160291
      ],
      [
       -97.6887774,
       30.4173556
      ],
      [
       -97.688925,
       30.4177003
      ],
      [
       -97.6891658,
       30.4179093
      ],
      [
       -97.6897105,
       30.4183349
      ],
      [
       -97.6897367,
       30.4183557
      ],
      [
       -97.6910895,
       30.417085
      ],
      [
       -97.6914355,
       30.4165386
      ]
     ]
    ]
   },
   "properties": {
    "osm_id": 989592630,
    "osm_type": "way",
    "name": "Westview Middle School",
    "display_name": "Westview Middle School, 1805, Scofield Lane, Lamplight Village, Austin, Travis County, Texas, 78727, United States",
    "feature_type": "school",
    "region": "wells_branch",
    "area_m2": 54022.2,
    "open_lat": 30.4167656,
    "open_lon": -97.6899035,
    "open_radius_m": 107.3,
    "source": "openstreetmap_nominatim",
    "licence": "Data (c) OpenStreetMap contributors, ODbL"
   }
  },
  {
   "type": "Feature",
   "geometry": {
    "type": "Polygon",
    "coordinates": [
     [
      [
       -97.6927646,
       30.4145326
      ],
      [
       -97.6914784,
       30.4138988
      ],
      [
       -97.6910386,
       30.4145823
      ],
      [
       -97.6906979,
       30.4146459
      ],
      [
       -97.6904833,
       30.415016
      ],
      [
       -97.6902889,
       30.4153514
      ],
      [
       -97.6903103,
       30.4153872
      ],
      [
       -97.6905851,
       30.4152602
      ],
      [
       -97.6907569,
       30.4151752
      ],
      [
       -97.6909451,
       30.4154671
      ],
      [
       -97.690995,
       30.4154432
      ],
      [
       -97.6914263,
       30.4161122
      ],
      [
       -97.6914242,
       30.4161684
      ],
      [
       -97.6914905,
       30.4161702
      ],
      [
       -97.691642,
       30.416235
      ],
      [
       -97.6925118,
       30.4149179
      ],
      [
       -97.6927646,
       30.4145326
      ]
     ]
    ]
   },
   "properties": {
    "osm_id": 989592631,
    "osm_type": "way",
    "name": "Parmer Lane Elementary School",
    "display_name": "Parmer Lane Elementary School, 1806, West Parmer Lane, Austin, Travis County, Texas, 78727, United States",
    "feature_type": "school",
    "region": "wells_branch",
    "area_m2": 28985.9,
    "open_lat": 30.415035,
    "open_lon": -97.6915743,
    "open_radius_m": 71.7,
    "source": "openstreetmap_nominatim",
    "licence": "Data (c) OpenStreetMap contributors, ODbL"
   }
  },
  {
   "type": "Feature",
   "geometry": {
    "type": "Polygon",
    "coordinates": [
     [
      [
       -97.6468834,
       30.4424754
      ],
      [
       -97.6445768,
       30.4413412
      ],
      [
       -97.6444763,
       30.4413385
      ],
      [
       -97.6435856,
       30.4426915
      ],
      [
       -97.6460029,
       30.4438455
      ],
      [
       -97.6468834,
       30.4424754
      ]
     ]
    ]
   },
   "properties": {
    "osm_id": 666709764,
    "osm_type": "way",
    "name": "Spring Hill Elementary School",
    "display_name": "Spring Hill Elementary School, Old Austin Pflugerville Road, Pflugerville, Travis County, Texas, 78691, United States",
    "feature_type": "school",
    "region": "wells_branch",
    "area_m2": 46423.7,
    "open_lat": 30.4423973,
    "open_lon": -97.6448674,
    "open_radius_m": 88.1,
    "source": "openstreetmap_nominatim",
    "licence": "Data (c) OpenStreetMap contributors, ODbL"
   }
  },
  {
   "type": "Feature",
   "geometry": {
    "type": "Polygon",
    "coordinates": [
     [
      [
       -97.6883018,
       30.4450121
      ],
      [
       -97.6882804,
       30.4438445
      ],
      [
       -97.6868295,
       30.443818
      ],
      [
       -97.6862564,
       30.4439827
      ],
      [
       -97.6859976,
       30.444312
      ],
      [
       -97.6854676,
       30.445077
      ],
      [
       -97.6879342,
       30.4462736
      ],
      [
       -97.688161,
       30.4459479
      ],
      [
       -97.6882773,
       30.4456222
      ],
      [
       -97.6883018,
       30.4450121
      ]
     ]
    ]
   },
   "properties": {
    "osm_id": 666709767,
    "osm_type": "way",
    "name": "Wells Branch Elementary School",
    "display_name": "Wells Branch Elementary School, Single Trace, Wells Branch, Travis County, Texas, 78728, United States",
    "feature_type": "school",
    "region": "wells_branch",
    "area_m2": 50526.9,
    "open_lat": 30.4447916,
    "open_lon": -97.6871679,
    "open_radius_m": 107.5,
    "source": "openstreetmap_nominatim",
    "licence": "Data (c) OpenStreetMap contributors, ODbL"
   }
  },
  {
   "type": "Feature",
   "geometry": {
    "type": "Polygon",
    "coordinates": [
     [
      [
       -97.649946,
       30.4237009
      ],
      [
       -97.6499209,
       30.4236367
      ],
      [
       -97.6481071,
       30.42279
      ],
      [
       -97.6463041,
       30.4219209
      ],
      [
       -97.6456795,
       30.4229422
      ],
      [
       -97.6464435,
       30.423325
      ],
      [
       -97.6468882,
       30.4235851
      ],
      [
       -97.6474407,
       30.4240103
      ],
      [
       -97.6480505,
       30.4245513
      ],
      [
       -97.6485855,
       30.4242002
      ],
      [
       -97.6490786,
       30.4239553
      ],
      [
       -97.649946,
       30.4237009
      ]
     ]
    ]
   },
   "properties": {
    "osm_id": 1211349545,
    "osm_type": "way",
    "name": "Barron Elementary School",
    "display_name": "Barron Elementary School, Cape Cod Drive, Dessau Fountain Estates, Travis County, Texas, 78753, United States",
    "feature_type": "school",
    "region": "wells_branch",
    "area_m2": 49342.5,
    "open_lat": 30.4236068,
    "open_lon": -97.6481252,
    "open_radius_m": 78.4,
    "source": "openstreetmap_nominatim",
    "licence": "Data (c) OpenStreetMap contributors, ODbL"
   }
  },
  {
   "type": "Feature",
   "geometry": {
    "type": "Polygon",
    "coordinates": [
     [
      [
       -97.6834729,
       30.4569207
      ],
      [
       -97.6825158,
       30.4563674
      ],
      [
       -97.6821107,
       30.4562048
      ],
      [
       -97.6817307,
       30.4561319
      ],
      [
       -97.6811469,
       30.4561422
      ],
      [
       -97.6804476,
       30.4569342
      ],
      [
       -97.6811276,
       30.4573365
      ],
      [
       -97.6825102,
       30.4580659
      ],
      [
       -97.6834729,
       30.4569207
      ]
     ]
    ]
   },
   "properties": {
    "osm_id": 666709766,
    "osm_type": "way",
    "name": "Joe Lee Johnson Elementary School",
    "display_name": "Joe Lee Johnson Elementary School, Crissom Lane, Travis County, Texas, 78728, United States",
    "feature_type": "school",
    "region": "wells_branch",
    "area_m2": 35288.1,
    "open_lat": 30.4570071,
    "open_lon": -97.6821139,
    "open_radius_m": 80.5,
    "source": "openstreetmap_nominatim",
    "licence": "Data (c) OpenStreetMap contributors, ODbL"
   }
  },
  {
   "type": "Feature",
   "geometry": {
    "type": "Polygon",
    "coordinates": [
     [
      [
       -97.6775175,
       30.4313972
      ],
      [
       -97.6750617,
       30.4301937
      ],
      [
       -97.6749853,
       30.4304111
      ],
      [
       -97.6749348,
       30.430697
      ],
      [
       -97.6749367,
       30.4309852
      ],
      [
       -97.6750348,
       30.431631
      ],
      [
       -97.6750828,
       30.4317789
      ],
      [
       -97.6752036,
       30.4320212
      ],
      [
       -97.6753834,
       30.4322627
      ],
      [
       -97.6756226,
       30.4324844
      ],
      [
       -97.6758063,
       30.4326275
      ],
      [
       -97.6771913,
       30.4319782
      ],
      [
       -97.6775175,
       30.4313972
      ]
     ]
    ]
   },
   "properties": {
    "osm_id": 894420234,
    "osm_type": "way",
    "name": "Northwest Leadership Academy",
    "display_name": "Northwest Leadership Academy, 14014, Thermal Drive, Austin, Travis County, Texas, 78728, United States",
    "feature_type": "school",
    "region": "wells_branch",
    "area_m2": 38391.4,
    "open_lat": 30.431596,
    "open_lon": -97.6760225,
    "open_radius_m": 90.0,
    "source": "openstreetmap_nominatim",
    "licence": "Data (c) OpenStreetMap contributors, ODbL"
   }
  },
  {
   "type": "Feature",
   "geometry": {
    "type": "Polygon",
    "coordinates": [
     [
      [
       -97.689684,
       30.4158163
      ],
      [
       -97.6891868,
       30.4150248
      ],
      [
       -97.6885884,
       30.4152531
      ],
      [
       -97.6887023,
       30.4155306
      ],
      [
       -97.6887801,
       30.4160291
      ],
      [
       -97.689684,
       30.4158163
      ]
     ]
    ]
   },
   "properties": {
    "osm_id": 989592629,
    "osm_type": "way",
    "name": "One World Montessori",
    "display_name": "One World Montessori, Scofield Lane, Lamplight Village, Austin, Travis County, Texas, 78727, United States",
    "feature_type": "school",
    "region": "wells_branch",
    "area_m2": 6903.5,
    "open_lat": 30.4156015,
    "open_lon": -97.6891044,
    "open_radius_m": 37.2,
    "source": "openstreetmap_nominatim",
    "licence": "Data (c) OpenStreetMap contributors, ODbL"
   }
  },
  {
   "type": "Feature",
   "geometry": {
    "type": "Polygon",
    "coordinates": [
     [
      [
       -97.6710745,
       30.4344372
      ],
      [
       -97.6701428,
       30.4343124
      ],
      [
       -97.6699257,
       30.4353713
      ],
      [
       -97.6708667,
       30.4355002
      ],
      [
       -97.6710745,
       30.4344372
      ]
     ]
    ]
   },
   "properties": {
    "osm_id": 1223883937,
    "osm_type": "way",
    "name": "Renaissance Education Foundation",
    "display_name": "Renaissance Education Foundation, Owen-Tech Boulevard, Wells Branch, Travis County, Texas, 78728, United States",
    "feature_type": "school",
    "region": "wells_branch",
    "area_m2": 10883.8,
    "open_lat": 30.4349713,
    "open_lon": -97.6704894,
    "open_radius_m": 45.5,
    "source": "openstreetmap_nominatim",
    "licence": "Data (c) OpenStreetMap contributors, ODbL"
   }
  },
  {
   "type": "Feature",
   "geometry": {
    "type": "Polygon",
    "coordinates": [
     [
      [
       -97.690044,
       30.4573187
      ],
      [
       -97.6899189,
       30.4571002
      ],
      [
       -97.6895782,
       30.4565208
      ],
      [
       -97.6893698,
       30.4566139
      ],
      [
       -97.6879412,
       30.4559361
      ],
      [
       -97.6878157,
       30.4559647
      ],
      [
       -97.6870663,
       30.4570848
      ],
      [
       -97.6870737,
       30.4571485
      ],
      [
       -97.6871106,
       30.4572026
      ],
      [
       -97.6876459,
       30.4574794
      ],
      [
       -97.6876865,
       30.457508
      ],
      [
       -97.6891984,
       30.4580011
      ],
      [
       -97.6895414,
       30.4575174
      ],
      [
       -97.690044,
       30.4573187
      ]
     ]
    ]
   },
   "properties": {
    "osm_id": 866351238,
    "osm_type": "way",
    "name": "Jubilee-Wells Branch",
    "display_name": "Jubilee-Wells Branch, 3711, Shoreline Drive, Jack's Pond, Austin, Travis County, Texas, 78728, United States",
    "feature_type": "school",
    "region": "wells_branch",
    "area_m2": 37040.7,
    "open_lat": 30.4568933,
    "open_lon": -97.6882004,
    "open_radius_m": 81.2,
    "source": "openstreetmap_nominatim",
    "licence": "Data (c) OpenStreetMap contributors, ODbL"
   }
  },
  {
   "type": "Feature",
   "geometry": {
    "type": "Polygon",
    "coordinates": [
     [
      [
       -97.675829,
       30.4324044
      ],
      [
       -97.6755954,
       30.4319945
      ],
      [
       -97.6753834,
       30.4322627
      ],
      [
       -97.6756226,
       30.4324844
      ],
      [
       -97.675829,
       30.4324044
      ]
     ]
    ]
   },
   "properties": {
    "osm_id": 894420235,
    "osm_type": "way",
    "name": "Thermal Drive",
    "display_name": "Thermal Drive, Churchill Crossing, Wells Branch, Travis County, Texas, 78728, United States",
    "feature_type": "playground",
    "region": "wells_branch",
    "area_m2": 1143.7,
    "open_lat": 30.4322509,
    "open_lon": -97.6755752,
    "open_radius_m": 14.3,
    "source": "openstreetmap_nominatim",
    "licence": "Data (c) OpenStreetMap contributors, ODbL"
   }
  },
  {
   "type": "Feature",
   "geometry": {
    "type": "Polygon",
    "coordinates": [
     [
      [
       -97.7066868,
       30.4212017
      ],
      [
       -97.7064787,
       30.4210971
      ],
      [
       -97.7064141,
       30.4211928
      ],
      [
       -97.7066222,
       30.4212974
      ],
      [
       -97.7066868,
       30.4212017
      ]
     ]
    ]
   },
   "properties": {
    "osm_id": 877670450,
    "osm_type": "way",
    "name": "West Parmer Lane",
    "display_name": "West Parmer Lane, Austin, Travis County, Texas, 78727, United States",
    "feature_type": "playground",
    "region": "wells_branch",
    "area_m2": 284.5,
    "open_lat": 30.4211972,
    "open_lon": -97.7065505,
    "open_radius_m": 6.2,
    "source": "openstreetmap_nominatim",
    "licence": "Data (c) OpenStreetMap contributors, ODbL"
   }
  },
  {
   "type": "Feature",
   "geometry": {
    "type": "Polygon",
    "coordinates": [
     [
      [
       -97.6520191,
       30.4200361
      ],
      [
       -97.6520188,
       30.4200295
      ],
      [
       -97.6520154,
       30.4200237
      ],
      [
       -97.652006,
       30.4200118
      ],
      [
       -97.6519973,
       30.4199991
      ],
      [
       -97.6519913,
       30.4199855
      ],
      [
       -97.6519889,
       30.419974
      ],
      [
       -97.6519893,
       30.4199563
      ],
      [
       -97.6519873,
       30.4199419
      ],
      [
       -97.6519806,
       30.4199297
      ],
      [
       -97.6519671,
       30.4199228
      ],
      [
       -97.6519507,
       30.4199196
      ],
      [
       -97.6519343,
       30.4199237
      ],
      [
       -97.6519219,
       30.4199315
      ],
      [
       -97.6519155,
       30.4199393
      ],
      [
       -97.6519061,
       30.419941
      ],
      [
       -97.651893,
       30.4199422
      ],
      [
       -97.6518796,
       30.4199471
      ],
      [
       -97.6518676,
       30.4199552
      ],
      [
       -97.6518575,
       30.4199656
      ],
      [
       -97.6518535,
       30.4199797
      ],
      [
       -97.6518528,
       30.4199968
      ],
      [
       -97.6518578,
       30.4200084
      ],
      [
       -97.6518709,
       30.420022
      ],
      [
       -97.6518813,
       30.4200315
      ],
      [
       -97.6518914,
       30.4200419
      ],
      [
       -97.6519001,
       30.4200584
      ],
      [
       -97.6519085,
       30.4200723
      ],
      [
       -97.6519199,
       30.4200795
      ],
      [
       -97.6519356,
       30.4200844
      ],
      [
       -97.6519547,
       30.4200853
      ],
      [
       -97.6519735,
       30.4200827
      ],
      [
       -97.6519913,
       30.4200746
      ],
      [
       -97.6520034,
       30.4200662
      ],
      [
       -97.6520121,
       30.4200581
      ],
      [
       -97.6520164,
       30.4200517
      ],
      [
       -97.6520188,
       30.4200454
      ],
      [
       -97.6520191,
       30.4200361
      ]
     ]
    ]
   },
   "properties": {
    "osm_id": 613647523,
    "osm_type": "way",
    "name": "Lampting Drive",
    "display_name": "Lampting Drive, Wildflower, Travis County, Texas, 78691, United States",
    "feature_type": "playground",
    "region": "wells_branch",
    "area_m2": 199.6,
    "open_lat": 30.4199973,
    "open_lon": -97.65193,
    "open_radius_m": 6.0,
    "source": "openstreetmap_nominatim",
    "licence": "Data (c) OpenStreetMap contributors, ODbL"
   }
  },
  {
   "type": "Feature",
   "geometry": {
    "type": "Polygon",
    "coordinates": [
     [
      [
       -97.6524589,
       30.4151566
      ],
      [
       -97.6523938,
       30.4151478
      ],
      [
       -97.6523354,
       30.4151298
      ],
      [
       -97.6523328,
       30.4151789
      ],
      [
       -97.65231,
       30.4152372
      ],
      [
       -97.6523791,
       30.4152407
      ],
      [
       -97.6524279,
       30.4152618
      ],
      [
       -97.6524375,
       30.4152083
      ],
      [
       -97.6524589,
       30.4151566
      ]
     ]
    ]
   },
   "properties": {
    "osm_id": 1211590852,
    "osm_type": "way",
    "name": "Huroh Drive",
    "display_name": "Huroh Drive, Dessau Fountain Estates, Travis County, Texas, 78753, United States",
    "feature_type": "playground",
    "region": "wells_branch",
    "area_m2": 125.6,
    "open_lat": 30.4151936,
    "open_lon": -97.6523853,
    "open_radius_m": 5.2,
    "source": "openstreetmap_nominatim",
    "licence": "Data (c) OpenStreetMap contributors, ODbL"
   }
  },
  {
   "type": "Feature",
   "geometry": {
    "type": "Polygon",
    "coordinates": [
     [
      [
       -97.6577907,
       30.432351
      ],
      [
       -97.6577809,
       30.4323257
      ],
      [
       -97.6577657,
       30.4323032
      ],
      [
       -97.6577418,
       30.4322863
      ],
      [
       -97.6577103,
       30.4322807
      ],
      [
       -97.657682,
       30.4322835
      ],
      [
       -97.6576625,
       30.4322901
      ],
      [
       -97.6576418,
       30.4323032
      ],
      [
       -97.6576288,
       30.4323172
      ],
      [
       -97.6576208,
       30.4323395
      ],
      [
       -97.657619,
       30.4323483
      ],
      [
       -97.6576723,
       30.4323641
      ],
      [
       -97.6576972,
       30.4323706
      ],
      [
       -97.6577157,
       30.4323716
      ],
      [
       -97.657744,
       30.4323678
      ],
      [
       -97.6577668,
       30.4323594
      ],
      [
       -97.6577907,
       30.432351
      ]
     ]
    ]
   },
   "properties": {
    "osm_id": 487453904,
    "osm_type": "way",
    "name": "Thrasher Glade Drive",
    "display_name": "Thrasher Glade Drive, Landings at Wells branch, Austin, Travis County, Texas, 78728, United States",
    "feature_type": "playground",
    "region": "wells_branch",
    "area_m2": 119.2,
    "open_lat": 30.4323262,
    "open_lon": -97.6577049,
    "open_radius_m": 4.9,
    "source": "openstreetmap_nominatim",
    "licence": "Data (c) OpenStreetMap contributors, ODbL"
   }
  },
  {
   "type": "Feature",
   "geometry": {
    "type": "Polygon",
    "coordinates": [
     [
      [
       -97.695026,
       30.428728
      ],
      [
       -97.69502,
       30.428709
      ],
      [
       -97.695017,
       30.428682
      ],
      [
       -97.695021,
       30.428655
      ],
      [
       -97.695025,
       30.428643
      ],
      [
       -97.694954,
       30.428649
      ],
      [
       -97.694918,
       30.428648
      ],
      [
       -97.694882,
       30.428644
      ],
      [
       -97.694887,
       30.428683
      ],
      [
       -97.69488,
       30.428731
      ],
      [
       -97.694974,
       30.428723
      ],
      [
       -97.695026,
       30.428728
      ]
     ]
    ]
   },
   "properties": {
    "osm_id": 383187643,
    "osm_type": "way",
    "name": "Rodeo Drive",
    "display_name": "Rodeo Drive, Austin, Travis County, Texas, 78727, United States",
    "feature_type": "playground",
    "region": "wells_branch",
    "area_m2": 115.6,
    "open_lat": 30.428687,
    "open_lon": -97.694953,
    "open_radius_m": 4.2,
    "source": "openstreetmap_nominatim",
    "licence": "Data (c) OpenStreetMap contributors, ODbL"
   }
  },
  {
   "type": "Feature",
   "geometry": {
    "type": "Polygon",
    "coordinates": [
     [
      [
       -97.6946907,
       30.4289125
      ],
      [
       -97.6946883,
       30.4288674
      ],
      [
       -97.6946067,
       30.4288541
      ],
      [
       -97.6945743,
       30.42888
      ],
      [
       -97.6945697,
       30.4289231
      ],
      [
       -97.6945905,
       30.4289424
      ],
      [
       -97.6946598,
       30.4289537
      ],
      [
       -97.6946814,
       30.4289344
      ],
      [
       -97.6946907,
       30.4289125
      ]
     ]
    ]
   },
   "properties": {
    "osm_id": 1215878465,
    "osm_type": "way",
    "name": "Scofield Ridge Parkway",
    "display_name": "Scofield Ridge Parkway, Austin, Travis County, Texas, 78727, United States",
    "feature_type": "playground",
    "region": "wells_branch",
    "area_m2": 101.0,
    "open_lat": 30.4289039,
    "open_lon": -97.6946302,
    "open_radius_m": 4.9,
    "source": "openstreetmap_nominatim",
    "licence": "Data (c) OpenStreetMap contributors, ODbL"
   }
  },
  {
   "type": "Feature",
   "geometry": {
    "type": "Polygon",
    "coordinates": [
     [
      [
       -97.6536352,
       30.4583685
      ],
      [
       -97.6536244,
       30.4583401
      ],
      [
       -97.6536225,
       30.458335
      ],
      [
       -97.6535937,
       30.4583044
      ],
      [
       -97.6535025,
       30.4582882
      ],
      [
       -97.6534247,
       30.4582772
      ],
      [
       -97.6533945,
       30.4582928
      ],
      [
       -97.653365,
       30.4583194
      ],
      [
       -97.6533569,
       30.4583564
      ],
      [
       -97.6533771,
       30.4583876
      ],
      [
       -97.6535615,
       30.4584396
      ],
      [
       -97.6536352,
       30.4583685
      ]
     ]
    ]
   },
   "properties": {
    "osm_id": 1248930292,
    "osm_type": "way",
    "name": "Suzi Lane",
    "display_name": "Suzi Lane, Pflugerville, Travis County, Texas, 78660, United States",
    "feature_type": "playground",
    "region": "wells_branch",
    "area_m2": 325.2,
    "open_lat": 30.4583622,
    "open_lon": -97.6535352,
    "open_radius_m": 7.4,
    "source": "openstreetmap_nominatim",
    "licence": "Data (c) OpenStreetMap contributors, ODbL"
   }
  },
  {
   "type": "Feature",
   "geometry": {
    "type": "Polygon",
    "coordinates": [
     [
      [
       -97.6563085,
       30.4561157
      ],
      [
       -97.6562009,
       30.456101
      ],
      [
       -97.6561781,
       30.4562251
      ],
      [
       -97.6562856,
       30.4562398
      ],
      [
       -97.6563085,
       30.4561157
      ]
     ]
    ]
   },
   "properties": {
    "osm_id": 1217225722,
    "osm_type": "way",
    "name": "Grand Avenue Parkway",
    "display_name": "Grand Avenue Parkway, Pflugerville, Travis County, Texas, 78728, United States",
    "feature_type": "playground",
    "region": "wells_branch",
    "area_m2": 145.9,
    "open_lat": 30.4561704,
    "open_lon": -97.6562433,
    "open_radius_m": 5.2,
    "source": "openstreetmap_nominatim",
    "licence": "Data (c) OpenStreetMap contributors, ODbL"
   }
  },
  {
   "type": "Feature",
   "geometry": {
    "type": "Polygon",
    "coordinates": [
     [
      [
       -97.6751385,
       30.4365427
      ],
      [
       -97.675115,
       30.4365087
      ],
      [
       -97.6748676,
       30.4363762
      ],
      [
       -97.6746627,
       30.4365152
      ],
      [
       -97.6748254,
       30.4367248
      ],
      [
       -97.6751385,
       30.4365427
      ]
     ]
    ]
   },
   "properties": {
    "osm_id": 168187702,
    "osm_type": "way",
    "name": "Wells Port Drive",
    "display_name": "Wells Port Drive, Wells Branch, Travis County, Texas, 78728, United States",
    "feature_type": "playground",
    "region": "wells_branch",
    "area_m2": 919.0,
    "open_lat": 30.4365409,
    "open_lon": -97.6748671,
    "open_radius_m": 14.4,
    "source": "openstreetmap_nominatim",
    "licence": "Data (c) OpenStreetMap contributors, ODbL"
   }
  },
  {
   "type": "Feature",
   "geometry": {
    "type": "Polygon",
    "coordinates": [
     [
      [
       -97.6870892,
       30.4456097
      ],
      [
       -97.686956,
       30.4455397
      ],
      [
       -97.6868604,
       30.4456748
      ],
      [
       -97.6869936,
       30.4457448
      ],
      [
       -97.6870892,
       30.4456097
      ]
     ]
    ]
   },
   "properties": {
    "osm_id": 877647024,
    "osm_type": "way",
    "name": "Merrilltown Drive",
    "display_name": "Merrilltown Drive, Wells Branch, Travis County, Texas, 78728, United States",
    "feature_type": "playground",
    "region": "wells_branch",
    "area_m2": 263.3,
    "open_lat": 30.4456422,
    "open_lon": -97.6869748,
    "open_radius_m": 7.5,
    "source": "openstreetmap_nominatim",
    "licence": "Data (c) OpenStreetMap contributors, ODbL"
   }
  },
  {
   "type": "Feature",
   "geometry": {
    "type": "Polygon",
    "coordinates": [
     [
      [
       -97.673093,
       30.4471899
      ],
      [
       -97.6730909,
       30.4471565
      ],
      [
       -97.6730787,
       30.4471337
      ],
      [
       -97.6730572,
       30.4471207
      ],
      [
       -97.672997,
       30.4471188
      ],
      [
       -97.6729712,
       30.447096
      ],
      [
       -97.6729511,
       30.4470898
      ],
      [
       -97.6729296,
       30.4470984
      ],
      [
       -97.6729139,
       30.4471213
      ],
      [
       -97.6729167,
       30.447159
      ],
      [
       -97.6729282,
       30.4471751
      ],
      [
       -97.6729569,
       30.4471887
      ],
      [
       -97.6730006,
       30.4471905
      ],
      [
       -97.6730343,
       30.4472251
      ],
      [
       -97.6730543,
       30.4472257
      ],
      [
       -97.6730809,
       30.4472084
      ],
      [
       -97.673093,
       30.4471899
      ]
     ]
    ]
   },
   "properties": {
    "osm_id": 1217219287,
    "osm_type": "way",
    "name": "Crimson Rosella Trail",
    "display_name": "Crimson Rosella Trail, Wells Branch, Travis County, Texas, 78728, United States",
    "feature_type": "playground",
    "region": "wells_branch",
    "area_m2": 160.5,
    "open_lat": 30.4471626,
    "open_lon": -97.6730426,
    "open_radius_m": 4.5,
    "source": "openstreetmap_nominatim",
    "licence": "Data (c) OpenStreetMap contributors, ODbL"
   }
  }
 ]
}
