{
  "type": "FeatureCollection",
  "features": [
    {
      "type": "Feature",
      "geometry": {
        "type": "Polygon",
        "coordinates": [
          [
            [
              -97.6347387,
              30.4541026
            ],
            [
              -97.6333003,
              30.4533705
            ],
            [
              -97.6334076,
              30.4531069
            ],
            [
              -97.6329463,
              30.45313
            ],
            [
              -97.6322125,
              30.4528714
            ],
            [
              -97.6314762,
              30.452612
            ],
            [
              -97.6313584,
              30.4525705
            ],
            [
              -97.6310151,
              30.4523346
            ],
            [
              -97.6309078,
              30.4522884
            ],
            [
              -97.6301338,
              30.452377
            ],
            [
              -97.6300917,
              30.4523818
            ],
            [
              -97.6299019,
              30.452838
            ],
            [
              -97.6298034,
              30.4530373
            ],
            [
              -97.6295719,
              30.4534093
            ],
            [
              -97.6295737,
              30.4534294
            ],
            [
              -97.6295874,
              30.4534559
            ],
            [
              -97.6338756,
              30.4554662
            ],
            [
              -97.6346194,
              30.454291
            ],
            [
              -97.6347387,
              30.4541026
            ]
          ]
        ]
      },
      "properties": {
        "candidate_id": "AUS-ELZ-111",
        "name": "Swenson Park (simulated recovery site)",
        "feature_type": "park",
        "surface": "grass",
        "static_obstacles": [],
        "image": "elz_111_current.png",
        "area_m2": 83123.5,
        "anchor_lat": 30.4543403,
        "anchor_lon": -97.6325236,
        "open_radius_m": 92.7,
        "nearest_feature": "building/yes 1016, Pfennig Lane, Swenson Farms, Pflug at 92 m",
        "anchor_clearance_score_m": 56.6,
        "osm_id": 589335178,
        "osm_type": "way",
        "source": "OpenStreetMap way/589335178 (ODbL)",
        "tier": "PREPLANNED_SIMULATED_ELZ",
        "certification_status": "SIMULATED"
      }
    },
    {
      "type": "Feature",
      "geometry": {
        "type": "Polygon",
        "coordinates": [
          [
            [
              -97.6381947,
              30.4606406
            ],
            [
              -97.6380789,
              30.4605877
            ],
            [
              -97.637934,
              30.4605207
            ],
            [
              -97.6377469,
              30.4604531
            ],
            [
              -97.6376258,
              30.460418
            ],
            [
              -97.6375531,
              30.4603956
            ],
            [
              -97.6374348,
              30.4603671
            ],
            [
              -97.6371672,
              30.4603344
            ],
            [
              -97.6369802,
              30.4603215
            ],
            [
              -97.636831,
              30.4603246
            ],
            [
              -97.6367786,
              30.4603542
            ],
            [
              -97.6367784,
              30.4603765
            ],
            [
              -97.6368632,
              30.4611505
            ],
            [
              -97.6372118,
              30.4611246
            ],
            [
              -97.6372525,
              30.4614485
            ],
            [
              -97.6372401,
              30.4616028
            ],
            [
              -97.6372144,
              30.4617598
            ],
            [
              -97.6371583,
              30.4619276
            ],
            [
              -97.6370813,
              30.4620778
            ],
            [
              -97.6354255,
              30.4646678
            ],
            [
              -97.6353802,
              30.4647439
            ],
            [
              -97.6354833,
              30.4647952
            ],
            [
              -97.6355518,
              30.464699
            ],
            [
              -97.6366867,
              30.4629231
            ],
            [
              -97.6367568,
              30.4629271
            ],
            [
              -97.6369015,
              30.4626775
            ],
            [
              -97.6368642,
              30.4626574
            ],
            [
              -97.6369599,
              30.4624924
            ],
            [
              -97.6369832,
              30.4625024
            ],
            [
              -97.6371586,
              30.4622197
            ],
            [
              -97.6372901,
              30.4620077
            ],
            [
              -97.6374982,
              30.4616725
            ],
            [
              -97.6377832,
              30.4611941
            ],
            [
              -97.6379429,
              30.4610291
            ],
            [
              -97.638069,
              30.4608379
            ],
            [
              -97.6381344,
              30.4607413
            ],
            [
              -97.6381801,
              30.460665
            ],
            [
              -97.6381947,
              30.4606406
            ]
          ]
        ]
      },
      "properties": {
        "candidate_id": "AUS-ELZ-112",
        "name": "Black Locust Park (simulated recovery site)",
        "feature_type": "park",
        "surface": "grass",
        "static_obstacles": [],
        "image": null,
        "area_m2": 17430.8,
        "anchor_lat": 30.4608195,
        "anchor_lon": -97.6375262,
        "open_radius_m": 45.3,
        "nearest_feature": "leisure/playground West Black Locust Drive, Swenson Farms,  at 58 m",
        "anchor_clearance_score_m": 42.7,
        "osm_id": 683688487,
        "osm_type": "way",
        "source": "OpenStreetMap way/683688487 (ODbL)",
        "tier": "PREPLANNED_SIMULATED_ELZ",
        "certification_status": "SIMULATED"
      }
    }
  ]
}
