{
  "type": "FeatureCollection",
  "features": [
    {
      "type": "Feature",
      "geometry": {
        "type": "Polygon",
        "coordinates": [
          [
            [
              -97.6371433,
              30.4439812
            ],
            [
              -97.6355876,
              30.4432135
            ],
            [
              -97.6357485,
              30.4429175
            ],
            [
              -97.635783,
              30.442764
            ],
            [
              -97.6355453,
              30.4426511
            ],
            [
              -97.6345576,
              30.4420387
            ],
            [
              -97.6344554,
              30.4418023
            ],
            [
              -97.6346924,
              30.4414492
            ],
            [
              -97.6343495,
              30.4412637
            ],
            [
              -97.6341632,
              30.4409804
            ],
            [
              -97.634071,
              30.4409479
            ],
            [
              -97.634056,
              30.4409426
            ],
            [
              -97.6333991,
              30.4406344
            ],
            [
              -97.6330302,
              30.4401668
            ],
            [
              -97.6329434,
              30.4400513
            ],
            [
              -97.6326162,
              30.4397763
            ],
            [
              -97.6324,
              30.4395944
            ],
            [
              -97.6321792,
              30.4394077
            ],
            [
              -97.6317212,
              30.4390272
            ],
            [
              -97.6315762,
              30.4389286
            ],
            [
              -97.6311186,
              30.4386442
            ],
            [
              -97.6307789,
              30.4383645
            ],
            [
              -97.6306279,
              30.4382987
            ],
            [
              -97.630829,
              30.4379715
            ],
            [
              -97.6308094,
              30.4379197
            ],
            [
              -97.6306716,
              30.4378354
            ],
            [
              -97.6305196,
              30.4377013
            ],
            [
              -97.6292867,
              30.4362885
            ],
            [
              -97.6285611,
              30.4359509
            ],
            [
              -97.626272,
              30.4347516
            ],
            [
              -97.626563,
              30.4341531
            ],
            [
              -97.6269746,
              30.4340996
            ],
            [
              -97.6269605,
              30.4339374
            ],
            [
              -97.6269624,
              30.4337722
            ],
            [
              -97.6261592,
              30.4334036
            ],
            [
              -97.625836,
              30.4332467
            ],
            [
              -97.6262236,
              30.4330194
            ],
            [
              -97.626205,
              30.4329817
            ],
            [
              -97.626202,
              30.4329484
            ],
            [
              -97.6262085,
              30.432907
            ],
            [
              -97.6262293,
              30.4328791
            ],
            [
              -97.6262565,
              30.432859
            ],
            [
              -97.6263033,
              30.4328468
            ],
            [
              -97.626344,
              30.4328389
            ],
            [
              -97.6264,
              30.432765
            ],
            [
              -97.6259736,
              30.4325876
            ],
            [
              -97.6263402,
              30.4316245
            ],
            [
              -97.6242743,
              30.43067
            ],
            [
              -97.624248,
              30.4306568
            ],
            [
              -97.6240043,
              30.4302767
            ],
            [
              -97.6245947,
              30.4292626
            ],
            [
              -97.6244892,
              30.4283277
            ],
            [
              -97.6240688,
              30.4290317
            ],
            [
              -97.6232986,
              30.4300367
            ],
            [
              -97.6234282,
              30.430633
            ],
            [
              -97.6233724,
              30.4308336
            ],
            [
              -97.6234214,
              30.4308616
            ],
            [
              -97.6234527,
              30.4309139
            ],
            [
              -97.6234515,
              30.4309637
            ],
            [
              -97.6234811,
              30.430987
            ],
            [
              -97.6235156,
              30.4310031
            ],
            [
              -97.6239276,
              30.4327866
            ],
            [
              -97.624519,
              30.4333841
            ],
            [
              -97.6246851,
              30.4336121
            ],
            [
              -97.6247522,
              30.433829
            ],
            [
              -97.6249125,
              30.4338719
            ],
            [
              -97.6251056,
              30.4339517
            ],
            [
              -97.6255916,
              30.4342069
            ],
            [
              -97.6251834,
              30.4347935
            ],
            [
              -97.6260095,
              30.4352383
            ],
            [
              -97.6261433,
              30.4353069
            ],
            [
              -97.6269383,
              30.4357127
            ],
            [
              -97.6278495,
              30.4362191
            ],
            [
              -97.6289924,
              30.4369094
            ],
            [
              -97.6292218,
              30.4371154
            ],
            [
              -97.6294771,
              30.4374098
            ],
            [
              -97.6298174,
              30.4376981
            ],
            [
              -97.6295894,
              30.4380764
            ],
            [
              -97.6294131,
              30.4382256
            ],
            [
              -97.6302814,
              30.4386338
            ],
            [
              -97.6304832,
              30.4388406
            ],
            [
              -97.6307703,
              30.4390158
            ],
            [
              -97.6311868,
              30.4392771
            ],
            [
              -97.6314313,
              30.4394623
            ],
            [
              -97.6317634,
              30.439745
            ],
            [
              -97.6320792,
              30.4400315
            ],
            [
              -97.6317454,
              30.4401464
            ],
            [
              -97.6320102,
              30.4405454
            ],
            [
              -97.6323325,
              30.4404325
            ],
            [
              -97.6329295,
              30.4411508
            ],
            [
              -97.6337851,
              30.4414838
            ],
            [
              -97.6332484,
              30.4425018
            ],
            [
              -97.6369891,
              30.4442305
            ],
            [
              -97.6371433,
              30.4439812
            ]
          ]
        ]
      },
      "properties": {
        "candidate_id": "AUS-ELZ-003",
        "name": "Creekside Park (simulated recovery site)",
        "feature_type": "park",
        "surface": "grass",
        "static_obstacles": [],
        "image": null,
        "area_m2": 202765.6,
        "anchor_lat": 30.4321093,
        "anchor_lon": -97.6249433,
        "open_radius_m": 110.3,
        "nearest_feature": "building/detached 110, Mountain View Drive, Settler's Ridg at 135 m",
        "anchor_clearance_score_m": 99.7,
        "osm_id": 544674301,
        "osm_type": "way",
        "source": "OpenStreetMap way/544674301 (ODbL)",
        "tier": "PREPLANNED_SIMULATED_ELZ",
        "certification_status": "SIMULATED"
      }
    },
    {
      "type": "Feature",
      "geometry": {
        "type": "Polygon",
        "coordinates": [
          [
            [
              -97.6153511,
              30.4368511
            ],
            [
              -97.6146568,
              30.4360571
            ],
            [
              -97.6142514,
              30.435724
            ],
            [
              -97.6145017,
              30.4353817
            ],
            [
              -97.6139116,
              30.4349562
            ],
            [
              -97.6143944,
              30.4341422
            ],
            [
              -97.6137755,
              30.4344858
            ],
            [
              -97.6136112,
              30.434577
            ],
            [
              -97.6132947,
              30.4345122
            ],
            [
              -97.6132089,
              30.4344659
            ],
            [
              -97.6130604,
              30.4344524
            ],
            [
              -97.6129031,
              30.4344382
            ],
            [
              -97.6126893,
              30.4342275
            ],
            [
              -97.612415,
              30.4339572
            ],
            [
              -97.6125866,
              30.4336288
            ],
            [
              -97.6120403,
              30.4334693
            ],
            [
              -97.6119969,
              30.4334567
            ],
            [
              -97.6118892,
              30.4334253
            ],
            [
              -97.6117603,
              30.4334288
            ],
            [
              -97.6115888,
              30.4333466
            ],
            [
              -97.6112133,
              30.433934
            ],
            [
              -97.6111371,
              30.4340457
            ],
            [
              -97.6109616,
              30.434303
            ],
            [
              -97.6108598,
              30.4344673
            ],
            [
              -97.6106923,
              30.4348444
            ],
            [
              -97.6136522,
              30.4362958
            ],
            [
              -97.6137722,
              30.4363438
            ],
            [
              -97.6139224,
              30.4362543
            ],
            [
              -97.6142,
              30.436508
            ],
            [
              -97.6148841,
              30.436845
            ],
            [
              -97.6153174,
              30.437083
            ],
            [
              -97.6153511,
              30.4368511
            ]
          ]
        ]
      },
      "properties": {
        "candidate_id": "AUS-ELZ-004",
        "name": "Bohls Park (simulated recovery site)",
        "feature_type": "park",
        "surface": "grass",
        "static_obstacles": [],
        "image": null,
        "area_m2": 67622.9,
        "anchor_lat": 30.4341145,
        "anchor_lon": -97.6118297,
        "open_radius_m": 84.2,
        "nearest_feature": "highway/path Pflugerville Hike and Bike Trail at 68 m",
        "anchor_clearance_score_m": 47.6,
        "osm_id": 74390487,
        "osm_type": "way",
        "source": "OpenStreetMap way/74390487 (ODbL)",
        "tier": "PREPLANNED_SIMULATED_ELZ",
        "certification_status": "SIMULATED"
      }
    }
  ]
}
