{
  "type": "FeatureCollection",
  "features": [
    {
      "type": "Feature",
      "geometry": {
        "type": "Polygon",
        "coordinates": [
          [
            [
              -97.6825707,
              30.4482279
            ],
            [
              -97.6825328,
              30.4478244
            ],
            [
              -97.6822259,
              30.4475992
            ],
            [
              -97.681857,
              30.4473745
            ],
            [
              -97.681932,
              30.4470405
            ],
            [
              -97.6815493,
              30.4469533
            ],
            [
              -97.6813075,
              30.4466838
            ],
            [
              -97.6812986,
              30.446484
            ],
            [
              -97.6813482,
              30.4463238
            ],
            [
              -97.6813818,
              30.4461041
            ],
            [
              -97.6813037,
              30.4458083
            ],
            [
              -97.6811317,
              30.4455525
            ],
            [
              -97.6810234,
              30.4454205
            ],
            [
              -97.6806167,
              30.4450885
            ],
            [
              -97.6800848,
              30.4447444
            ],
            [
              -97.6798531,
              30.4449375
            ],
            [
              -97.6800473,
              30.445071
            ],
            [
              -97.6806818,
              30.4455145
            ],
            [
              -97.6809764,
              30.4458493
            ],
            [
              -97.6810821,
              30.4461507
            ],
            [
              -97.6810479,
              30.4466225
            ],
            [
              -97.6810073,
              30.4470147
            ],
            [
              -97.6809195,
              30.4472232
            ],
            [
              -97.6809255,
              30.4473596
            ],
            [
              -97.6807158,
              30.4473786
            ],
            [
              -97.6804861,
              30.4478624
            ],
            [
              -97.6804046,
              30.4480586
            ],
            [
              -97.6803178,
              30.4482816
            ],
            [
              -97.6801633,
              30.448569
            ],
            [
              -97.6799763,
              30.4488073
            ],
            [
              -97.6798055,
              30.4490807
            ],
            [
              -97.6795941,
              30.4494312
            ],
            [
              -97.6795453,
              30.4495153
            ],
            [
              -97.6792933,
              30.4495503
            ],
            [
              -97.6791144,
              30.4496975
            ],
            [
              -97.6789355,
              30.4497676
            ],
            [
              -97.679025,
              30.4501321
            ],
            [
              -97.679171,
              30.4506631
            ],
            [
              -97.6790309,
              30.4509529
            ],
            [
              -97.679127,
              30.4510089
            ],
            [
              -97.679244,
              30.4511188
            ],
            [
              -97.6793238,
              30.4512135
            ],
            [
              -97.6795747,
              30.4516985
            ],
            [
              -97.6797638,
              30.4520761
            ],
            [
              -97.6797867,
              30.4521644
            ],
            [
              -97.6797935,
              30.4522531
            ],
            [
              -97.6797908,
              30.4523415
            ],
            [
              -97.679742,
              30.452454
            ],
            [
              -97.6800809,
              30.4526156
            ],
            [
              -97.6800739,
              30.4528798
            ],
            [
              -97.6800251,
              30.4531321
            ],
            [
              -97.6800495,
              30.4533564
            ],
            [
              -97.6800332,
              30.4536228
            ],
            [
              -97.6799682,
              30.4540363
            ],
            [
              -97.6798165,
              30.4540393
            ],
            [
              -97.6794343,
              30.454616
            ],
            [
              -97.6790823,
              30.4551471
            ],
            [
              -97.6791366,
              30.4551618
            ],
            [
              -97.6791791,
              30.4551525
            ],
            [
              -97.6793983,
              30.4548968
            ],
            [
              -97.6796153,
              30.4547109
            ],
            [
              -97.6800088,
              30.4544428
            ],
            [
              -97.6803991,
              30.4542466
            ],
            [
              -97.6805769,
              30.4540992
            ],
            [
              -97.6805214,
              30.4536318
            ],
            [
              -97.6805769,
              30.4533131
            ],
            [
              -97.680657,
              30.4529996
            ],
            [
              -97.6807618,
              30.4526172
            ],
            [
              -97.6808111,
              30.4522878
            ],
            [
              -97.6808542,
              30.4519372
            ],
            [
              -97.6808566,
              30.4519165
            ],
            [
              -97.6812206,
              30.4518698
            ],
            [
              -97.6811567,
              30.4513861
            ],
            [
              -97.6811589,
              30.4513287
            ],
            [
              -97.6811612,
              30.4512925
            ],
            [
              -97.6812209,
              30.4510328
            ],
            [
              -97.6813488,
              30.4505051
            ],
            [
              -97.6814707,
              30.4501015
            ],
            [
              -97.6814496,
              30.4500911
            ],
            [
              -97.6812772,
              30.450013
            ],
            [
              -97.6808899,
              30.4498946
            ],
            [
              -97.6804897,
              30.4498379
            ],
            [
              -97.6805426,
              30.4492956
            ],
            [
              -97.6807621,
              30.4486467
            ],
            [
              -97.6812695,
              30.4481551
            ],
            [
              -97.6819473,
              30.4479363
            ],
            [
              -97.6820638,
              30.4482692
            ],
            [
              -97.6822541,
              30.4482427
            ],
            [
              -97.6825707,
              30.4482279
            ]
          ]
        ]
      },
      "properties": {
        "candidate_id": "AUS-ELZ-121",
        "name": "Mills Pond (simulated recovery site)",
        "feature_type": "park",
        "surface": "grass",
        "static_obstacles": [],
        "image": null,
        "area_m2": 109212.7,
        "anchor_lat": 30.4507161,
        "anchor_lon": -97.680223,
        "open_radius_m": 100.9,
        "nearest_feature": "tourism/picnic_site Rick Whinery Drive, Wells Branch, Travis",
        "anchor_clearance_score_m": 999.0,
        "osm_id": 470079059,
        "osm_type": "way",
        "source": "OpenStreetMap way/470079059 (ODbL)",
        "tier": "PREPLANNED_SIMULATED_ELZ",
        "certification_status": "SIMULATED"
      }
    },
    {
      "type": "Feature",
      "geometry": {
        "type": "Polygon",
        "coordinates": [
          [
            [
              -97.6745582,
              30.4513942
            ],
            [
              -97.6736678,
              30.4509491
            ],
            [
              -97.673054,
              30.4519584
            ],
            [
              -97.6738955,
              30.4523755
            ],
            [
              -97.6739331,
              30.4529577
            ],
            [
              -97.6740657,
              30.4529452
            ],
            [
              -97.6741622,
              30.4529412
            ],
            [
              -97.6741557,
              30.4520566
            ],
            [
              -97.6745582,
              30.4513942
            ]
          ]
        ]
      },
      "properties": {
        "candidate_id": "AUS-ELZ-122",
        "name": "Vista Park (simulated recovery site)",
        "feature_type": "park",
        "surface": "grass",
        "static_obstacles": [],
        "image": null,
        "area_m2": 14310.0,
        "anchor_lat": 30.4518758,
        "anchor_lon": -97.6738334,
        "open_radius_m": 49.3,
        "nearest_feature": "leisure/pitch Iceberg Lane, Wells Branch, Travis Count at 71 m",
        "anchor_clearance_score_m": 55.7,
        "osm_id": 690525548,
        "osm_type": "way",
        "source": "OpenStreetMap way/690525548 (ODbL)",
        "tier": "PREPLANNED_SIMULATED_ELZ",
        "certification_status": "SIMULATED"
      }
    }
  ]
}
