{
  "type": "FeatureCollection",
  "features": [
    {
      "type": "Feature",
      "geometry": {
        "type": "Polygon",
        "coordinates": [
          [
            [
              -97.7245477,
              30.397555
            ],
            [
              -97.7236237,
              30.3972697
            ],
            [
              -97.7227134,
              30.3969887
            ],
            [
              -97.7226914,
              30.3969672
            ],
            [
              -97.7226777,
              30.3969701
            ],
            [
              -97.7226568,
              30.396969
            ],
            [
              -97.7226372,
              30.3969602
            ],
            [
              -97.7226235,
              30.3969457
            ],
            [
              -97.7226156,
              30.3969313
            ],
            [
              -97.7226156,
              30.3969069
            ],
            [
              -97.7226258,
              30.3968851
            ],
            [
              -97.7226482,
              30.396869
            ],
            [
              -97.7226778,
              30.3968509
            ],
            [
              -97.7227004,
              30.3968359
            ],
            [
              -97.7227173,
              30.3968148
            ],
            [
              -97.7227275,
              30.3967957
            ],
            [
              -97.7227344,
              30.3967728
            ],
            [
              -97.7227348,
              30.3967513
            ],
            [
              -97.7227334,
              30.3967301
            ],
            [
              -97.7223694,
              30.3966177
            ],
            [
              -97.722349,
              30.3966089
            ],
            [
              -97.7223297,
              30.3965982
            ],
            [
              -97.7223084,
              30.3965842
            ],
            [
              -97.7222851,
              30.3965644
            ],
            [
              -97.7222662,
              30.396553
            ],
            [
              -97.7220979,
              30.3965028
            ],
            [
              -97.7220769,
              30.3964987
            ],
            [
              -97.7220575,
              30.3964993
            ],
            [
              -97.7220351,
              30.3965023
            ],
            [
              -97.7219925,
              30.3965005
            ],
            [
              -97.7219452,
              30.3964896
            ],
            [
              -97.7218303,
              30.3964539
            ],
            [
              -97.7218151,
              30.3964481
            ],
            [
              -97.7218018,
              30.3964452
            ],
            [
              -97.7217877,
              30.3964447
            ],
            [
              -97.721775,
              30.3964475
            ],
            [
              -97.7217634,
              30.3964513
            ],
            [
              -97.7217536,
              30.3964583
            ],
            [
              -97.7217457,
              30.3964691
            ],
            [
              -97.7217411,
              30.3964819
            ],
            [
              -97.7211937,
              30.3978696
            ],
            [
              -97.7211877,
              30.3978887
            ],
            [
              -97.7211886,
              30.3979076
            ],
            [
              -97.7211946,
              30.3979306
            ],
            [
              -97.7212088,
              30.3979474
            ],
            [
              -97.7212387,
              30.3979555
            ],
            [
              -97.7230399,
              30.3982404
            ],
            [
              -97.7232013,
              30.3981482
            ],
            [
              -97.7232334,
              30.3981299
            ],
            [
              -97.7233172,
              30.3977517
            ],
            [
              -97.7240894,
              30.3978658
            ],
            [
              -97.7242885,
              30.3979301
            ],
            [
              -97.7243905,
              30.397963
            ],
            [
              -97.7244066,
              30.3979658
            ],
            [
              -97.7244359,
              30.3978481
            ],
            [
              -97.7243262,
              30.3978196
            ],
            [
              -97.7244238,
              30.3975558
            ],
            [
              -97.7245341,
              30.3975883
            ],
            [
              -97.7245477,
              30.397555
            ]
          ]
        ]
      },
      "properties": {
        "candidate_id": "AUS-ELZ-001",
        "name": "Domain Central Park (simulated recovery site)",
        "feature_type": "park",
        "surface": "grass",
        "static_obstacles": [],
        "image": null,
        "area_m2": 33450.1,
        "anchor_lat": 30.3974446,
        "anchor_lon": -97.7225542,
        "open_radius_m": 71.3,
        "nearest_feature": "leisure/dog_park Alterra Parkway, Rock Rose, Austin, Trav at 63 m",
        "anchor_clearance_score_m": 47.9,
        "osm_id": 468565017,
        "osm_type": "way",
        "source": "OpenStreetMap way/468565017 (ODbL)",
        "tier": "PREPLANNED_SIMULATED_ELZ",
        "certification_status": "SIMULATED"
      }
    },
    {
      "type": "Feature",
      "geometry": {
        "type": "Polygon",
        "coordinates": [
          [
            [
              -97.7218406,
              30.4119229
            ],
            [
              -97.7218175,
              30.4117841
            ],
            [
              -97.7210148,
              30.4113869
            ],
            [
              -97.7198387,
              30.4107117
            ],
            [
              -97.7197079,
              30.4107649
            ],
            [
              -97.7193845,
              30.4109271
            ],
            [
              -97.7189795,
              30.4111261
            ],
            [
              -97.7187725,
              30.4112278
            ],
            [
              -97.7184046,
              30.4113939
            ],
            [
              -97.7180788,
              30.4114723
            ],
            [
              -97.717187,
              30.4118262
            ],
            [
              -97.7170876,
              30.4121127
            ],
            [
              -97.7173447,
              30.4125101
            ],
            [
              -97.7174868,
              30.4126523
            ],
            [
              -97.7176558,
              30.4127738
            ],
            [
              -97.7177433,
              30.412869
            ],
            [
              -97.7177819,
              30.41297
            ],
            [
              -97.717773,
              30.4130309
            ],
            [
              -97.717714,
              30.4130826
            ],
            [
              -97.7175425,
              30.4131107
            ],
            [
              -97.7173415,
              30.4130727
            ],
            [
              -97.7161273,
              30.4126185
            ],
            [
              -97.7158798,
              30.4125645
            ],
            [
              -97.714613,
              30.4123763
            ],
            [
              -97.7136707,
              30.4121069
            ],
            [
              -97.713707,
              30.4118868
            ],
            [
              -97.7136448,
              30.4117765
            ],
            [
              -97.7136234,
              30.4115004
            ],
            [
              -97.7135506,
              30.4112711
            ],
            [
              -97.7135409,
              30.4111467
            ],
            [
              -97.7135753,
              30.410787
            ],
            [
              -97.7133595,
              30.4102377
            ],
            [
              -97.7131673,
              30.4099086
            ],
            [
              -97.7124386,
              30.4105277
            ],
            [
              -97.7125198,
              30.4107384
            ],
            [
              -97.7119506,
              30.4110542
            ],
            [
              -97.7126256,
              30.4120488
            ],
            [
              -97.7128196,
              30.4118794
            ],
            [
              -97.7131839,
              30.4125069
            ],
            [
              -97.7138671,
              30.412688
            ],
            [
              -97.7140147,
              30.4128931
            ],
            [
              -97.7140617,
              30.4130755
            ],
            [
              -97.7142064,
              30.413061
            ],
            [
              -97.7144904,
              30.4141694
            ],
            [
              -97.714599,
              30.4141515
            ],
            [
              -97.7147121,
              30.4141518
            ],
            [
              -97.7148252,
              30.4141642
            ],
            [
              -97.7149166,
              30.4141824
            ],
            [
              -97.7149955,
              30.4142006
            ],
            [
              -97.7150886,
              30.4142339
            ],
            [
              -97.7156508,
              30.4144575
            ],
            [
              -97.715691,
              30.4143765
            ],
            [
              -97.7157205,
              30.4143187
            ],
            [
              -97.7157554,
              30.4142563
            ],
            [
              -97.7157688,
              30.4142308
            ],
            [
              -97.7157983,
              30.4141799
            ],
            [
              -97.7158265,
              30.4141209
            ],
            [
              -97.7165037,
              30.4143927
            ],
            [
              -97.7170509,
              30.4146194
            ],
            [
              -97.7174318,
              30.4147584
            ],
            [
              -97.7178342,
              30.4148556
            ],
            [
              -97.7186361,
              30.4149943
            ],
            [
              -97.7190921,
              30.4150869
            ],
            [
              -97.7194958,
              30.415228
            ],
            [
              -97.7196272,
              30.4150209
            ],
            [
              -97.7209101,
              30.4132253
            ],
            [
              -97.7218406,
              30.4119229
            ]
          ]
        ]
      },
      "properties": {
        "candidate_id": "AUS-ELZ-002",
        "name": "Balcones District Park (simulated recovery site)",
        "feature_type": "park",
        "surface": "grass",
        "static_obstacles": [],
        "image": null,
        "area_m2": 228982.9,
        "anchor_lat": 30.4125808,
        "anchor_lon": -97.7194019,
        "open_radius_m": 160.8,
        "nearest_feature": "amenity/parking Northern Walnut Creek Trail, Austin, Tra at 81 m",
        "anchor_clearance_score_m": 70.9,
        "osm_id": 85646493,
        "osm_type": "way",
        "source": "OpenStreetMap way/85646493 (ODbL)",
        "tier": "PREPLANNED_SIMULATED_ELZ",
        "certification_status": "SIMULATED"
      }
    }
  ]
}
