{
  "type": "FeatureCollection",
  "features": [
    {
      "type": "Feature",
      "geometry": {
        "type": "Polygon",
        "coordinates": [
          [
            [
              -97.6347387,
              30.4541026
            ],
            [
              -97.6333003,
              30.4533705
            ],
            [
              -97.6334076,
              30.4531069
            ],
            [
              -97.6329463,
              30.45313
            ],
            [
              -97.6322125,
              30.4528714
            ],
            [
              -97.6314762,
              30.452612
            ],
            [
              -97.6313584,
              30.4525705
            ],
            [
              -97.6310151,
              30.4523346
            ],
            [
              -97.6309078,
              30.4522884
            ],
            [
              -97.6301338,
              30.452377
            ],
            [
              -97.6300917,
              30.4523818
            ],
            [
              -97.6299019,
              30.452838
            ],
            [
              -97.6298034,
              30.4530373
            ],
            [
              -97.6295719,
              30.4534093
            ],
            [
              -97.6295737,
              30.4534294
            ],
            [
              -97.6295874,
              30.4534559
            ],
            [
              -97.6338756,
              30.4554662
            ],
            [
              -97.6346194,
              30.454291
            ],
            [
              -97.6347387,
              30.4541026
            ]
          ]
        ]
      },
      "properties": {
        "feature_type": "park",
        "name": "Swenson Park",
        "candidate_id": "AUTO-PARK-SWENSON",
        "image": "auto_field_01.png",
        "area_m2": 83123.5,
        "anchor_lat": 30.4543403,
        "anchor_lon": -97.6325236,
        "open_radius_m": 92.7,
        "nearest_feature": "building/yes 1016, Pfennig Lane, Swenson Farms, Pflug at 92 m",
        "anchor_clearance_score_m": 56.6,
        "surface": "grass",
        "osm_id": 589335178,
        "source": "OpenStreetMap way/589335178 (ODbL)"
      }
    },
    {
      "type": "Feature",
      "geometry": {
        "type": "Polygon",
        "coordinates": [
          [
            [
              -97.6381947,
              30.4606406
            ],
            [
              -97.6380789,
              30.4605877
            ],
            [
              -97.637934,
              30.4605207
            ],
            [
              -97.6377469,
              30.4604531
            ],
            [
              -97.6376258,
              30.460418
            ],
            [
              -97.6375531,
              30.4603956
            ],
            [
              -97.6374348,
              30.4603671
            ],
            [
              -97.6371672,
              30.4603344
            ],
            [
              -97.6369802,
              30.4603215
            ],
            [
              -97.636831,
              30.4603246
            ],
            [
              -97.6367786,
              30.4603542
            ],
            [
              -97.6367784,
              30.4603765
            ],
            [
              -97.6368632,
              30.4611505
            ],
            [
              -97.6372118,
              30.4611246
            ],
            [
              -97.6372525,
              30.4614485
            ],
            [
              -97.6372401,
              30.4616028
            ],
            [
              -97.6372144,
              30.4617598
            ],
            [
              -97.6371583,
              30.4619276
            ],
            [
              -97.6370813,
              30.4620778
            ],
            [
              -97.6354255,
              30.4646678
            ],
            [
              -97.6353802,
              30.4647439
            ],
            [
              -97.6354833,
              30.4647952
            ],
            [
              -97.6355518,
              30.464699
            ],
            [
              -97.6366867,
              30.4629231
            ],
            [
              -97.6367568,
              30.4629271
            ],
            [
              -97.6369015,
              30.4626775
            ],
            [
              -97.6368642,
              30.4626574
            ],
            [
              -97.6369599,
              30.4624924
            ],
            [
              -97.6369832,
              30.4625024
            ],
            [
              -97.6371586,
              30.4622197
            ],
            [
              -97.6372901,
              30.4620077
            ],
            [
              -97.6374982,
              30.4616725
            ],
            [
              -97.6377832,
              30.4611941
            ],
            [
              -97.6379429,
              30.4610291
            ],
            [
              -97.638069,
              30.4608379
            ],
            [
              -97.6381344,
              30.4607413
            ],
            [
              -97.6381801,
              30.460665
            ],
            [
              -97.6381947,
              30.4606406
            ]
          ]
        ]
      },
      "properties": {
        "feature_type": "park",
        "name": "Black Locust Park",
        "candidate_id": "AUTO-PARK-BLACKLOCUST",
        "image": null,
        "area_m2": 17430.8,
        "anchor_lat": 30.4608195,
        "anchor_lon": -97.6375262,
        "open_radius_m": 45.3,
        "nearest_feature": "leisure/playground West Black Locust Drive, Swenson Farms,  at 58 m",
        "anchor_clearance_score_m": 42.7,
        "surface": "grass",
        "osm_id": 683688487,
        "source": "OpenStreetMap way/683688487 (ODbL)"
      }
    },
    {
      "type": "Feature",
      "geometry": {
        "type": "Polygon",
        "coordinates": [
          [
            [
              -97.6357548,
              30.4556449
            ],
            [
              -97.6343799,
              30.4550303
            ],
            [
              -97.634048,
              30.4555443
            ],
            [
              -97.635385,
              30.4561643
            ],
            [
              -97.6354077,
              30.4561641
            ],
            [
              -97.6354292,
              30.4561552
            ],
            [
              -97.6357548,
              30.4556449
            ]
          ]
        ]
      },
      "properties": {
        "feature_type": "park",
        "name": "Heatherwilde at Pflugerville HOA Park",
        "candidate_id": "AUTO-PARK-HEATHERWILDE",
        "image": null,
        "area_m2": 9886.8,
        "anchor_lat": 30.4557585,
        "anchor_lon": -97.6352481,
        "open_radius_m": 33.5,
        "nearest_feature": "leisure/playground Gilleland Creek Trail, Swenson Farms, Pf at 39 m",
        "anchor_clearance_score_m": 23.5,
        "surface": "grass",
        "osm_id": 1217235655,
        "source": "OpenStreetMap way/1217235655 (ODbL)"
      }
    },
    {
      "type": "Feature",
      "geometry": {
        "type": "Polygon",
        "coordinates": [
          [
            [
              -97.6372096,
              30.4443937
            ],
            [
              -97.6369891,
              30.4442305
            ],
            [
              -97.6332484,
              30.4425018
            ],
            [
              -97.6318679,
              30.4418638
            ],
            [
              -97.6313353,
              30.4427062
            ],
            [
              -97.6312563,
              30.4428309
            ],
            [
              -97.6303941,
              30.4441946
            ],
            [
              -97.6322164,
              30.4450675
            ],
            [
              -97.6331008,
              30.4454891
            ],
            [
              -97.6335371,
              30.4456811
            ],
            [
              -97.6336772,
              30.4457475
            ],
            [
              -97.6348592,
              30.4463544
            ],
            [
              -97.6351735,
              30.4459081
            ],
            [
              -97.635378,
              30.445759
            ],
            [
              -97.6357495,
              30.4456324
            ],
            [
              -97.6359627,
              30.4455544
            ],
            [
              -97.6360868,
              30.4454913
            ],
            [
              -97.6364154,
              30.4451983
            ],
            [
              -97.6368392,
              30.4449323
            ],
            [
              -97.6370163,
              30.4447428
            ],
            [
              -97.6372096,
              30.4443937
            ]
          ]
        ]
      },
      "properties": {
        "feature_type": "school",
        "name": "Pflugerville High School",
        "source": "OpenStreetMap way/656332061 (ODbL)"
      }
    },
    {
      "type": "Feature",
      "geometry": {
        "type": "Polygon",
        "coordinates": [
          [
            [
              -97.6204087,
              30.4567205
            ],
            [
              -97.6202542,
              30.4549082
            ],
            [
              -97.6200475,
              30.4550302
            ],
            [
              -97.6189622,
              30.4555918
            ],
            [
              -97.6183373,
              30.4559247
            ],
            [
              -97.6180396,
              30.4560288
            ],
            [
              -97.6177257,
              30.4560958
            ],
            [
              -97.6174682,
              30.4560958
            ],
            [
              -97.616905,
              30.456045
            ],
            [
              -97.6168647,
              30.4561282
            ],
            [
              -97.6168057,
              30.457245
            ],
            [
              -97.6193109,
              30.4583571
            ],
            [
              -97.6195854,
              30.4579479
            ],
            [
              -97.6204087,
              30.4567205
            ]
          ]
        ]
      },
      "properties": {
        "feature_type": "school",
        "name": "Park Crest Middle School",
        "source": "OpenStreetMap way/571787328 (ODbL)"
      }
    },
    {
      "type": "Feature",
      "geometry": {
        "type": "Polygon",
        "coordinates": [
          [
            [
              -97.6451787,
              30.4647389
            ],
            [
              -97.6441647,
              30.4642511
            ],
            [
              -97.6444386,
              30.463815
            ],
            [
              -97.644458,
              30.4637841
            ],
            [
              -97.6440637,
              30.4636779
            ],
            [
              -97.6439551,
              30.463531
            ],
            [
              -97.6437981,
              30.463437
            ],
            [
              -97.6437019,
              30.4634045
            ],
            [
              -97.6435385,
              30.4633979
            ],
            [
              -97.6422953,
              30.4633858
            ],
            [
              -97.6412513,
              30.4633814
            ],
            [
              -97.6411806,
              30.4646163
            ],
            [
              -97.6416181,
              30.464765
            ],
            [
              -97.6419447,
              30.4649987
            ],
            [
              -97.642405,
              30.4654292
            ],
            [
              -97.6426812,
              30.4656733
            ],
            [
              -97.6430031,
              30.4659098
            ],
            [
              -97.6441323,
              30.4664072
            ],
            [
              -97.6451787,
              30.4647389
            ]
          ]
        ]
      },
      "properties": {
        "feature_type": "school",
        "name": "Windermere Elementary School",
        "source": "OpenStreetMap way/666587521 (ODbL)"
      }
    },
    {
      "type": "Feature",
      "geometry": {
        "type": "Polygon",
        "coordinates": [
          [
            [
              -97.6422557,
              30.4423701
            ],
            [
              -97.6419382,
              30.4422562
            ],
            [
              -97.6391166,
              30.4409061
            ],
            [
              -97.638735,
              30.4415403
            ],
            [
              -97.6387873,
              30.442826
            ],
            [
              -97.639537,
              30.4431867
            ],
            [
              -97.6401459,
              30.4435012
            ],
            [
              -97.6406501,
              30.4435474
            ],
            [
              -97.6410042,
              30.4432977
            ],
            [
              -97.6415453,
              30.4435395
            ],
            [
              -97.6422557,
              30.4423701
            ]
          ]
        ]
      },
      "properties": {
        "feature_type": "school",
        "name": "Pflugerville Middle School",
        "source": "OpenStreetMap way/666709761 (ODbL)"
      }
    },
    {
      "type": "Feature",
      "geometry": {
        "type": "Polygon",
        "coordinates": [
          [
            [
              -97.6468834,
              30.4424754
            ],
            [
              -97.6445768,
              30.4413412
            ],
            [
              -97.6444763,
              30.4413385
            ],
            [
              -97.6435856,
              30.4426915
            ],
            [
              -97.6460029,
              30.4438455
            ],
            [
              -97.6468834,
              30.4424754
            ]
          ]
        ]
      },
      "properties": {
        "feature_type": "school",
        "name": "Spring Hill Elementary School",
        "source": "OpenStreetMap way/666709764 (ODbL)"
      }
    },
    {
      "type": "Feature",
      "geometry": {
        "type": "Polygon",
        "coordinates": [
          [
            [
              -97.6202365,
              30.4518363
            ],
            [
              -97.6196229,
              30.4516986
            ],
            [
              -97.6191583,
              30.4516347
            ],
            [
              -97.6187644,
              30.4514127
            ],
            [
              -97.6185801,
              30.4513432
            ],
            [
              -97.6180938,
              30.451037
            ],
            [
              -97.6177235,
              30.4508797
            ],
            [
              -97.6177071,
              30.4509317
            ],
            [
              -97.617642,
              30.4509237
            ],
            [
              -97.6175461,
              30.4510217
            ],
            [
              -97.6172625,
              30.4532303
            ],
            [
              -97.6177789,
              30.4532774
            ],
            [
              -97.6184858,
              30.4532045
            ],
            [
              -97.6192446,
              30.4529835
            ],
            [
              -97.6202365,
              30.4518363
            ]
          ]
        ]
      },
      "properties": {
        "feature_type": "school",
        "name": "Brookhollow Elementary School",
        "source": "OpenStreetMap way/666709765 (ODbL)"
      }
    },
    {
      "type": "Feature",
      "geometry": {
        "type": "Polygon",
        "coordinates": [
          [
            [
              -97.6335512,
              30.4501729
            ],
            [
              -97.6334262,
              30.4497344
            ],
            [
              -97.6334584,
              30.4495617
            ],
            [
              -97.633429,
              30.4494974
            ],
            [
              -97.6333955,
              30.4494448
            ],
            [
              -97.6333521,
              30.4493919
            ],
            [
              -97.6332945,
              30.4493398
            ],
            [
              -97.6327444,
              30.4490752
            ],
            [
              -97.6317064,
              30.4492301
            ],
            [
              -97.6315682,
              30.4496545
            ],
            [
              -97.6313941,
              30.4499558
            ],
            [
              -97.6313611,
              30.4499791
            ],
            [
              -97.6313408,
              30.4500016
            ],
            [
              -97.6313267,
              30.4500351
            ],
            [
              -97.6313227,
              30.4500793
            ],
            [
              -97.6312136,
              30.4502681
            ],
            [
              -97.6316841,
              30.4504938
            ],
            [
              -97.6335512,
              30.4501729
            ]
          ]
        ]
      },
      "properties": {
        "feature_type": "school",
        "name": "Timmerman Elementary School",
        "source": "OpenStreetMap way/1228072751 (ODbL)"
      }
    },
    {
      "type": "Feature",
      "geometry": {
        "type": "Polygon",
        "coordinates": [
          [
            [
              -97.6193747,
              30.4526437
            ],
            [
              -97.6192734,
              30.4525639
            ],
            [
              -97.6191646,
              30.4526717
            ],
            [
              -97.6190548,
              30.4526252
            ],
            [
              -97.6189949,
              30.4525201
            ],
            [
              -97.6189176,
              30.4525411
            ],
            [
              -97.6189186,
              30.4527479
            ],
            [
              -97.6189512,
              30.4528285
            ],
            [
              -97.619005,
              30.4528583
            ],
            [
              -97.6190833,
              30.4527952
            ],
            [
              -97.6191494,
              30.4528425
            ],
            [
              -97.6193747,
              30.4526437
            ]
          ]
        ]
      },
      "properties": {
        "feature_type": "playground",
        "name": "Goodspeed Parkway",
        "source": "OpenStreetMap way/1249345766 (ODbL)"
      }
    },
    {
      "type": "Feature",
      "geometry": {
        "type": "Polygon",
        "coordinates": [
          [
            [
              -97.6219869,
              30.4466711
            ],
            [
              -97.6219858,
              30.4466256
            ],
            [
              -97.6219685,
              30.4465825
            ],
            [
              -97.6219366,
              30.4465461
            ],
            [
              -97.6218933,
              30.44652
            ],
            [
              -97.6218428,
              30.4465066
            ],
            [
              -97.6217849,
              30.4465082
            ],
            [
              -97.621731,
              30.4465264
            ],
            [
              -97.6216874,
              30.4465592
            ],
            [
              -97.6216591,
              30.4466028
            ],
            [
              -97.6216495,
              30.446652
            ],
            [
              -97.6216597,
              30.4467012
            ],
            [
              -97.6216885,
              30.4467445
            ],
            [
              -97.6217325,
              30.4467769
            ],
            [
              -97.6217866,
              30.4467947
            ],
            [
              -97.6218445,
              30.4467957
            ],
            [
              -97.6218994,
              30.4467799
            ],
            [
              -97.6219415,
              30.4467522
            ],
            [
              -97.6219716,
              30.4467148
            ],
            [
              -97.6219869,
              30.4466711
            ]
          ]
        ]
      },
      "properties": {
        "feature_type": "playground",
        "name": "Gilleland Creek Trail",
        "source": "OpenStreetMap way/1080672949 (ODbL)"
      }
    },
    {
      "type": "Feature",
      "geometry": {
        "type": "Polygon",
        "coordinates": [
          [
            [
              -97.6351103,
              30.4555376
            ],
            [
              -97.6350001,
              30.4554821
            ],
            [
              -97.6348426,
              30.4554438
            ],
            [
              -97.6347439,
              30.4554599
            ],
            [
              -97.634761,
              30.4555462
            ],
            [
              -97.6350774,
              30.4556363
            ],
            [
              -97.6351103,
              30.4555376
            ]
          ]
        ]
      },
      "properties": {
        "feature_type": "playground",
        "name": "Gilleland Creek Trail",
        "source": "OpenStreetMap way/1217235653 (ODbL)"
      }
    },
    {
      "type": "Feature",
      "geometry": {
        "type": "Polygon",
        "coordinates": [
          [
            [
              -97.6371878,
              30.4606166
            ],
            [
              -97.6371823,
              30.4605828
            ],
            [
              -97.6371693,
              30.4605498
            ],
            [
              -97.6371343,
              30.4605044
            ],
            [
              -97.6370985,
              30.460463
            ],
            [
              -97.6370605,
              30.4604353
            ],
            [
              -97.6370129,
              30.4604183
            ],
            [
              -97.6369741,
              30.460423
            ],
            [
              -97.6369467,
              30.4604393
            ],
            [
              -97.6369316,
              30.4604608
            ],
            [
              -97.6369206,
              30.4604949
            ],
            [
              -97.6369202,
              30.4605385
            ],
            [
              -97.636937,
              30.4605643
            ],
            [
              -97.636967,
              30.4605876
            ],
            [
              -97.6369969,
              30.4606006
            ],
            [
              -97.6369906,
              30.4606203
            ],
            [
              -97.6370542,
              30.4606421
            ],
            [
              -97.6370668,
              30.4606337
            ],
            [
              -97.6370841,
              30.4606323
            ],
            [
              -97.637133,
              30.460645
            ],
            [
              -97.6371562,
              30.4606461
            ],
            [
              -97.6371785,
              30.4606352
            ],
            [
              -97.6371878,
              30.4606166
            ]
          ]
        ]
      },
      "properties": {
        "feature_type": "playground",
        "name": "West Black Locust Drive",
        "source": "OpenStreetMap way/1083919884 (ODbL)"
      }
    },
    {
      "type": "Feature",
      "geometry": {
        "type": "Polygon",
        "coordinates": [
          [
            [
              -97.6398969,
              30.4678838
            ],
            [
              -97.639889,
              30.4678686
            ],
            [
              -97.639758,
              30.4677778
            ],
            [
              -97.6397438,
              30.4677748
            ],
            [
              -97.6396801,
              30.4678205
            ],
            [
              -97.6396704,
              30.467832
            ],
            [
              -97.6396386,
              30.4679136
            ],
            [
              -97.6396332,
              30.467938
            ],
            [
              -97.6396412,
              30.4679548
            ],
            [
              -97.6397173,
              30.4679952
            ],
            [
              -97.639735,
              30.4679944
            ],
            [
              -97.6397536,
              30.4679616
            ],
            [
              -97.6397766,
              30.4679266
            ],
            [
              -97.6398854,
              30.4679052
            ],
            [
              -97.6398969,
              30.4678838
            ]
          ]
        ]
      },
      "properties": {
        "feature_type": "playground",
        "name": "Bishopsgate Drive",
        "source": "OpenStreetMap way/1225898816 (ODbL)"
      }
    },
    {
      "type": "Feature",
      "geometry": {
        "type": "Polygon",
        "coordinates": [
          [
            [
              -97.624942,
              30.4687815
            ],
            [
              -97.6248708,
              30.4686708
            ],
            [
              -97.6246898,
              30.4687453
            ],
            [
              -97.6246723,
              30.4687664
            ],
            [
              -97.6246606,
              30.4687936
            ],
            [
              -97.6246676,
              30.4688288
            ],
            [
              -97.6246945,
              30.4688519
            ],
            [
              -97.6247307,
              30.468864
            ],
            [
              -97.6247645,
              30.468857
            ],
            [
              -97.624942,
              30.4687815
            ]
          ]
        ]
      },
      "properties": {
        "feature_type": "playground",
        "name": "Worley Drive",
        "source": "OpenStreetMap way/1225968033 (ODbL)"
      }
    },
    {
      "type": "Feature",
      "geometry": {
        "type": "Polygon",
        "coordinates": [
          [
            [
              -97.6335651,
              30.4628913
            ],
            [
              -97.6334757,
              30.4627403
            ],
            [
              -97.6333605,
              30.462791
            ],
            [
              -97.6334499,
              30.462942
            ],
            [
              -97.6335651,
              30.4628913
            ]
          ]
        ]
      },
      "properties": {
        "feature_type": "playground",
        "name": "North Heatherwilde Boulevard",
        "source": "OpenStreetMap way/1227791038 (ODbL)"
      }
    },
    {
      "type": "Feature",
      "geometry": {
        "type": "Polygon",
        "coordinates": [
          [
            [
              -97.6304195,
              30.4413331
            ],
            [
              -97.6303969,
              30.4413089
            ],
            [
              -97.6303339,
              30.4412881
            ],
            [
              -97.6303113,
              30.4412908
            ],
            [
              -97.6302498,
              30.4413941
            ],
            [
              -97.6302825,
              30.441427
            ],
            [
              -97.6303183,
              30.4414371
            ],
            [
              -97.6303486,
              30.4414364
            ],
            [
              -97.6304195,
              30.4413331
            ]
          ]
        ]
      },
      "properties": {
        "feature_type": "playground",
        "name": "11th Street",
        "source": "OpenStreetMap way/1225714119 (ODbL)"
      }
    }
  ]
}
